facility_name,street1,city,postal_code,country,latitude,longitude,phone
Chinatown Public Health Center,1490 Mason Street,San Francisco,94133,United States,37.797205,-122.411792,(415) 364-7934
Southeast Health Center,2401 Keith Street,San Francisco,94124,United States,37.72572,-122.391891,(415) 671-7000
Ocean Park Health Center,1351 24th Avenue,San Francisco,94122,United States,37.762305,-122.482581,(415) 682-1950
Maxine Hall Health Center,1301 Pierce Street,San Francisco,94115,United States,37.7823,-122.436084,(415) 292-1300
Potrero Hill Health Center,1050 Wisconsin Street,San Francisco,94107,United States,37.754,-122.398838,(415) 648-3022
Newtown Pharmacy,28-04 31st Street,Astoria,11102,,,,
Walgreens Drug Store,84-20  Broadway,Queens,11373,,,,
Homecrest Clinic,1601 AVENUE S,BROOKLYN,11229,,,,
Medcare Health Inc.,260 Kings Highway,Brooklyn,11223,,,,
Duane Reade,949 3RD AVE,NEW YORK,10022,,,,
Duane Reade,10309 LIBERTY AVE,OZONE PARK,11417,,,,
Drugs Care Pharmacy,1001 Church Avenue,Brooklyn,11218,,,,
Duane Reade,22 W 48TH ST,NEW YORK,10036,,,,
Kmart Pharamcy,66-26 metropolitan Avenue,Middle Village,11379,,,,
Walgreens Drug Store,1511 86th Street,Brooklyn,11228,,,,
Washington Hts HC *Special Event*,600Â West 168th Street,MANHATTAN,10032,,,,
Duane Reade,253 W 72ND ST,NEW YORK,10023,,,,
Rite Aid Pharmacy,32-14  31st Street,Queens,11106,,,,
Rite Aid Pharmacy,81 1st Avenue,Manhattan,10003,,,,
Rite Aid Pharmacy,153-65 Cross Island Pkwy,Queens,11357,,,,
Tower Chemists,1292 1st Avenue,Manhattan,10021,,,,
Rite Aid Pharmacy,1720 Kings Highway,Brooklyn,11229,,,,
Duane Reade,37 BROADWAY,NEW YORK,10006,,,,
CVS,859 MANHATTAN AVE.,BROOKLYN,11222,,,,
Rite Aid Pharmacy,2577 Nostrand  Avenue,Brooklyn,11210,,,,
CVS,81 EIGHTH AVE.,NEW YORK,10011,,,,
Walgreens Drug Store,159-34 Jamaica Avenue,Queens,11432,,,,
Rite Aid Pharmacy,2748 East Tremont Avenue,Bronx,10461,,,,
Walgreens Drug Store,1134 East New York Avenue,Brooklyn,11212,,,,
Stop and Shop Pharmacy,1710 Avenue Y,Brooklyn,11235,,,,
Rite Aid Pharmacy,2007 86th Street,Brooklyn,11214,,,,
VNS Pharmacy (Neighboorhood Drug Store),93-05 63rd Drive,Rego Park,11374,,,,
Rite Aid Pharmacy,32-87  Steinway Street,Queens,11103,,,,
Cumberland Diagnostic and Treatment Center,100 NORTH PORTLAND AVENUE,BROOKLYN,11205,,,,
Rite Aid Pharmacy,1535 2nd Avenue,Manhattan,10075,,,,
Mellor's Drug Streetore,3343 Fulton Street,Brooklyn,11208,,,,
Melrose Houses ,348 EAST 156 STREET,BRONX,10451,,,,
Walgreens Drug Store,1371 Metropolitan Avenue,Bronx,10462,,,,
Duane Reade,756 MYRTLE AVE,BROOKLYN,11206,,,,
Duane Reade,23001 MERRICK BLVD,LAURELTON,11413,,,,
The Health Center at Tremont ,1826 ARTHUR AVENUE,BRONX,10457,,,,
Duane Reade,245 1st Ave.,NEW YORK,10003,,,,
Advantagecare Physicans Medical Office,206-20 LINDEN BOULEVARD,206-20 LINDEN BOULEVARD,11411,,,,
Rite Aid Pharmacy,2064 Mill Avenue,Brooklyn,11234,,,,
Rite Aid Pharmacy,4123 Avenue D,Brooklyn,11203,,,,
Duane Reade,1052-1055 1ST AVE,NEW YORK,10022,,,,
Walgreens Drug Store,1161 Victory Blvd.,Staten Island,10301,,,,
Advantagecare Physicans Medical Office,180-05 HILLSIDE AVENUE,180-05 HILLSIDE AVENUE,11432,,,,
CVS,4112 AVENUE U,BROOKLYN,11234,,,,
Auburndale Pharmacy,192-15 47th Avenue,Flushing,11358,,,,
Preferred Pharmacy-Brooklyn,1771 Broadway,Brooklyn,11207,,,,
Rite Aid Pharmacy,95-14  63rd Drive,Queens,11374,,,,
Duane Reade,459 BROADWAY,NEW YORK,10013,,,,
CVS,1396 SECOND AVENUE,NEW YORK,10021,,,,
Rite Aid Pharmacy,1419 Newkirk Avenue,Brooklyn,11226,,,,
CVS,630 LEXINGTON AVENUE,NEW YORK,10022,,,,
Advantagecare Physicans Medical Office,1000 CHURCH AVENUE,1000 CHURCH AVENUE,11218,,,,
Duane Reade,100 BROADWAY,NEW YORK,10005,,,,
Duane Reade,230 PARK AVE,NEW YORK,10169,,,,
Walgreens Drug Store,2190-91 Richmond Avenue,Staten Island,10314,,,,
Walgreens Drug Store,1973 Forest Avenue,Staten Island,10303,,,,
CVS,3681 BRUCKNER BLVD.,BRONX,10461,,,,
Rite Aid Pharmacy,60-36  Myrtle Avenue,Queens,11385,,,,
Duane Reade,2148 BROADWAY,NEW YORK,10023,,,,
Rite Aid Pharmacy,1033 St. Nicholas Ave,Manhattan,10032,,,,
Bushwick Communicare ,335 CENTRAL AVENUE,BROOKLYN,11221,,,,
CVS,250 PAGE AVE.,STATEN ISLAND,10307,,,,
Rite Aid Pharmacy,120 Court Street,Brooklyn,11201,,,,
CVS,139 FLATBUSH AVE,BROOKLYN,11217,,,,
Joseph Pharmacy,216 West 72nd Street.,Manhattan,10023,,,,
Gunhill Center,1012 EAST GUNHILL ROAD,BRONX,10469,,,,
Duane Reade,260 MADISON AVE,NEW YORK,10016,,,,
Rite Aid Pharmacy,2170 Frederick Douglass Blvd,Manhattan,10026,,,,
Duane Reade,2108 3RD AVE,NEW YORK,10029,,,,
Tomasetti Drug Corp (Neergaard Pharmacy),120 7th Avenue,Brooklyn,11215,,,,
CVS,815 HUTCHINSON RIVER PKWY,BRONX,10465,,,,
Duane Reade,5423 2ND AVE,BROOKLYN,11220,,,,
CVS,4065 AMBOY ROAD,STATEN ISLAND,10308,,,,
Duane Reade,10716 71ST AVE,FOREST HILLS,11375,,,,
Duane Reade,55 E 55TH ST,NEW YORK,10022,,,,
Family Pharmacy Solutions,890 Garrison Avenue,Bronx,10474,,,,
CVS,1654 RICHMOND AVE,STATEN ISLAND,10314,,,,
Judson Health Center,34 SPRING STREET,MANHATTAN,10012,,,,
CVS,1569 FIRST AVENUE,NEW YORK,10028,,,,
Duane Reade,535 5TH AVE,NEW YORK,10017,,,,
Duane Reade,1598 UNION TPKE,NEW HYDE PARK,11040,,,,
Duane Reade,3506 BROADWAY,ASTORIA,11106,,,,
Duane Reade,3766 82ND ST,JACKSON HEIGHTS,11372,,,,
Rite Aid Pharmacy,541 West 235th Street,Bronx,10463,,,,
Rite Aid Pharmacy,925 Soundview Avenue,Bronx,10473,,,,
Duane Reade,49 E 52ND ST,NEW YORK,10022,,,,
Duane Reade,"310 E. 2nd St.,",NEW YORK,10009,,,,
Fort Greene Health Center,295 Flatbush Avenue Ext.,Brooklyn,11217,,,,
Duane Reade,2864 BROADWAY,NEW YORK,10025,,,,
Duane Reade,1888 WESTCHESTER AVE,BRONX,10472,,,,
Walgreens Drug Store,109-62 Francis Lewis Boulevard,Queens,11429,,,,
CVS,5830 AMBOY RD,STATEN ISLAND,10309,,,,
Duane Reade,41 E 58TH ST,NEW YORK,10022,,,,
CVS,10204 FLATLANDS AVE.,BROOKLYN,11236,,,,
Rite Aid Pharmacy,5901 Bay Parkway,Brooklyn,11204,,,,
Well Care Pharmacy,397 East 167th Street,Bronx,10456,,,,
Jonathan Williams Houses Child Health Center,333 ROEBLING STREET,BROOKLYN,11211,,,,
Duane Reade,105 BRIGHTON BEACH AVE,BROOKLYN,11235,,,,
Rite Aid Pharmacy,2221 65th Street,Brooklyn,11204,,,,
Duane Reade,71 W 23RD ST,NEW YORK,10010,,,,
Rite Aid Pharmacy,45-02  43rd Avenue,Queens,11104,,,,
Rite Aid Pharmacy,195 8th Avenue,Manhattan,10011,,,,
South Queens Community Health Center,114-20 GUY R BREWER BOULEVARD,QUEENS,11434,,,,
Community Care Rx. Inc.,"150-36 Union Trpk,",Flushing,11367,,,,
Fort Greene Child Health Center,295 FLATBUSH AVENUE,BROOKLYN,11201,,,,
Andy Pharmacy ,3750 Broadway,Bronx,10032,,,,
Duane Reade,1749 1ST AVE,NEW YORK,10128,,,,
Duane Reade,2428 BELL BLVD,BAYSIDE,11360,,,,
Duane Reade,1270 BROADWAY,NEW YORK,10001,,,,
Duane Reade,1650 GRAND CONCOURSE,BRONX,10457,,,,
Dale Pharmacy & Surgical,108-13 Jamaica Avenue,Richmond Hill,11418,,,,
Rite Aid Pharmacy,840 Westchester Avenue,Bronx,10459,,,,
Walgreens Drug Store,80-11  Eliot Avenue,Queens,11379,,,,
CVS,2900 VETERANS RD W,STATEN ISLAND,10309,,,,
Rite Aid Pharmacy,160-10 Cross Bay Boulevard,Queens,11414,,,,
AM Pharmacy II,219 Grand Street,Manhattan,10013,,,,
Washington Heights Center,600 WEST 168 STREET,MANHATTAN,10032,,,,
Duane Reade,465 2ND AVE,NEW YORK,10016,,,,
Duane Reade,1 PENN PLZ #0034,NEW YORK,10119,,,,
Rite Aid Pharmacy,1091 Ogden Avenue,Bronx,10452,,,,
Advantagecare Physicans Medical Office,215 EAST 95 STREET,215 EAST 95 STREET,10128,,,,
Walgreens Drug Store,1579 Forest Avenue,Staten Island,10302,,,,
Rite Aid Pharmacy,3480 Jerome Avenue,Bronx,10467,,,,
Rite Aid Pharmacy,158-02 Union Turnpike,Queens,11366,,,,
Duane Reade,721 9TH AVE,NEW YORK,10019,,,,
Eleanor Roosevelt Houses ,388 PULASKI STREET,BROOKLYN,11206,,,,
Advantagecare Physicans Medical Office,169-59 137 AVENUE,169-59 137 AVENUE,11434,,,,
Stop and Shop Pharmacy,74-17 Grand Avenue,Elmhurst,11373,,,,
Walgreens Drug Store,2270 Clove Rd,Staten Island,10305,,,,
Rite Aid Pharmacy,2324 Flatbush Avenue,Brooklyn,11234,,,,
Rite Aid Pharmacy,2155 Third Avenue,Manhattan,10035,,,,
Duane Reade,568 W 125TH ST,NEW YORK,10027,,,,
Farmacia Montrose inc. (Three P Drugs) ,791 Flushing Avenue,Brooklyn,11206,,,,
Duane Reade,100 W 57TH ST,NEW YORK,10019,,,,
Rite Aid Pharmacy,144-29 Northern Blvd,Queens,11354,,,,
Walgreens Drug Store,210 Union Avenue,Brooklyn,11211,,,,
Rite Aid Pharmacy,1849 2nd Avenue,Manhattan,10128,,,,
Rite Aid Pharmacy,47-07 Broadway,Queens,11103,,,,
Duane Reade,609 COLUMBUS AVE,NEW YORK,10024,,,,
CVS,2151 86TH STREET,BROOKLYN,11214,,,,
CVS,341 9TH STREET,BROOKLYN,11215,,,,
Rite Aid Pharmacy,4159 White Plains Road,Bronx,10466,,,,
Inwood Pharmacy,4915 Broadway,Manhattan,10034,,,,
Williamsburg Community Health Center ,279 GRAHAM AVENUE,BROOKLYN,11211,,,,
Walgreens Drug Store,406 East Fordham Road,Bronx,10458,,,,
Rite Aid Pharmacy,82-13  37th Avenue,Queens,11372,,,,
Benjamins Pharmacy (Ardent Pharmacy),989 Allerton Avenue,Bronx,10469,,,,
Rite Aid Pharmacy,119-04 Liberty Ave,Queens,11419,,,,
Walgreens Drug Store,645 Rossville Ave.,Staten Island,10309,,,,
Rite Aid Pharmacy,4 World Financial Center,Manhattan,10281,,,,
Duane Reade,4363 AMBOY RD,STATEN ISLAND,10312,,,,
NYU Hospital Center,530 1st Avenue,Manhattan,10016,,,,
Walgreens Drug Store,285 Kings Highway,Brooklyn,11223,,,,
Gristides Pharmacy,686 N Main Street,Manhattan,10044,,,,
Stop and Shop Pharmacy,691 Co-op City Blvd.,Bronx,10475,,,,
Duane Reade,378 AVENUE OF THE AMERICAS,NEW YORK,10011,,,,
Rite Aid Pharmacy,516 East 14th Street,Manhattan,10009,,,,
Duane Reade,750 NEW YORK AVE,BROOKLYN,11203,,,,
Rite Aid Pharmacy,15-08  College Point Blvd,Queens,11356,,,,
Duane Reade,188 DYCKMAN ST,NEW YORK,10040,,,,
CVS,500 GRAND ST.,NEW YORK,10002,,,,
CVS,51 ASTOR PLACE,NEW YORK,10003,,,,
Rite Aid Pharmacy,1998 Bruckner Blvd,Bronx,10473,,,,
Duane Reade,7301 37TH AVE,JACKSON HEIGHTS,11372,,,,
CVS,1598 FLATBUSH AVE,BROOKLYN,11210,,,,
Emcon Pharmacy,49 5th Avenue,Brooklyn,11217,,,,
Bowen Pharmacy,881 10th Avenue,Manhattan,10019,,,,
Clarkson Pharmacy,524 Clarkson Avenue,Brooklyn,11203,,,,
Duane Reade,33 7TH AVE,NEW YORK,10011,,,,
Rite Aid Pharmacy,45-02  43rd Avenue,Queens,11104,,,,
Saad Pharmacy,87-37 Britton Avenue,Elmhurst,11373,,,,
Rite Aid Pharmacy,2002 Avenue U,Brooklyn,11229,,,,
Walgreens Drug Store,5716 Avenue U,Brooklyn,11234,,,,
Rite Aid Pharmacy,75-75  31st Avenue,Queens,11370,,,,
Advantagecare Physicans Medical Office,96-10 METROPOLITAN AVENUE,96-10 METROPOLITAN AVENUE,11375,,,,
5247 Broadway Drugs Inc (Drug Mart),5203a Broadway,Bronx,10463,,,,
CVS,260 ARDEN AVE.,STATEN ISLAND,10312,,,,
Duane Reade,4318 13TH AVE,BROOKLYN,11219,,,,
Duane Reade,893 MANHATTAN AVE,BROOKLYN,11222,,,,
Advantagecare Physicans Medical Office,215 WEST 125 STREET,215 WEST 125 STREET,10027,,,,
Rite Aid Pharmacy,320 Smith Street,Brooklyn,11231,,,,
Duane Reade,194 E 2ND ST,NEW YORK,10009,,,,
CVS,500 WEST 23RD ST.,NEW YORK,10011,,,,
Duane Reade,575 LEXINGTON AVE,NEW YORK,10022,,,,
Duane Reade,1279 3RD AVE,NEW YORK,10021,,,,
Walgreens Drug Store,1227 Forest Avenue,Staten Island,10310,,,,
Sol's Pharmacy,37-12 108th Street,Corona,11368,,,,
Stop and Shop Pharmacy,625 Atlantic Avenue,Brooklyn,11217,,,,
Duane Reade,460 8TH AVE,NEW YORK,10001,,,,
Duane Reade,161 E 23RD ST,NEW YORK,10010,,,,
CVS,512 NEPTUNE AVENUE,BROOKLYN,11224,,,,
Duane Reade,250 BROADWAY,NEW YORK,10007,,,,
Rite Aid Pharmacy,7 Madison Street,Manhattan,10038,,,,
Grant Houses,3170 BROADWAY,MANHATTAN,10027,,,,
Royal Pharmacy (Preferred Heights Inc.),5030 Broadway,Manhattan,10034,,,,
Hamilton Pharmacy,3293 Broadway,Manhattan,10027,,,,
Rite Aid Pharmacy,39-20  Bell Blvd,Queens,11361,,,,
Walgreens Drug Store,520 Atlantic Avenue,Brooklyn,11217,,,,
Duane Reade,11602 BEACH CHANNEL DR,FAR ROCKAWAY,11694,,,,
Walgreens Drug Store,1847 Rockaway Pky,Brooklyn,11236,,,,
Duane Reade,401 E 86TH ST,NEW YORK,10028,,,,
Duane Reade,46 3RD AVE,NEW YORK,10003,,,,
CVS,75 CHRISTOPHER STREET,NEW YORK,10014,,,,
Rite Aid Pharmacy,3823 Nostrand Avenue,Brooklyn,11235,,,,
Duane Reade,661 8TH AVE,NEW YORK,10036,,,,
Duane Reade,333 7TH AVE,NEW YORK,10001,,,,
Duane Reade,1091 LEXINGTON AVE,NEW YORK,10075,,,,
Duane Reade,196 3RD AVE,NEW YORK,10003,,,,
Rite Aid Pharmacy,6423 Fort Hamilton Parkway,Brooklyn,11219,,,,
Rite Aid Pharmacy,1360 Hylan Blvd,Staten Island,10305,,,,
Cureways Pharmacy ,2201 Amsterdam Avenue,Manhattan,10032,,,,
Walgreens Drug Store,9408 3rd Avenue,Brooklyn,11209,,,,
CVS,150 COURT STREET,BROOKLYN,11201,,,,
CVS,395 COURT STREET,BROOKLYN,11231,,,,
CVS,129 FULTON STREET,NEW YORK,10038,,,,
CVS,475 6TH AVE.,NEW YORK,10011,,,,
Walgreens Drug Store,119-02  Rockaway Boulevard,Queens,11420,,,,
Duane Reade,250 W 57TH ST,NEW YORK,10107,,,,
CVS,20 UNIVERSITY PLACE,NEW YORK,10003,,,,
CVS,519 GATEWAY DR,BROOKLYN,11239,,,,
Duane Reade,25709 UNION TPKE,GLEN OAKS,11004,,,,
Walgreens Drug Store,1409 Avenue J,Brooklyn,11230,,,,
Walgreens Drug Store,350 5th Avenue,Manhattan,10001,,,,
Rite Aid Pharmacy,96-02  Rockaway Blvd,Queens,11417,,,,
Walgreens Drug Store,219-14 Merrick Boulevard,Queens,11413,,,,
Mobile Medical Office 2,285 VANDERBILT AVENUE,STATEN ISLAND,10304,,,,
Lincoln Care Drugs,270 East 165th Street,Bronx,10456,,,,
Walgreens Drug Store,4401 White Plains Rd,Bronx,10470,,,,
North Central Bronx Hospital,3424 KOSSUTH AVENUE,BRONX,10467,,,,
Woodside Medical Center,50-53 NEWTOWN ROAD,QUEENS,11377,,,,
East NY ACT Program,2619A ATLANTIC AVENUE,BROOKLYN,11207,,,,
Walgreens Drug Store,2590 Coney Island Avenue,Brooklyn,11223,,,,
Duane Reade,17 JOHN ST,NEW YORK,10038,,,,
Advantagecare Physicans Medical Office,3245 NOSTRAND AVENUE,3245 NOSTRAND AVENUE,11229,,,,
Rite Aid Pharmacy,542 Second Avenue,Manhattan,10016,,,,
Duane Reade,358 5TH AVE,NEW YORK,10001,,,,
Walgreens Drug Store,532 Neptune Avenue,Brooklyn,11224,,,,
Century Pharmacy (RDS Pharmacy),225 Madison Street,Manhattan,10002,,,,
Duane Reade,100 DELANCEY ST,NEW YORK,10002,,,,
San Pedro Pharmacy,1381 St. Nicholas Avenue,Manhattan,10033,,,,
Smile Pharmacy,150-07 Northern Blvd,Flushing,11354,,,,
Duane Reade,3225 3RD AVE,BRONX,10451,,,,
Rite Aid Pharmacy,592 East 183rd Street,Bronx,10458,,,,
Duane Reade,1 REMSEN AVE,BROOKLYN,11212,,,,
Rite Aid Pharmacy,49 West Fordham Road,Bronx,10468,,,,
Duane Reade,1417 AVENUE U,BROOKLYN,11229,,,,
Rite Aid Pharmacy,55-60  Myrtle Avenue,Queens,11385,,,,
CVS,640 ARTHUR KILL ROAD,STATEN ISLAND,10308,,,,
Rite Aid Pharmacy,91-08  Roosevelt Avenue,Queens,11372,,,,
Stop and Shop Pharmacy,92-10 Atlantic Avenue,OZONE PARK,11416,,,,
Rite Aid Pharmacy,901 East Gun Hill Road,Bronx,10469,,,,
CVS,1172 THIRD AVE.,NEW YORK,10065,,,,
Duane Reade,525 FASHION AVE,NEW YORK,10018,,,,
Walgreens Drug Store,14-01  College Point Boulevard,Queens,11356,,,,
Walgreens Drug Store,2101 Church Avenue,Brooklyn,11226,,,,
Corona Medical Center,104-04 CORONA AVENUE,QUEENS,11368,,,,
Manson Pharmacy,137-69 Queens Blvd.,Blairwood,11435,,,,
Walgreens Drug Store,5564 Broadway,Bronx,10463,,,,
Walgreens Drug Store,127-04 Guy R. Brewer Boulevard,Queens,11434,,,,
Rite Aid Pharmacy,5825 Broadway,Bronx,10463,,,,
Walgreens Drug Store,114 Beverly Road,Brooklyn,11218,,,,
St. Nicholas Houses,281 WEST 127 STREET,MANHATTAN,10027,,,,
Broadway Drugs,3408 Broadway,Astoria,11106,,,,
CVS,540 AMSTERDAM AVENUE,NEW YORK,10024,,,,
Duane Reade,769 BROADWAY,NEW YORK,10003,,,,
Duane Reade,700 COLUMBUS AVE,NEW YORK,10025,,,,
Walgreens Drug Store,145-80 Farmers Blvd.,Queens,11434,,,,
Walgreens Drug Store,93-04 Astoria Boulevard,Queens,11369,,,,
Goldbergers Pharmacy,1200 1st Avenue,Manhattan,10065,,,,
Advantagecare Physicans Medical Office,125-06 101 AVENUE,125-06 101 AVENUE,11419,,,,
Drew Hamilton Houses,2698 8 AVENUE,MANHATTAN,10030,,,,
Rite Aid Pharmacy,4188 Broadway,Manhattan,10033,,,,
Duane Reade,44 COURT ST,BROOKLYN,11201,,,,
Walgreens Drug Store,570 Tompkins Ave,Staten Island,10305,,,,
"I and S Drug Streetores, Inc.",1994 Third Avenue,Manhattan,10029,,,,
Rite Aid Pharmacy,85-10  Northern Boulevard,Queens,11372,,,,
Mega Aid Pharmacy I,1013 Broadway,Brooklyn,11221,,,,
Punjab Pharmacy,1018 Coney Island Avenue,Brooklyn,11230,,,,
Costco Pharmacy,2795 Richmond Avenue,Staten Island,10314,,,,
Rite Aid Pharmacy,7501 5th Avenue,Brooklyn,11209,,,,
Dr. Susan Smith McKinney Nursing & Rehab,594 ALBANY AVENUE,BROOKLYN,11203,,,,
CVS,1249 NOSTRAND AVENUE,BROOKLYN,11225,,,,
B&T West Brighton Pharmacy,702 Castleton Avenue,Staten Island,10310,,,,
GST Pharmacy ,669 Grand Street,Brooklyn,11211,,,,
Rite Aid Pharmacy,723 Manhattan Avenue,Brooklyn,11222,,,,
Bellevue Hospital,462 1 AVENUE,MANHATTAN,10016,,,,
Rite Aid Pharmacy,162-19 Hillside Avenue,Queens,11432,,,,
Rite Aid Pharmacy,32 East 170th Street,Bronx,10452,,,,
Duane Reade,2760-62 BROADWAY,NEW YORK,10025,,,,
Living Well Pharmacy,3555 Victory Blvd.,Staten Island,10314,,,,
CVS,2495 BROADWAY,NEW YORK,10025,,,,
CVS,500 W. 42ND ST.,NEW YORK,10036,,,,
CVS,1933 VICTORY BLVD.,STATEN ISLAND,10314,,,,
Advantagecare Physicans Medical Office,86-15 QUEENS BOULEVARD,86-15 QUEENS BOULEVARD,11373,,,,
Duane Reade,24946 HORACE HARDING EXPY,DOUGLASTON,11362,,,,
Rite Aid Pharmacy,524 Second Avenue,Manhattan,10016,,,,
Rite Aid Pharmacy,408 Grand Street,Manhattan,10002,,,,
CVS,2014 CROPSEY AVENUE,BROOKLYN,11214,,,,
Lincoln Hospital,234 EAST 149 STREET,BRONX,10451,,,,
Rite Aid Pharmacy,95-14  63rd Drive,Queens,11374,,,,
Rite Aid Pharmacy,741 Columbus Avenue,Manhattan,10025,,,,
Duane Reade,1479 3RD AVE,NEW YORK,10028,,,,
Duane Reade,9511 63RD DR,REGO PARK,11374,,,,
Rite Aid Pharmacy,249 7th Avenue,Brooklyn,11215,,,,
Duane Reade,2456 RICHMOND AVE,STATEN ISLAND,10314,,,,
Duane Reade,617 W 181ST ST,NEW YORK,10033,,,,
Rite Aid Pharmacy,40-16  National Street,Queens,11368,,,,
Walgreens Drug Store,33 East 23rd Street,Manhattan,10010,,,,
Advantagecare Physicans Medical Office,590 FIFTH AVENUE,590 FIFTH AVENUE,10036,,,,
MedStop Pharmacy & Surgical Supplies,1330 Jerome Avenue,Bronx,10452,,,,
Williamsburg Child Health Center ,279 GRAHAM AVENUE,BROOKLYN,11211,,,,
Rite Aid Pharmacy,2819 Church Avenue,Brooklyn,11226,,,,
CVS,3125 BAINBRIDGE AVENUE,BRONX,10467,,,,
Advantagecare Physicans Medical Office,233 NOSTRAND AVENUE,233 NOSTRAND AVENUE,11205,,,,
Duane Reade,8002 KEW GARDENS RD,KEW GARDENS,11415,,,,
Rite Aid Pharmacy,90-01  Sutphin Blvd,Queens,11435,,,,
Rite Aid Pharmacy,4368 Amboy Road,Staten Island,10312,,,,
Rite Aid Pharmacy,1559 Flatbush Avenue,Brooklyn,11210,,,,
Advantagecare Physicans Medical Office,1050 CLOVE ROAD,1050 CLOVE ROAD,10301,,,,
CVS,320 FIFTH AVENUE,NEW YORK,10001,,,,
Walgreens Drug Store,946 Kings Highway,Brooklyn,11223,,,,
Walgreens Drug Store,6628 18th Avenue,Brooklyn,11204,,,,
Walgreens Drug Store,1820 Williamsbridge Rd.,Bronx,10461,,,,
Rite Aid Pharmacy,302 Church Avenue,Brooklyn,11218,,,,
Five Star Pharmacy,1200 Fulton Street,Brooklyn,11216,,,,
Victor Pharmacy,662 Morris Park Avenue,Bronx,10462,,,,
Rite Aid Pharmacy,960 Halsey Street,Brooklyn,11233,,,,
CVS,411 DITMAS AVENUE,BROOKLYN,11218,,,,
Dermer Pharmacy ,2064 Flatbush Avenue,Brooklyn,11234,,,,
Super Health Pharmacy,6400 Amboy Road,Staten Island,10309,,,,
Rite Aid Pharmacy,3012 3rd Avenue,Bronx,10455,,,,
Family Pharmacy,440 Rockaway Avenue,Brooklyn,11212,,,,
"Morami Pharmacy, Inc",144-73 Northern Blvd.,Flushing,11354,,,,
Rite Aid Pharmacy,37-32  82nd Street,Queens,11372,,,,
Rite Aid Pharmacy,2981 Ocean Avenue,Brooklyn,11235,,,,
Horizon Pharmacy III (NY81 LLC),81-14 Broadway,Elmhurst,11373,,,,
CVS,1 COLUMBUS PLACE,NEW YORK,10019,,,,
Rite Aid Pharmacy,110-88 Queens Blvd,Queens,11375,,,,
Walgreens Drug Store,1366 Broadway,Brooklyn,11221,,,,
CVS,1361 HYLAN BLVD.,STATEN ISLAND,10305,,,,
Rite Aid Pharmacy,546 West 207th Street,Manhattan,10034,,,,
CVS,1500 LEXINGTON AVE.,NEW YORK,10029,,,,
Stop and Shop Pharmacy,961 East Street 174TH Street,Bronx,10460,,,,
Duane Reade,40 WALL ST,NEW YORK,10005,,,,
Rite Aid Pharmacy,106-40 Rockaway Beach Blvd,Queens,11694,,,,
Harlem Hospital,506 LENOX AVENUE,MANHATTAN,10037,,,,
C.O. Bigelow Chemists,414 Sixth Avenue,Manhattan,10011,,,,
CVS,200 WEST END AVENUE,MANHATTAN,10023,,,,
Echo Drugs,260 Broadway,Brooklyn,11211,,,,
CVS,1346 PENNSYLVANIA AVENUE,BROOKLYN,11239,,,,
Walgreens Drug Store,713 Brighton Beach Avenue,Brooklyn,11235,,,,
Norwood Recall Drugs,3138 Fulton Street,Brooklyn,11208,,,,
Duane Reade,559 FULTON ST,BROOKLYN,11201,,,,
Duane Reade,380 AMSTERDAM AVE,NEW YORK,10024,,,,
Rite Aid Pharmacy,642 Wectshester Ave,Bronx,10455,,,,
Walgreens Drug Store,104-25 Queens Boulevard,Queens,11375,,,,
CVS,30 FLATBUSH AVE.,BROOKLYN,11217,,,,
Walgreens Drug Store,58-02  Metropolitan Avenue,Queens,11385,,,,
Healthmax Pharmacy-Fifth Avenue,53-13 5th Avenue,Brooklyn,11217,,,,
Tisane Pharmacy,340 East 86th Street,Manhattan,10028,,,,
Rite Aid Pharmacy,501 6th Avenue,Manhattan,10011,,,,
Duane Reade,2522 BROADWAY,NEW YORK,10025,,,,
Duane Reade,3155 AMBOY RD,STATEN ISLAND,10306,,,,
Walgreens Drug Store,1281 Fulton Street,Brooklyn,11216,,,,
Duane Reade,1889 BROADWAY,NEW YORK,10023,,,,
Duane Reade,320 W 145TH ST,NEW YORK,10039,,,,
Walgreens Drug Store,1471 Broadway,Manhattan,10036,,,,
Triangle Pharamcy,119-01 Jamaica Avenue,Richmond Hill,11418,,,,
Duane Reade,401 PARK AVE S,NEW YORK,10016,,,,
Duane Reade,619 9TH AVE,NEW YORK,10036,,,,
Rite Aid Pharmacy,43-02  Ditmars Blvd,Queens,11105,,,,
Duane Reade,58 E FORDHAM RD,BRONX,10468,,,,
Ida G. Israel Community Health Center,2925 WEST 19 STREET,BROOKLYN,11224,,,,
Duane Reade,4721 16TH AVE,BROOKLYN,11204,,,,
Rite Aid Pharmacy,8222 18th avenue,Brooklyn,11214,,,,
Duane Reade,164 KENT AVE,BROOKLYN,11249,,,,
Rite Aid Pharmacy,36-01  Broadway,Queens,11106,,,,
CVS,8430 NEW UTRECHT AVE.,BROOKLYN,11214,,,,
Lafayette Houses Child Health Center,434 DEKALB AVENUE,BROOKLYN,11205,,,,
Duane Reade,3387 BROADWAY,NEW YORK,10031,,,,
CVS,4901 KINGS HIGHWAY,BROOKLYN,11234,,,,
Icon Pharmacy,4173B Bowne Street,Flushing,11355,,,,
Artis Drugs,80-02 Eliot Avenue,Middle Village,11379,,,,
Sumner Avenue Houses Child Health Center,47 MARCUS GARVEY AVENUE,BROOKLYN,11206,,,,
Crown Heights Health Center,1218 PROSPECT PLACE,BROOKLYN,11213,,,,
CVS,3775 E. TREMONT AVE.,BRONX,10465,,,,
San Juan Pharmacy,960 Amsterdam Avenue,Manhattan,10025,,,,
Mobile Medical Office 4,574 MIDLAND AVENUE,STATEN ISLAND,10306,,,,
Walgreens Drug Store,4915 Flatlands Ave,Brooklyn,11234,,,,
Stop and Shop Pharmacy,2965 Cropsey Avenue,Brooklyn,11214,,,,
CVS,150 EAST 42ND ST.,NEW YORK,10017,,,,
Arrow Pharmacy,883 9th Avenue,Manhattan,10019,,,,
Stop and Shop Pharmacy,31-06 Farrington Street,Flushing,11354,,,,
Bayridge Pharmacy (SBSC),6910 3rd Avenue,Brooklyn,11209,,,,
123 (We Care pharmacy),764 Burke Avenue,Bronx,10467,,,,
CVS,700 EXTERIOR ST,BRONX,10451,,,,
Rite Aid Pharmacy,7821 3rd Avenue,Brooklyn,11209,,,,
Rite Aid Pharmacy,58-01 Queens Boulevard,Queens,11377,,,,
Duane Reade,95 WALL ST,NEW YORK,10005,,,,
Rite Aid Pharmacy,2063 Bartow Avenue,Bronx,10475,,,,
Walgreens Drug Store,353 West 57th Street,Manhattan,10019,,,,
Duane Reade,4 PARK AVE,NEW YORK,10016,,,,
Advantagecare Physicans Medical Office,740 64 STREET,740 64 STREET,11220,,,,
Walgreens Drug Store,7815 Northern Boulevard,Queens,11372,,,,
CVS,168 MONTAGUE ST.,BROOKLYN,11201,,,,
Duane Reade,352 GREENWICH ST,NEW YORK,10013,,,,
Duane Reade,598 BROADWAY,NEW YORK,10012,,,,
Seventh Elm Drugs,56 7th Avenue,Manhattan,10011,,,,
Duane Reade,585 2ND AVE,NEW YORK,10016,,,,
Marble Hill Pharmacy Corp.,5277A Broadway,Bronx,10463,,,,
Duane Reade,131 8TH AVE,NEW YORK,10011,,,,
Lincoln Place Pharmacy,1135 Eastern Parkway,Brooklyn,11213,,,,
Duane Reade,305 BROADWAY,NEW YORK,10007,,,,
Rite Aid Pharmacy,1299 2nd Avenue,Manhattan,10065,,,,
Walgreens Drug Store,83-45  Langdale Street,Queens,11004,,,,
Walgreens Drug Store,112-55 Farmers Blvd.,Queens,11412,,,,
Morrisania Center,1225 GERARD AVENUE,BRONX,10452,,,,
CVS,2182 BROADWAY,NEW YORK,10024,,,,
Rite Aid Pharmacy,3700 Junction Boulevard,Queens,11368,,,,
Junction Medical Center,34-33 JUNCTION BOULEVARD,QUEENS,11372,,,,
CVS,130 DYCKMAN STREET,NEW YORK,10040,,,,
Duane Reade,2681 BROADWAY,NEW YORK,10025,,,,
CVS,215 PARK AVENUE SOUTH,NEW YORK,10003,,,,
"Papas Pharmacy,llc",3979 Laconia Avenue,Bronx,10466,,,,
Walgreens Drug Store,2575 Broadway,Manhattan,10025,,,,
CVS,743 AMSTERDAM AVENUE,NEW YORK,10025,,,,
U.N. Plaza Pharmacy ,800 2nd Avenue,Manhattan,10017,,,,
Rite Aid Pharmacy,650 Castle Hill Avenue,Bronx,10473,,,,
Rite Aid Pharmacy,6201 Fourth Avenue,Brooklyn,11220,,,,
The Floating Hospital,41-43 CRESCENT STREET,LONG ISLAND CITY,11101,,,,
Duane Reade,1235 LEXINGTON AVE,NEW YORK,10028,,,,
Jacobi Hospital,1400 PELHAM PARKWAY SOUTH,BRONX,10461,,,,
Advantagecare Physicans Medical Office,88-06 55 AVENUE,88-06 55 AVENUE,11373,,,,
Myrtle Drugs,5518 Myrtle Avenue,Ridgewood,11385,,,,
American Pharmacy,5524 8th Avenue,Brooklyn,11220,,,,
Stapleton Child Health Center,111 CANAL STREET,STATEN ISLAND,10304,,,,
Top Choice Pharmacy,65-05 Myrtle Avenue,Glendale,11385,,,,
Rite Aid Pharmacy,57 East Burnside Avenue,Bronx,10453,,,,
Duane Reade,16 COURT ST,BROOKLYN,11241,,,,
Walgreens Drug Store,1551 Richmond Avenue,Staten Island,10314,,,,
Duane Reade,1187 1ST AVE,NEW YORK,10065,,,,
Rite Aid Pharmacy,892 Flatbush Avenue,Brooklyn,11226,,,,
Rite Aid Pharmacy,65-35  Woodhaven Blvd,Queens,11374,,,,
Rite Aid Pharmacy,9738 Seaview Avenue,Brooklyn,11236,,,,
Duane Reade,"415 Broadway, Frnt. A,",NEW YORK,10013,,,,
CVS,6502-6510 18TH AVENUE,BROOKLYN,11204,,,,
Rite Aid Pharmacy,50-15  Roosevelt Avenue,Queens,11377,,,,
Rite Aid Pharmacy,650 East Tremont Avenue,Bronx,10457,,,,
Duane Reade,1401 KINGS HWY,BROOKLYN,11229,,,,
Rite Aid Pharmacy,691 Co-op City Boulevard,Bronx,10475,,,,
Stop and Shop Pharmacy,1351 Forest Avenue,Staten Island,10302,,,,
Duane Reade,2141 NOSTRAND AVE,BROOKLYN,11210,,,,
Duane Reade,80 MAIDEN LN,NEW YORK,10038,,,,
Rite Aid Pharmacy,1710 Crosby Avenue,Bronx,10461,,,,
Duane Reade,16004 JAMAICA AVE,JAMAICA,11432,,,,
Athenas Pharmacy,32-24 Steinway Street.,Astoria,11103,,,,
Bliss Pharmacy,1590 Madison Avenue,New York,10029,,,,
Rite Aid Pharmacy,182 Smith Street,Brooklyn,11201,,,,
Drug Mart II LLC,4873 Broadway,Manhattan,10034,,,,
City Chemists,129 Montague Street,Brooklyn,11201,,,,
Rite Aid Pharmacy,506 Utica Avenue,Brooklyn,11203,,,,
CVS,282 EAST 149TH STREET,BRONX,10451,,,,
Duane Reade,200 WATER ST,NEW YORK,10038,,,,
Duane Reade,771 8TH AVE,NEW YORK,10036,,,,
133rd Street Pharmacy,1473 Amsterdam Avenue,New York,10027,,,,
Rite Aid Pharmacy,3040 Eastchester Road,Bronx,10469,,,,
Family Pharmacy and Surgical,2754 3rd Avenue,Bronx,10455,,,,
Duane Reade,2265 RALPH AVE,BROOKLYN,11234,,,,
Bright Pharmacy,227 Brighton Beach Avenue,Brooklyn,11235,,,,
Duane Reade,941 SOUTHERN BLVD,BRONX,10459,,,,
Rite Aid Pharmacy,4232 Baychester Avenue,Bronx,10466,,,,
Careway Pharmacy inc,1174 Flatbush Avenue,Brooklyn,11226,,,,
CVS,1688 WESTCHESTER AVE.,BRONX,10472,,,,
Grove Drugs-J.D. Pharmacy,302 West 12th Street,Manhattan,10014,,,,
Walgreens Drug Store,379 Myrtle Avenue,Brooklyn,11205,,,,
Stop and Shop Pharmacy,1720 Eastchester Road,Bronx,10461,,,,
Duane Reade,1231 MADISON AVE,NEW YORK,10128,,,,
Springfield Gardens Medical Center,134-64 SPRINGFIELD BOULEVARD,QUEENS,11413,,,,
Walgreens Drug Store,145 4th Avenue,Manhattan,10003,,,,
Long Island City Chemists,30-12 36th Avenue,Long Island City,11106,,,,
Duane Reade,144 BLEECKER ST,NEW YORK,10012,,,,
Duane Reade,1498 YORK AVE,NEW YORK,10075,,,,
CVS,241 WEST 57TH ST.,NEW YORK,10019,,,,
Stop and Shop Pharmacy,156-01 Crossbay Blvd.,Howard Beach,11414,,,,
Rite Aid Pharmacy,5102 13th Avenue,Brooklyn,11219,,,,
Friendly Pharmacy ,389 Street 138th Street,Bronx,10454,,,,
Duane Reade,1 E KINGSBRIDGE RD,BRONX,10468,,,,
Duane Reade,425 MAIN ST,ROOSEVELT ISLAND,10044,,,,
Duane Reade,4228 MAIN ST,FLUSHING,11355,,,,
My Family Pharmacy,96-08 Norther Blvd.,Corona,11368,,,,
Duane Reade,296 FLATBUSH AVE,BROOKLYN,11217,,,,
CVS,1070 FLATBUSH AVENUE,BROOKLYN,11226,,,,
Duane Reade,485 LEXINGTON AVE,NEW YORK,10017,,,,
Rite Aid Pharmacy,88 Featherbed Lane,Bronx,10452,,,,
Segundo Ruiz Belvis,545 EAST 142 STREET,BRONX,10454,,,,
Walgreens Drug Store,758 Arthur Kill Road,Staten Island,10312,,,,
RX 2000,2325 First Avenue,Manhattan,10035,,,,
Advantagecare Physicans Medical Office,169-27 137 AVENUE,169-27 137 AVENUE,11434,,,,
Duane Reade,386 FULTON ST,BROOKLYN,11201,,,,
Quick Stop Pharmacy ,7210 20th Avenue,Brooklyn,11204,,,,
CVS,224 EAST 161ST STREET,BRONX,10451,,,,
Walgreens Drug Store,149-28 14th Avenue,Queens,11357,,,,
Teresa Pharmacy,582 Rockaway Avenue,Brooklyn,11212,,,,
Rite Aid Pharmacy,27-07  Francis Lewis Blvd,Queens,11358,,,,
Duane Reade,611 AVENUE OF THE AMERICAS,NEW YORK,10011,,,,
Rite Aid Pharmacy,185 Kings Highway,Brooklyn,11223,,,,
Rite Aid Pharmacy,46-12  Greenpoint Avenue,Queens,11104,,,,
Advantagecare Physicans Medical Office,2832 LINDEN BOULEVARD,2832 LINDEN BOULEVARD,11208,,,,
Bakers Drugs ,205-73 Linden Blvd.,St.Albans,11412,,,,
Coney Island Hospital Center,2601 OCEAN PARKWAY,BROOKLYN,11235,,,,
Rite Aid Pharmacy,1299 2nd Avenue,Manhattan,10065,,,,
Care FaStreet Pharmacy Inc.,3771 Nostrand Avenue,Brooklyn,11235,,,,
CVS,1571 FOREST AVE.,STATEN ISLAND,10302,,,,
CVS,420 FIFTH AVE,NEW YORK,10018,,,,
Duane Reade,13602 ROOSEVELT AVE,FLUSHING,11354,,,,
Advantagecare Physicans Medical Office,195 MONTAGUE STREET,195 MONTAGUE STREET,11201,,,,
Duane Reade,630 FOREST AVE,STATEN ISLAND,10310,,,,
CVS,1294 LEXINGTON AVE.,NEW YORK,10128,,,,
Noorwood Pharmacy LLC,2490 Fredrick Douglas Blvd.,Manhattan,10030,,,,
Apnar Pharmacy Inc.,168-01 Hillside Avenue,Jamaica,11432,,,,
Duane Reade,2107 RICHMOND RD,STATEN ISLAND,10306,,,,
Rite Aid Pharmacy,66-54  Fresh Pond Road,Queens,11385,,,,
Duane Reade,630 3RD AVE,NEW YORK,10017,,,,
CVS,"1241 LEXINGTON AVE,",NEW YORK,10028,,,,
Duane Reade,4801 QUEENS BLVD,WOODSIDE,11377,,,,
CVS,65 5TH AVE.,NEW YORK,10003,,,,
Rite Aid Pharmacy,301 West 50th Street,Manhattan,10019,,,,
Harlem Rx,102 West 116th Street,Manhattan,10026,,,,
Union Scripts,180-30 Union Turnpike,Queens,11366,,,,
Duane Reade,1370 AVENUE OF THE AMERICAS,NEW YORK,10019,,,,
Variety Drugs (Brothers Pharmacy),169-33 137th Avenue,Jamaica,11434,,,,
Corona HC *Special Event*,34-33 Junction Blvd,QUEENS,11372,,,,
Embassy Drugs,1873 Amsterdam Avenue,Manhattan,10031,,,,
CVS,310 E. GUN HILL RD.,BRONX,10467,,,,
Duane Reade,1010 ROSSVILLE AVE,STATEN ISLAND,10309,,,,
Duane Reade,3090 OCEAN AVE,BROOKLYN,11235,,,,
Duane Reade,1637 YORK AVE,NEW YORK,10028,,,,
Rite Aid Pharmacy,31-14  30th Avenue,Queens,11102,,,,
New Ronson Drugs,237 Utica Avenue,Brooklyn,11213,,,,
CVS,156 HENRY STREET,BROOKLYN,11201,,,,
Duane Reade,4 AMSTERDAM AVE,NEW YORK,10023,,,,
Duane Reade,636 BROADWAY,NEW YORK,10012,,,,
Rite Aid Pharmacy,210 Amsterdam Ave,Manhattan,10023,,,,
Duane Reade,125-133 3RD AVE,NEW YORK,10003,,,,
CVS,732 ALLERTON AVENUE,BRONX,10467,,,,
Knickerbocker Chemists,360 Knickerbocker Avenue,Brooklyn,11237,,,,
Rite Aid Pharmacy,19-23  Utopia Parkway,Queens,11357,,,,
Rite Aid Pharmacy,309 West 125th Street,Manhattan,10027,,,,
Duane Reade,666 COURTLANDT AVE,BRONX,10451,,,,
CVS,222 EAST 34TH STREET,NEW YORK,10016,,,,
Ridgewood Medical Center,769 ONDERDONK AVENUE,QUEENS,11385,,,,
McGraw Pharmacy,2048 McGraw Avenue,Bronx,10462,,,,
United Pharmacy,5539 Broadway,Bronx,10463,,,,
Duane Reade,1524 2ND AVE,NEW YORK,10075,,,,
Advantagecare Physicans Medical Office,570 GRAND STREET,570 GRAND STREET,10002,,,,
Sutter Avenue Child Health Center,1091 SUTTER AVENUE,BROOKLYN,11208,,,,
Thriftway Pharmacy,646 10th Avenue,Manhattan,10036,,,,
Advantagecare Physicans Medical Office,4771 HYLAN BOULEVARD,4771 HYLAN BOULEVARD,10312,,,,
Duane Reade,300 W 135TH ST,NEW YORK,10030,,,,
CVS,"27 N. 6TH ST.,",BROOKLYN,11249,,,,
Duane Reade,2069 BROADWAY,NEW YORK,10023,,,,
Rite Aid Pharmacy,186-16 Union Turnpike,Queens,11366,,,,
Duane Reade,155 E 34TH ST,NEW YORK,10016,,,,
Rite Aid Pharmacy,7118 3rd Avenue,Brooklyn,11209,,,,
Rite Aid Pharmacy,3539 Broadway,Manhattan,10031,,,,
Rite Aid Pharmacy,1679 Bedford Avenue,Brooklyn,11225,,,,
Rite Aid Pharmacy,2833 Broadway,Manhattan,10025,,,,
Duane Reade,976 AMSTERDAM AVE,NEW YORK,10025,,,,
Metropolitan Hospital,1901 FIRST AVENUE,MANHATTAN,10029,,,,
CVS,253 FIRST AVENUE,NEW YORK,10003,,,,
Stop and Shop Pharmacy,2754 Hyland Boulavard,Staten Island,10306,,,,
Saltzman Chemists (JPPA Pharmacy),149-19 Union Turnpike,Queens,11367,,,,
Duane Reade,4702 5TH ST,LONG ISLAND CITY,11101,,,,
Duane Reade,5411 MYRTLE AVE,RIDGEWOOD,11385,,,,
CVS,219-39 89TH AVENUE,QUEENS VILLAGE,11427,,,,
Duane Reade,6002 ROOSEVELT AVE,WOODSIDE,11377,,,,
Walgreens Drug Store,33-55 Crescent Street,Queens,11106,,,,
Sols Pharmacy,1515 Southern Blvd.,Bronx,10460,,,,
Accurate Pharmacy,639 5th Avenue,Brooklyn,11215,,,,
Sea View Hospital Rehabilitation Center,460 BRIELLE AVENUE,STATEN ISLAND,10314,,,,
Harpell Chemists Inc.,12-65 150 Street,Whitestone,11357,,,,
CVS,2925 KINGS HIGHWAY,BROOKLYN,11229,,,,
Manhattan City Pharmacy,206 1st Avenue,Manhattan,10009,,,,
CVS,130 LENOX AVE.,NEW YORK,10026,,,,
Rite Aid Pharmacy,911 Morris Park Avenue,Bronx,10462,,,,
XIP Harpell Pharmacy,2134 Broadway,Astoria,11106,,,,
Malcolm Pharmacy,160 Lenox Avenue,New York,10026,,,,
Dipna Rx,2688 Third Avenue,Bronx,10454,,,,
CVS,694 BURKE AVE,BRONX,10467,,,,
City Drug & Surgical,2039 Amsterdam Avenue,Manhattan,10032,,,,
Duane Reade,52 E 14TH ST,NEW YORK,10003,,,,
Walgreens Drug Store,2504 Eastchester Road,Bronx,10469,,,,
Uptown Care Pharmacy,2254 2nd Avenue,Manhattan,10029,,,,
Rite Aid Pharmacy,1950 Fulton Street,Brooklyn,11233,,,,
Hill Pharmacy,53-82 65th Place,Maspeth,11378,,,,
Rite Aid Pharmacy,168 Montague Street,Brooklyn,11201,,,,
CVS,40 W 225TH ST,BRONX,10463,,,,
Astoria ACT Program,12-26 31 AVENUE,ASTORIA,11106,,,,
Rite Aid Pharmacy,21-25  Broadway,Queens,11106,,,,
CVS,6702 FT. HAMILTON PARKWAY,BROOKLYN,11219,,,,
Rite Aid Pharmacy,4910 Broadway,Manhattan,10034,,,,
Duane Reade,8101 BROADWAY,ELMHURST,11373,,,,
Duane Reade,4 COLUMBUS CIR,NEW YORK,10019,,,,
Kings County Hospital Center,451 CLARKSON AVENUE,BROOKLYN,11203,,,,
Rite Aid Pharmacy,583 Grandview Avenue,Queens,11385,,,,
Costco Pharmacy,32-50 Vernon Blvd 11106,Queens,11106,,,,
Elmhurst Hospital,79-01 BROADWAY,QUEENS,11373,,,,
Stop and Shop Pharmacy,2136 Bartow Avenue,Bronx,10475,,,,
Rite Aid Pharmacy,6900 4th Avenue,Brooklyn,11209,,,,
Walgreens Drug Store,1759 Hylan Boulevard,Staten Island,10305,,,,
East NY Center,2094 PITKIN AVENUE,BROOKLYN,11207,,,,
Walgreens Drug Store,82-77  Broadway,Queens,11373,,,,
CVS,750 AVENUE OF AMERICAS,NEW YORK,10010,,,,
CVS,501 FOREST AVE.,STATEN ISLAND,10310,,,,
Woori Pharmacy,219-15B Northern Blvd.,Bayside,11361,,,,
CVS,300 PARK AVE. SOUTH,NEW YORK,10010,,,,
La Clinica Del Barrio ,413 EAST 120 STREET,MANHATTAN,10035,,,,
Avenue C Pharmacy,178 Avenue C,Manhattan,10009,,,,
Rite Aid Pharmacy,355 Knickerbocker Avenue,Brooklyn,11237,,,,
Adelphi Drug Streetore,3350 Fulton Street,Brooklyn,11208,,,,
Duane Reade,135 E 125TH ST,NEW YORK,10035,,,,
Rite Aid Pharmacy,4046 Broadway,Manhattan,10032,,,,
Advantagecare Physicans Medical Office,31-75 23 STREET,31-75 23 STREET,11106,,,,
Coler Rehabiltation & Nursing Care Center,900 MAIN STREET,MANHATTAN,10044,,,,
Duane Reade,325 COLUMBUS AVE,NEW YORK,10023,,,,
Duane Reade,5711 MYRTLE AVE,RIDGEWOOD,11385,,,,
King Community Pharmacy,161 Dreiser Loop,Bronx,10475,,,,
Stop and Shop Pharmacy,70-20 Rockaway Beach Blvd.,Averne by the Sea,11692,,,,
Duane Reade,2858 STEINWAY ST,ASTORIA,11103,,,,
Duane Reade,130 WILLIAM ST,NEW YORK,10038,,,,
Daniel Webster Houses ,401 EAST 168 STREET,BRONX,10456,,,,
CVS,1223 2ND AVENUE,NEW YORK,10065,,,,
Duane Reade,775 COLUMBUS AVE,NEW YORK,10025,,,,
Walgreens Drug Store,1328 2nd Avenue,Manhattan,10021,,,,
Duane Reade,1 WHITEHALL ST,NEW YORK,10004,,,,
Rite Aid Pharmacy,537 East 138th Street,Bronx,10454,,,,
Rite Aid Pharmacy,2271 Richmond Avenue,Staten Island,10314,,,,
CVS,158 BLEECKER STREET,NEW YORK,10012,,,,
Duane Reade,931 1ST AVE,NEW YORK,10022,,,,
Brownsville Child Health Center,259 BRISTOL STREET,BROOKLYN,11212,,,,
Walgreens Drug Store,1160 3rd Avenue,Manhattan,10065,,,,
Duane Reade,254 PARK AVE S,NEW YORK,10010,,,,
Mt. Carmel Pharmacy,205 East 187 Street,Bronx,10458,,,,
Rite Aid Pharmacy,2712 Broadway,Manhattan,10025,,,,
Century Pharmacy ,302a Grand Street,Manhattan,10002,,,,
Walgreens Drug Store,132-50 Metropolitan Avenue,Queens,11418,,,,
CVS,2045 FOREST AVE.,STATEN ISLAND,10303,,,,
Park Chemist,164 5th Avenue,Brooklyn,11217,,,,
Robert Couche Senior Citizens Center,137-57 FARMERS BOULEVARD,QUEENS,11434,,,,
Rite Aid Pharmacy,237 Avenue U,Brooklyn,11223,,,,
Walgreens Drug Store,103-14 Roosevelt Avenue,Queens,11368,,,,
Rite Aid Pharmacy,109-07 101st Avenue,Queens,11419,,,,
CVS,778 MANOR ROAD,STATEN ISLAND,10314,,,,
Rite Aid Pharmacy,33-01  30th Avenue,Queens,11103,,,,
CVS,218 MYRTLE AVE.,BROOKLYN,11201,,,,
Walgreens Drug Store,93-12  Astoria Boulevard,Queens,11369,,,,
Belle Harbor Chemists,449 Beach 129th Street,Belle Harbor,11694,,,,
Aausadm Inc.,4615 5th Avenue,Brooklyn,11220,,,,
Duane Reade,67 BROAD ST,NEW YORK,10004,,,,
Bayridge Pharmacy (SBSC II),7119 5th Avenue,Brooklyn,11209,,,,
Rite Aid Pharmacy,122-02 Liberty Avenue,Queens,11419,,,,
Smith Communicare Health Center,60 MADISON STREET,MANHATTAN,10038,,,,
CVS,272 8TH AVENUE,NEW YORK,10011,,,,
Healthmax Pharmacy Corporation,80-07 Jamaica Avenue,WoodhavenBlvd.,11421,,,,
Walgreens Drug Store,20 Astor Place,Manhattan,10003,,,,
Good Health Pharmacy,79-28 Jamaica Avenue,Woodhaven Blvd.,11421,,,,
Advantagecare Physicans Medical Office,52 DUANE STREET,52 DUANE STREET,10007,,,,
Duane Reade,51 W 51ST ST,NEW YORK,10019,,,,
CVS,1125 BAY STREET,STATEN ISLAND,10305,,,,
Duane Reade,873 BROADWAY,NEW YORK,10003,,,,
Rite Aid Pharmacy,783 Manhattan Avenue,Brooklyn,11222,,,,
Duane Reade,19815 HORACE HARDING EXPY,FRESH MEADOWS,11365,,,,
Duane Reade,1350 BROADWAY,NEW YORK,10018,,,,
CVS,338 EAST 23RD ST.,NEW YORK,10010,,,,
Metro Pharmacy II,103-11 Metropolitan Avenue,Forrest Hills,11375,,,,
NY Northern Pharmacy,164-16 Northern Blvd,Flushing,11358,,,,
Rite Aid Pharmacy,71-14  Austin Street,Queens,11375,,,,
Duane Reade,1181 LIBERTY AVE,BROOKLYN,11208,,,,
Madison Avenue Pharmacy,1407 Madison Avenue,Manhattan,10029,,,,
Walgreens Drug Store,44-15 Kissena Boulevard,Queens,11355,,,,
Advantagecare Physicans Medical Office,140-15 SANFORD AVENUE,140-15 SANFORD AVENUE,11355,,,,
Advantagecare Physicans Medical Office,447 ATLANTIC AVENUE,447 ATLANTIC AVENUE,11217,,,,
Sydenham Health Center ,264 WEST 118 STREET,MANHATTAN,10026,,,,
Walgreens Drug Store,1404 Rockaway Parkway,Brooklyn,11236,,,,
Costco Pharmacy,976 3rd Avenue,Brooklyn,11232,,,,
Rite Aid Pharmacy,950 Southern Blvd,Bronx,10459,,,,
CVS,6831 BAY PARKWAY,BROOKLYN,11204,,,,
Costco Pharmacy,517 Street 117th Street,Manhattan,10035,,,,
Duane Reade,1675 3RD AVE,NEW YORK,10128,,,,
Duane Reade,436 86TH ST,BROOKLYN,11209,,,,
CVS,115 W. 125TH STREET,NEW YORK,10027,,,,
Central ATA Inc.,3348 Central Avenue,Brooklyn,11221,,,,
Duane Reade,180 W 20TH ST,NEW YORK,10011,,,,
Kmart Pharamcy,770 broadway,Manhattan,10003,,,,
Duane Reade,1327 YORK AVE,NEW YORK,10021,,,,
CVS,"1622 THIRD AVE, BOROUGH OF MANHATTAN",NEW YORK,10128,,,,
Square Deal Pharmacy,437 Mother Gaston Blvd.,Brooklyn,11212,,,,
Rite Aid Pharmacy,43-20  Bell Blvd,Queens,11361,,,,
Catalpa Chemists,57-01 Catalpa Avenue,Ridgewood ,11385,,,,
Gristides Pharmacy,227 9th Avenue,Manhattan,10011,,,,
Bedford Stuyvesant Alcoholism Treatment Center ,722 MYRTLE AVENUE,BROOKLYN,11205,,,,
Rite Aid Pharmacy,3901 White Plains Road,Bronx,10466,,,,
Rite Aid Pharmacy,1631 Pitkin Ave,Brooklyn,11212,,,,
Duane Reade,6656 GRAND AVE,MASPETH,11378,,,,
Homecrest HC *Special Event*,1601 Avenue S,BROOKLYN,11229,,,,
CVS,50-56 EAST 167TH ST.,BRONX,10452,,,,
Pilgrim Pharmacy Inc.,2941 Westchester Avenue,Bronx,10461,,,,
Carter Specialty Hospital & Nursing Facility,1752 PARK AVENUE,MANHATTAN,10035,,,,
Ellahi Drugs Corp,321 Wyckoff Avenue,Ridgewood,11385,,,,
Sedgwick Pharmacy,3887 Sedgwick Avenue,Bronx,10463,,,,
Duane Reade,77 7TH AVE,NEW YORK,10011,,,,
Twin Parks Pharmacy,817 East 180 Street,Bronx,10460,,,,
Rite Aid Pharmacy,462 Fifth Avenue,Brooklyn,11215,,,,
Duane Reade,4 W 4TH ST,NEW YORK,10012,,,,
Rite Aid Pharmacy,534 Hudson Street,Manhattan,10014,,,,
Duane Reade,1352 1ST AVE,NEW YORK,10021,,,,
Duane Reade,724 FLATBUSH AVE,BROOKLYN,11226,,,,
Burke Avenue Pharmacy,759 Burke Avenue,Bronx,10467,,,,
Duane Reade,8432 JAMAICA AVE,WOODHAVEN,11421,,,,
Duane Reade,60 SPRING ST,NEW YORK,10012,,,,
Rite Aid Pharmacy,1179 East 233rd Street,Bronx,10466,,,,
Duane Reade,900 8TH AVE,NEW YORK,10019,,,,
Duane Reade,125 E 86TH ST,NEW YORK,10028,,,,
Stella's Pharmacy,8722 Glenwood Road,Brooklyn,11236,,,,
Rite Aid Pharmacy,46-12  Greenpoint Avenue,Queens,11104,,,,
Rite Aid Pharmacy,2158 White Plains Road,Bronx,10462,,,,
Rite Aid Pharmacy,6101 18th Avenue,Brooklyn,11204,,,,
CVS,"4055 HYLAN BLVD,",STATEN ISLAND,10308,,,,
Rite Aid Pharmacy,7812 Flatlands Avenue,Brooklyn,11236,,,,
CVS,298 MULBERRY ST.,NEW YORK,10012,,,,
CVS,800 10TH AVE.,NEW YORK,10019,,,,
Duane Reade,"10 Union Sq., E., #2050",NEW YORK,10003,,,,
Duane Reade,300 E 23rd St.,NEW YORK,10010,,,,
Rite Aid Pharmacy,3001 Mermaid Avenue,Brooklyn,11224,,,,
Medex Pharmacy (M&A Corp),9602 Jamaica Avenue,Queens,11421,,,,
Walgreens Drug Store,3082 Avenue U,Brooklyn,11229,,,,
Duane Reade,111 WORTH ST,NEW YORK,10013,,,,
Rite Aid Pharmacy,2426 Eastchester Road,Bronx,10469,,,,
Duane Reade,1111 3RD AVE,NEW YORK,10065,,,,
Walgreens Drug Store,122 East 86th Street,Manhattan,10028,,,,
Duane Reade,773 LEXINGTON AVE,NEW YORK,10065,,,,
Kassell Pharmacy,218-11 Jamaica Avenue,Queens Village,11428,,,,
CVS,360 6TH AVENUE,NEW YORK,10011,,,,
Walgreens Drug Store,2431 Boston Road,Bronx,10467,,,,
Neergaard NYC Inc,1520 1st Avenue,Manhattan,10075,,,,
Rite Aid Pharmacy,5237 Broadway,Bronx,10463,,,,
Broadway Pharmacy #2,3621 Broadway,Manhattan,10031,,,,
Rite Aid Pharmacy,282 8th Avenue,Manhattan,10001,,,,
Duane Reade,2931 AVENUE U,BROOKLYN,11229,,,,
Queens Hospital Center,82-68 164 STREET,QUEENS,11432,,,,
JSN Pharmacy,1220 Morris Avenue,Bronx,10456,,,,
Rite Aid Pharmacy,35 West 125th Street,Manhattan,10027,,,,
Gena Care Pharmacy,173 Chauncey Street,Brooklyn,11233,,,,
Harpell Ditmars Pharmacy,33-08 Ditmars Blvd.,Astoria,11105,,,,
Duane Reade,1915 3RD AVE,NEW YORK,10029,,,,
Falak Pharmacy,2730 Tremont Avenue,Bronx,10461,,,,
Rite Aid Pharmacy,344 Avenue X,Brooklyn,11223,,,,
Duane Reade,2025 BROADWAY,NEW YORK,10023,,,,
Greenpoint Community Health Center ,875 MANHATTAN AVENUE,BROOKLYN,11222,,,,
Walgreens Drug Store,5001 Church Ave,Brooklyn,11203,,,,
Walgreens Drug Store,955 Manor Road,Staten Island,10314,,,,
Duane Reade,777 AVENUE OF THE AMERICAS,NEW YORK,10001,,,,
Trinity Rx,7521 Myrtle Avenue,Glendale,11385,,,,
CVS,565 WEST 235TH STREET,BRONX,10463,,,,
Rite Aid Pharmacy,7009 13th Avenue,Brooklyn,11228,,,,
Walgreens Drug Store,218-51 Hempstead Ave,Queens,11429,,,,
Rite Aid Pharmacy,2750 Boston Road,Bronx,10467,,,,
Gouverneur Healthcare Services,227 MADISON STREET,MANHATTAN,10002,,,,
Rite Aid Pharmacy,89-10  Jamaica Avenue,Queens,11421,,,,
Rite Aid Pharmacy,Grand Central Terminal,Manhattan,10017,,,,
Walgreens Drug Store,298 1st Avenue,Manhattan,10009,,,,
Gouverneur Nursing Facility,227 MADISON STREET,MANHATTAN,10002,,,,
Walgreens Drug Store,1721 Avenue U,Brooklyn,11229,,,,
Duane Reade,2409 BROADWAY,NEW YORK,10024,,,,
Walgreens Drug Store,3575 Boston Road,Bronx,10469,,,,
Walgreens Drug Store,755 Broadway,Brooklyn,11206,,,,
Women's Medical Center ,59-17 JUNCTION BOULEVARD,QUEENS,11368,,,,
Rite Aid Pharmacy,71-18  Kissena Boulevard,Queens,11367,,,,
La Clinica de Las Americas,175 NAGLE AVENUE,MANHATTAN,10034,,,,
Rite Aid Pharmacy,1510 Saint Nicholas Avenue,Manhattan,10033,,,,
Duane Reade,1490 MADISON AVE,NEW YORK,10029,,,,
Duane Reade,122 E 42nd St,NEW YORK,10168,,,,
Stop and Shop Pharmacy,134-40 Springfield Blvd.,Springfield Gardens,11413,,,,
Marion Pharmacy,322 East 194th Street,Bronx,10458,,,,
Advantagecare Physicans Medical Office,154 WEST 71 STREET,154 WEST 71 STREET,10023,,,,
Duane Reade,852 2ND AVE,NEW YORK,10017,,,,
Advantagecare Physicans Medical Office,21 EAST 22 STREET,21 EAST 22 STREET,10010,,,,
Walgreens Drug Store,143-60 243rd Street,Queens,11422,,,,
Rite Aid Pharmacy,63-37  108TH Street,Queens,11375,,,,
Live Good Pharmacy,1025 Nostrand Avenue,Brooklyn,11225,,,,
Vital Pharmacy,257 West Kingsbridge Rd.,Bronx,10463,,,,
Duane Reade,250 BEDFORD AVE,BROOKLYN,11249,,,,
Walgreens Drug Store,73-21  Kissena Boulevard,Queens,11367,,,,
Duane Reade,455 W 37TH ST,NEW YORK,10018,,,,
Walgreens Drug Store,55 Westchester Square,Bronx,10461,,,,
Walgreens Drug Store,545 3rd Avenue,Manhattan,10016,,,,
Rite Aid Pharmacy,188 9th Avenue,Manhattan,10011,,,,
Duane Reade,1430 BROADWAY,NEW YORK,10018,,,,
Rite Aid Pharmacy,1540 Grand Concourse,Bronx,10457,,,,
Rite Aid Pharmacy,239 East 198th Street,Bronx,10458,,,,
CVS,5 PENN PLAZA,NEW YORK,10001,,,,
Duane Reade,325 N END AVE,NEW YORK,10282,,,,
Rite Aid Pharmacy,1532 86th Street,Brooklyn,11228,,,,
Esco Drug,687 9th Avenue,Manhattan,10036,,,,
Rite Aid Pharmacy,5224 Fifth Avenue,Brooklyn,11220,,,,
Duane Reade,1517 CORTELYOU RD,BROOKLYN,11226,,,,
Duane Reade,279-283 W 125TH ST,NEW YORK,10027,,,,
Drug Shoppe LLC,2074 8th Avenue,New York,10026,,,,
Walgreens Drug Store,3000 Church Avenue,Brooklyn,11226,,,,
Skyline Pharmacy,2123 2nd Avenue,Manhattan,10029,,,,
Kmart Pharamcy,250 West 34th Street,Manhattan,10001,,,,
Woodhull Medical and Mental Health Center,760 BROADWAY,BROOKLYN,11206,,,,
Kings Pharmacy Park Slope,357 Flatbush Avenue,Brooklyn,11238,,,,
Duane Reade,1646 2ND AVE,NEW YORK,10028,,,,
CVS,2873 RICHMOND AVE,STATEN ISLAND,10314,,,,
Mill Basin Pharmacy,5829 Avenue T,Brooklyn,11234,,,,
Rite Aid Pharmacy,69-62  188th Street,Queens,11365,,,,
Cure Pharmacy ,1025a 3rd Avenue,Manhattan,10065,,,,
CVS,2465 RICHMOND AVE.,STATEN ISLAND,10314,,,,
Duane Reade,866 3RD AVE,NEW YORK,10022,,,,
CVS,636 6TH AVENUE,NEW YORK,10011,,,,
Walgreens Drug Store,3085 East Tremont,Bronx,10461,,,,
Rite Aid Pharmacy,78-14  Linden Boulevard,Queens,11414,,,,
Duane Reade,1550 3RD AVE,NEW YORK,10128,,,,
 Neergaard Pharmacy,454 5th Avenue,Brooklyn,11215,,,,
Roberto Clemente Health Center/Sylvia Del Villard,540 EAST 13 STREET,MANHATTAN,10009,,,,
Graciebrutus Pharmacy,205 East 198th Street,Bronx,10458,,,,
Franks Pharmacy,77-01 37th Avenue,Jackson Heights,11372,,,,
Andy Pharmacy II,1341 St. Nicholas Avenue,Manhattan,10033,,,,
Rite Aid Pharmacy,115-10 Merrick Blvd,Queens,11434,,,,
Rite Aid Pharmacy,1040 St Johns Pl,Brooklyn,11213,,,,
Rite Aid Pharmacy,218-35 Hempstead Avenue,Queens,11429,,,,
Advantagecare Physicans Medical Office,546 EASTERN PARKWAY,546 EASTERN PARKWAY,11225,,,,
Rite Aid Pharmacy,57-16  99TthStreet,Queens,11368,,,,
Rite Aid Pharmacy,61-29  Springfield Blvd,Queens,11364,,,,
Rite Aid Pharmacy,60-26  Woodside Avenue,Queens,11377,,,,
Preferred Pharmacy-Harlem,3 Street 115th Street,Manhattan,10029,,,,
Saldo Drugs ,384 Graham Avenue,Brooklyn,11211,,,,
Green Life Pharmacy,1287 Nostrand Avenue,Brooklyn,11226,,,,
Duane Reade,1467 1ST AVE,NEW YORK,10021,,,,
Rite Aid Pharmacy,4389 White Plains Road,Bronx,10466,,,,
Duane Reade,1627 BROADWAY,NEW YORK,10019,,,,
Duane Reade,322 8TH AVE,NEW YORK,10001,,,,
Duane Reade,678 MCLEAN AVE,YONKERS,10704,,,,
Crown Heights HC *Special Event*,1218 Prospect Place,BROOKLYN,11213,,,,
Duane Reade,1191 2ND AVE,NEW YORK,10065,,,,
Duane Reade,520 KINGS HWY,BROOKLYN,11223,,,,
Walgreens Drug Store,1612 Westchester Avenue,Bronx,10472,,,,
CPW Pharmacy,121-16 Liberty Avenue,Richmond Hill,11419,,,,
CVS,2112 WHITE PLAINS ROAD,BRONX,10462,,,,
Advantagecare Physicans Medical Office,4337 BROADWAY,4337 BROADWAY,10033,,,,
CVS,275 THIRD AVENUE,NEW YORK,10010,,,,
Duane Reade,1251 AVENUE OF THE AMERICAS,NEW YORK,10020,,,,
Park Plaza Pharmacy,1773 University Avenue,Bronx,10453,,,,
Rite Aid Pharmacy,87 Avenue D,Manhattan,10009,,,,
Duane Reade,333 E 102ND ST,NEW YORK,10029,,,,
Duane Reade,1356 LEXINGTON AVE,NEW YORK,10128,,,,
Duane Reade,315 W 23RD ST,NEW YORK,10011,,,,
Duane Reade,5008 5TH AVE,BROOKLYN,11220,,,,
Rite Aid Pharmacy,3590 East Tremont Avenue,Bronx,10465,,,,
CVS,757 3RD AVE.,NEW YORK,10017,,,,
Walgreens Drug Store,1041 Westchester Avenue,Bronx,10459,,,,
Rite Aid Pharmacy,1516 Westchester Avenue,Bronx,10472,,,,
Kmart Pharamcy,1998 Bruckner blvd,Bronx,10473,,,,
Walgreens Drug Store,2325 Flatbush Ave.,Brooklyn,11234,,,,
Duane Reade,300 E 39TH ST,NEW YORK,10016,,,,
Duane Reade,4002 BROADWAY,ASTORIA,11103,,,,
CVS,2320 RALPH AVE.,BROOKLYN,11234,,,,
CVS,1402 SHEEPSHEAD BAY ROAD,BROOKLYN,11235,,,,
Rite Aid Pharmacy,4102 Church Avenue,Brooklyn,11203,,,,
Pelham Pharmacy,2171 White Plains Rd,Bronx,10462,,,,
Rite Aid Pharmacy,102-30 Atlantic Avenue,Queens,11416,,,,
CVS,2690 HYLAN BOULEVARD,STATEN ISLAND,10306,,,,
CVS,1916 WILLIAMSBRIDGE ROAD,BRONX,10461,,,,
Kings Third Avenue Pharmacy,1619 3rd Avenue,Manhattan,10128,,,,
Gristides Pharmacy,101 Clark Street,Brooklyn,11201,,,,
Rite Aid Pharmacy,9302 3rd Avenue,Brooklyn,11209,,,,
Nueva Vida Pharmacy,81-25 37th Avenue,Jackson Heights,11372,,,,
Rite Aid Pharmacy,21B Knolls Crescent,Bronx,10463,,,,
Costco Pharmacy,61-35 Junction Blvd,Long Island City,11374,,,,
Walgreens Drug Store,175-06 Hillside Avenue,Queens,11432,,,,
Mariner's Harbor Houses CHC,2040 FOREST AVENUE,STATEN ISLAND,10303,,,,
Duane Reade,625 8TH AVE,NEW YORK,10018,,,,
Advantagecare Physicans Medical Office,29-15 FAR ROCKAWAY BOULEVARD,29-15 FAR ROCKAWAY BOULEVARD,11691,,,,
Rite Aid Pharmacy,1154 Clarkson Avenue,Brooklyn,11212,,,,
Walgreens,4710 S WESTERN AVE,CHICAGO,60609,,,,
19th Ward Office,10402 S. Western Ave.,Chicago,60643,,,,
Walgreens,3405 S KING DR,CHICAGO,60616,,,,
20th Ward-Whole Foods Family Flu Day,832 W. 63rd St.,Chicago,60621,,,,
Walgreens,711 W NORTH AVE STE 204,CHICAGO,60610,,,,
Walgreens,1926 W 35TH ST,CHICAGO,60609,,,,
Walgreens,912 W BELMONT AVE,CHICAGO,60657,,,,
Walgreens,711 W NORTH AVE STE 204,CHICAGO,60610,,,,
Jewel-Osco 3224,6426 West Irving Park Rd,Chicago,60634,,,,
Jewel-Osco 2502,2550 N. Clybourn Ave,Chicago,60614,,,,
Jewel-Osco 3376,370 N. Des Plaines,Chicago,60661,,,,
Walgreens,757 N MICHIGAN AVE,Chicago,60611,,,,
Walgreens,111 S HALSTED ST,Chicago,60661,,,,
CVS/pharmacy,5360 SOUTH WESTERN AVENUE,Chicago,60609,,,,
CVS/pharmacy,3637 NORTH SOUTHPORT AVENUE,CHICAGO,60613,,,,
CVS/pharmacy,745 WEST 103 ROAD STREET,Chicago,60628,,,,
24th Ward Office,1158 S. Keeler Ave.,Chicago,60624,,,,
35th Ward - William P. Nixon School,2121 N. Keeler Ave.,Chicago,60639,,,,
6th Ward-Meyering Park,7140 S DR MARTIN LUTHER KING JR DR,CHICAGO,60619,,,,
Walgreens,2744 N CALIFORNIA AVE,CHICAGO,60647,,,,
CVS/pharmacy,6200 WEST HIGGINS AVENUE,CHICAGO,60630,,,,
CVS/pharmacy,6150 N BROADWAY ST,Chicago,60660,,,,
CVS/pharmacy,8712 SOUTH STONY ISLAND AVENUE,CHICAGO,60619,,,,
Walgreens,5140 W DIVERSEY AVE,CHICAGO,60639,,,,
CVS/pharmacy,4777 NORTH MILWAUKEE AVENUE,CHICAGO,60630,,,,
CVS/pharmacy,105 SOUTH WABASH AVENUE,CHICAGO,60603,,,,
33rd Ward Office,3001 W. Irving Park Rd.,Chicago,60618,,,,
CVS/pharmacy,208 WEST WASHINGTON,CHICAGO,60606,,,,
Chicago Police Department - 25th District,5555 W. Grand Ave.,Chicago,60639,,,,
Walgreens,7544 S STONY ISLAND AVE,Chicago,60649,,,,
Jewel-Osco 3376,370 N. Des Plaines,Chicago,60661,,,,
Walgreens,5414 S ARCHER AVE,CHICAGO,60638,,,,
Walgreens,5600 W FULLERTON AVE,CHICAGO,60639,,,,
Walgreens,6140 N WESTERN AVE,CHICAGO,60659,,,,
CVS/pharmacy,11 EAST 14TH STREET,CHICAGO HEIGHTS,60411,,,,
Nigerian Progressive Organization,8847 S. Colfax Ave.,Chicago,60617,,,,
Walgreens,11 E 75TH ST,Chicago,60619,,,,
Walgreens,4040 N CICERO AVE,CHICAGO,60641,,,,
10th Ward Office,10500 S. Ewing Ave.,Chicago,60617,,,,
Jewel-Osco 3345,1224 S. Wabash,Chicago,60605,,,,
Walgreens,3424 W BELMONT AVE,CHICAGO,60618,,,,
Walgreens,3045 W 26TH ST,Chicago,60623,,,,
Walgreens,2340 W MADISON ST,CHICAGO,60612,,,,
Walgreens,3000 S HALSTED ST,CHICAGO,60608,,,,
Chicago Police Department - 2nd District,5101 S. Wentworth Ave.,Chicago,60609,,,,
CVS/pharmacy,1819 NORTH HARLEM AVENUE,Chicago,60707,,,,
Walgreens,5401 S WENTWORTH AVE,CHICAGO,60609,,,,
Walgreens,1649 W BELMONT AVE,Chicago,60657,,,,
Walgreens,2301 W IRVING PARK RD,Chicago,60618,,,,
Walgreens,315 W CHICAGO AVE,Chicago,60654,,,,
Walgreens,2011 E 95TH ST,CHICAGO,60617,,,,
Walgreens,10300 S MICHIGAN AVE,CHICAGO,60628,,,,
Walgreens,6121 N BROADWAY,Chicago,60660,,,,
Walgreens,4343 N KEDZIE AVE,CHICAGO,60618,,,,
Walgreens,342 E ILLINOIS ST,Chicago,60611,,,,
28th Ward Office,2602 W. 16th St.,Chicago,60608,,,,
CVS/pharmacy,205 NORTH COLUMBUS DRIVE,Chicago,60601,,,,
Walgreens,7150 W ARCHER AVE,CHICAGO,60638,,,,
Walgreens,4010 W LAWRENCE AVE,CHICAGO,60630,,,,
CVS/pharmacy,2427 WEST CHICAGO AVENUE,CHICAGO,60622,,,,
Walgreens,200 W ADAMS ST,CHICAGO,60606,,,,
CVS/pharmacy,401 WEST ARMITAGE AVENUE,Chicago,60614,,,,
Walgreens,4005 W 26TH ST,CHICAGO,60623,,,,
Walgreens,3222 N MILWAUKEE AVE,Chicago,60618,,,,
CVS/pharmacy,3033 NORTH BROADWAY STREET,CHICAGO,60657,,,,
40th Ward Office,5850 N. Lincoln Ave.,Chicago,60659,,,,
Walgreens,7155 W FOSTER AVE,CHICAGO,60656,,,,
CVS/pharmacy,741 WEST 31ST STREET,CHICAGO,60608,,,,
Jewel-Osco 3721,6107 S. Archer Ave.,Chicago,60638,,,,
Jewel-Osco 3455,4355 North Sheridan,Chicago,60613,,,,
CVS/pharmacy,5205 NORTH BROADWAY STREET,Chicago,60640,,,,
City Hall - 2nd Floor Lobby,121 N. LaSalle St.,Chicago,60602,,,,
Walgreens,2340 W MADISON ST,CHICAGO,60612,,,,
Walgreens,3800 W MADISON ST STE 101,Chicago,60624,,,,
Walgreens,11040 S MICHIGAN AVE,CHICAGO,60628,,,,
Walgreens,7652 W TOUHY AVE,Chicago,60631,,,,
36th Ward Office,6934 W. Diversey Ave.,Chicago,60707,,,,
Walgreens,1614 W 47TH ST,Chicago,60609,,,,
CVS/pharmacy,4051 N LINCOLN AVE,Chicago,60618,,,,
CVS/pharmacy,6315 SOUTH PULASKI ROAD,CHICAGO,60629,,,,
City Hall - 2nd Floor Lobby,121 N. LaSalle St.,Chicago,60602,,,,
Jewel-Osco 3443,5345 Broadway St.,Chicago,60640,,,,
Walgreens,1650 W CHICAGO AVE,CHICAGO,60622,,,,
Walgreens,6330 S KING DR,CHICAGO,60637,,,,
Walgreens,1500 W WILSON AVE,CHICAGO,60640,,,,
44th Ward - 19th District Police Station,850 W. Addison St.,Chicago,60613,,,,
St Michael the Archangel Parish,1936 W 48TH ST,CHICAGO,60609,,,,
33rd Ward Office,3001 W. Irving Park Rd.,Chicago,60618,,,,
46th Ward-Weiss Hospital,4700 N. Marine Drive,Chicago,60640,,,,
Walgreens,2001 N MILWAUKEE AVE,CHICAGO,60647,,,,
Walgreens,650 W 63RD ST,CHICAGO,60621,,,,
Walgreens,5230 N MILWAUKEE AVE,CHICAGO,60630,,,,
Walgreens,6315 S KEDZIE AVE,Chicago,60629,,,,
26th Ward-Mozart Park,2036 N. Avers,Chicago,60647,,,,
CVS/pharmacy,121 WEST KINZIE STREET,CHICAGO,60610,,,,
CVS/pharmacy,401 WEST ARMITAGE AVENUE,CHICAGO,60614,,,,
Walgreens,6016 W 63RD ST,Chicago,60638,,,,
Chicago Police Department-Headquarters,3510 S. Michigan Ave.,Chicago,60653,,,,
Jewel-Osco 3296,7342 Foster Ave,Chicago,60656,,,,
9th Ward - Tuley Park,501 E 90th Place,CHICAGO,60619,,,,
Walgreens,641 N CLARK ST,Chicago,60654,,,,
1st Ward Office,1958 N. Milwaukee Ave.,Chicago,60647,,,,
42nd Ward-FUMC Chicago Temple,77 W. Washington St.,Chicago,60602,,,,
Walgreens,8628 S COTTAGE GROVE AVE,CHICAGO,60619,,,,
Walgreens,5600 W FULLERTON AVE,CHICAGO,60639,,,,
8th Ward Office,8539 S. Cottage Grove Ave.,Chicago,60619,,,,
CVS/pharmacy,2722 NORTH CENTRAL AVENUE,CHICAGO,60639,,,,
CVS/pharmacy,6510 NORTH SHERIDAN ROAD,CHICAGO,60626,,,,
Walgreens,1649 W BELMONT AVE,CHICAGO,60657,,,,
Walgreens,3019 W PETERSON AVE,CHICAGO,60659,,,,
29th Ward Office,6272 W. North Ave.,Chicago,60639,,,,
3rd Ward,5046 S. State St.,Chicago,60609,,,,
Jewel-Osco 3632,3630 N. Southport Ave.,Chicago,60613,,,,
Chicago Police Department-Area South,727 E. 111th St.,Chicago,60628,,,,
MinuteClinic Inside CVS/pharmacy Store # 08699,137 SOUTH STATE STREET,CHICAGO,60603,,,,
Walgreens,4000 W 59TH ST,CHICAGO,60629,,,,
2nd Ward-Columbus Elementary School,1003 N Leavitt St.,Chicago,60622,,,,
Walgreens,4720 N MARINE DR,Chicago,60640,,,,
Walgreens,3000 S HALSTED ST,Chicago,60608,,,,
Walgreens,7111 S WESTERN AVE,Chicago,60636,,,,
Walgreens,3245 N HALSTED ST,CHICAGO,60657,,,,
46th Ward-Weiss Hospital,4646 N. Marine Drive,Chicago,60640,,,,
CVS/pharmacy,2825 WEST DEVON AVENUE,Chicago,60659,,,,
Walgreens,1333 W BELMONT AVE,CHICAGO,60657,,,,
Walgreens,4745 W BELMONT AVE,CHICAGO,60641,,,,
CVS/pharmacy,1714 NORTH SHEFFIELD AVENUE,CHICAGO,60614,,,,
Chicago Police Department-11th District,3153 W. Harrison St.,Chicago,60612,,,,
CVS/pharmacy,6417 WEST HIGGINS AVENUE,Chicago,60656,,,,
CVS/pharmacy,2815 NORTH WESTERN AVENUE,CHICAGO,60618,,,,
Walgreens,300 N MICHIGAN AVE,CHICAGO,60601,,,,
Walgreens,1533 E 67TH ST,CHICAGO,60637,,,,
Walgreens,7150 W ARCHER AVE,CHICAGO,60638,,,,
Walgreens,1001 W BELMONT AVE,CHICAGO,60657,,,,
CVS/pharmacy,3311 NORTH PULASKI ROAD,CHICAGO,60641,,,,
Walgreens,4343 N CENTRAL AVE,CHICAGO,60634,,,,
CVS/pharmacy,101 NORTH CLINTON STREET,Chicago,60661,,,,
Walgreens,2317 N CLARK ST,CHICAGO,60614,,,,
Jewel-Osco 3296,7342 Foster Ave,Chicago,60656,,,,
CVS/pharmacy,5360 SOUTH WESTERN AVENUE,Chicago,60609,,,,
9th Ward - Salem Baptist Church,10909 S. Cottage Grove Ave.,Chicago,60628,,,,
12th Ward-McKinley Park,2210 W. Pershing Rd.,Chicago,60609,,,,
CVS/pharmacy,137 SOUTH STATE STREET,CHICAGO,60603,,,,
CVS/pharmacy,3637 N SOUTHPORT AVE,Chicago,60613,,,,
CVS/pharmacy,6417 WEST HIGGINS AVENUE,Chicago,60656,,,,
CVS/pharmacy,6315 SOUTH PULASKI ROAD,CHICAGO,60629,,,,
Walgreens,200 W ADAMS ST,Chicago,60606,,,,
Walgreens,4005 W 26TH ST,CHICAGO,60623,,,,
MinuteClinic Inside CVS/pharmacy Store # 04189,2828 N. CLARK STREET,CHICAGO,60657,,,,
50th Ward,2949 W. Devon,Chicago,60659,,,,
Walgreens,4817 W FULLERTON AVE,Chicago,60639,,,,
Walgreens,2345 W 103RD ST,CHICAGO,60643,,,,
Walgreens,3358 N WESTERN AVE,Chicago,60618,,,,
3rd Ward-DuSable High School,4934 S. Wabash Ave.,Chicago,60615,,,,
Walgreens,3358 N WESTERN AVE,CHICAGO,60618,,,,
46th Ward-Weiss Medical,4700 N. Marine Drive,Chicago,60640,,,,
Englewood Neighborhood Health Center,641 W 63RD ST,CHICAGO,60621,,,,
CVS/pharmacy,5360 SOUTH WESTERN AVENUE,CHICAGO,60609,,,,
Walgreens,4001 W IRVING PARK RD,CHICAGO,60641,,,,
CVS/pharmacy,6150 NORTH BROADWAY,CHICAGO,60660,,,,
St Michael the Archangel,1936 W. 48th St.,Chicago,60609,,,,
Jewel-Osco 3349,2520 N Narragansett Ave.,Chicago,60639,,,,
CVS/pharmacy,120 SOUTH LASALLE STREET,Chicago,60603,,,,
Walgreens,5222 W MADISON ST,Chicago,60644,,,,
42nd Ward-FUMC Chicago Temple,77 W WASHINGTON ST,CHICAGO,60602,,,,
Greater Lawn WIC,4150 W 55TH ST,Chicago,60632,,,,
Prosser Career Academy H.S,2148 N. Long Ave.,Chicago,60639,,,,
State Senator Antonio Munoz & National Latino Education Institute,2011 W. Pershing Rd.,Chicago,60609,,,,
31st Ward-Regency Inn Banquet,5319 W. Diversey,Chicago,60639,,,,
Gift From God Ministry Church,1818 W. 74th St.,Chicago,60636,,,,
Walgreens,4801 N LINCOLN AVE,CHICAGO,60625,,,,
CVS/pharmacy,175 WEST JACKSON BOULEVARD,CHICAGO,60604,,,,
Walgreens,5874 S ARCHER AVE,CHICAGO,60638,,,,
Walgreens,2440 W NORTH AVE,Chicago,60647,,,,
Walgreens,757 N MICHIGAN AVE,CHICAGO,60611,,,,
CVS/pharmacy,2053 NORTH MILWAUKEE AVENUE,CHICAGO,60647,,,,
Chicago Police Department - 5th District,727 E. 111th St.,Chicago,60628,,,,
CVS/pharmacy,1165 NORTH CLARK STREET,CHICAGO,60610,,,,
45th Ward-Jefferson Park Library,5363 W. Lawrence,Chicago,60630,,,,
Walgreens,7109 S JEFFERY BLVD,Chicago,60649,,,,
MinuteClinic Inside CVS/pharmacy Store # 08753,3637 NORTH SOUTHPORT AVENUE,CHICAGO,60613,,,,
Walgreens,2 E ROOSEVELT RD,CHICAGO,60605,,,,
CVS/pharmacy,4777 NORTH MILWAUKEE AVENUE,CHICAGO,60630,,,,
Walgreens,4225 W ARMITAGE AVE,Chicago,60639,,,,
Walgreens,3110 W ARMITAGE AVE,Chicago,60647,,,,
CVS/pharmacy,1228 E 53RD ST,Chicago,60615,,,,
Walgreens,3424 W BELMONT AVE,Chicago,60618,,,,
Walgreens,5650 W BELMONT AVE,CHICAGO,60634,,,,
CVS/pharmacy,205 N. MICHIGAN AVENUE,CHICAGO,60601,,,,
Walgreens,316 W CERMAK RD,Chicago,60616,,,,
Walgreens,7544 S STONY ISLAND AVE,CHICAGO,60649,,,,
Jewel-Osco 3441,2940 North Ashland Ave,Chicago,60657,,,,
26th Ward Office,2511 W. Division St.,Chicago,60622,,,,
42nd Ward-FUMC Chicago Temple,77 W. Washington St.,Chicago,60602,,,,
Walgreens,11833 S WESTERN AVE,Chicago,60643,,,,
Walgreens,"251 E HURON STREET, SUITE 2B114",CHICAGO,60611,,,,
CVS/pharmacy,344 W HUBBARD ST,Chicago,60654,,,,
29th Ward Office,6272 W. North Ave.,Chicago,60639,,,,
Walgreens,5935 W ADDISON ST,CHICAGO,60634,,,,
22nd Ward-Toman Library,2708 S. Pulaski Rd.,Chicago,60623,,,,
Walgreens,3220 W 111TH ST,CHICAGO,60655,,,,
Walgreens,5036 S COTTAGE GROVE AVE,CHICAGO,60615,,,,
St. Pius V Parish,1919 S. Ashland Ave.,Chicago,60608,,,,
BCBSIL Fall Family Festival,1700 W. 119th St.,Chicago,60643,,,,
Roseland Community WIC,11255 S. Michigan Ave.,Chicago,60628,,,,
Whole Foods,832 W. 63rd St.,Chicago,60621,,,,
Walgreens,933 N STATE ST,CHICAGO,60610,,,,
49th Ward - Chicago Public Library Rogers Park Branch,6907 N. Clark St.,Chicago,60626,,,,
Walgreens,3222 N MILWAUKEE AVE,CHICAGO,60618,,,,
5th Ward Office,2325 E. 71st St.,Chicago,60649,,,,
Walgreens,1554 E 55TH ST,Chicago,60615,,,,
CVS/pharmacy,1550 NORTH KOSTNER AVENUE,CHICAGO,60639,,,,
CVS/pharmacy,3951 W 103RD ST,Chicago,60655,,,,
Walgreens,2744 N CALIFORNIA AVE,CHICAGO,60647,,,,
MinuteClinic Inside CVS/pharmacy Store # 08747,6150 NORTH BROADWAY,CHICAGO,60660,,,,
Walgreens,6016 W 63RD ST,CHICAGO,60638,,,,
Walgreens,3943 W 47TH ST,Chicago,60632,,,,
CVS/pharmacy,1550 NORTH KOSTNER AVENUE,Chicago,60639,,,,
CVS/pharmacy,771 NORTH OGDEN AVENUE,CHICAGO,60622,,,,
Walgreens,3800 W MADISON ST STE 101,CHICAGO,60624,,,,
CVS/pharmacy,641 WEST 63RD STREET,Chicago,60652,,,,
MinuteClinic Inside CVS/pharmacy Store # 08751,4051 NORTH LINCOLN AVENUE,CHICAGO,60618,,,,
City Hall,121 N. LaSalle St.,Chicago,60602,,,,
CVS/pharmacy,4801 NORTH CENTRAL AVENUE,CHICAGO,60630,,,,
Walgreens,5414 S ARCHER AVE,CHICAGO,60638,,,,
CVS/pharmacy,5205 NORTH BROADWAY STREET,CHICAGO,60640,,,,
Walgreens,315 W CHICAGO AVE,CHICAGO,60654,,,,
CVS/pharmacy,11055 SOUTH WESTERN AVENUE,CHICAGO,60643,,,,
Walgreens,3220 W 111TH ST,Chicago,60655,,,,
Walgreens,5230 N MILWAUKEE AVE,CHICAGO,60630,,,,
Hana Center,4300 N. California Ave.,Chicago,60618,,,,
Walgreens,3943 W 47TH ST,CHICAGO,60632,,,,
Walgreens,5435 S KEDZIE AVE,Chicago,60632,,,,
CVS/pharmacy,2053 NORTH MILWAUKEE AVENUE,CHICAGO,60647,,,,
Walgreens,7510 N WESTERN AVE,Chicago,60645,,,,
Walgreens,5650 W BELMONT AVE,CHICAGO,60634,,,,
CVS/pharmacy,3343 WEST MONTROSE AVENUE,Chicago,60618,,,,
CVS/pharmacy,105 SOUTH WABASH AVENUE,Chicago,60603,,,,
Walgreens,1372 N MILWAUKEE AVE,CHICAGO,60622,,,,
Walgreens,3153 W IRVING PARK RD,Chicago,60618,,,,
Jewel-Osco 2500,1340 S. Canal St,Chicago,60607,,,,
48th Ward Office,5533 N. Broadway St.,Chicago,60640,,,,
Walgreens,2440 W NORTH AVE,Chicago,60647,,,,
CVS/pharmacy,741 WEST 31ST STREET,Chicago,60608,,,,
Walgreens,6809 W BELMONT AVE,CHICAGO,60634,,,,
Walgreens,7111 S WESTERN AVE,CHICAGO,60636,,,,
CVS/pharmacy,5205 NORTH BROADWAY STREET,Chicago,60640,,,,
Walgreens,4748 W NORTH AVE,CHICAGO,60639,,,,
5th Ward Office,2325 E. 71st St.,Chicago,60649,,,,
1st Ward Office,2740 W. North Ave.,Chicago,60647,,,,
Walgreens,4010 W LAWRENCE AVE,CHICAGO,60630,,,,
Walgreens,2 North State St,Chicago,60601,,,,
Walgreens,1931 W CERMAK RD,CHICAGO,60608,,,,
CVS/pharmacy,1201 NORTH STATE STREET,CHICAGO,60610,,,,
CVS/pharmacy,101 NORTH CLINTON STREET,CHICAGO,60661,,,,
20th Ward  - Metro Squash,6100 S. Cottage Grove Ave.,Chicago,60637,,,,
Walgreens,1601 N MILWAUKEE AVE,CHICAGO,60647,,,,
Walgreens,6330 S KING DR,CHICAGO,60637,,,,
CVS/pharmacy,120 SOUTH LASALLE STREET,Chicago,60603,,,,
Walgreens,2924 E 92ND ST,Chicago,60617,,,,
CVS/pharmacy,6200 WEST HIGGINS AVENUE,Chicago,60630,,,,
Walgreens,5625 N RIDGE AVE,CHICAGO,60660,,,,
44th Ward-Britton Senior Apartments,501 W. Surf St.,Chicago,60657,,,,
Walgreens,4001 W IRVING PARK RD,Chicago,60641,,,,
CVS/pharmacy,2545 MARTIN LUTHER KING,CHICAGO,60606,,,,
27th Ward Office,"4 N. Western Ave., Unit 1C",Chicago,60612,,,,
Walgreens,7901 S WESTERN AVE,CHICAGO,60620,,,,
Walgreens,7109 S JEFFERY BLVD,Chicago,60649,,,,
Walgreens,3943 W 47TH ST,CHICAGO,60632,,,,
Walgreens,4343 N KEDZIE AVE,CHICAGO,60618,,,,
Walgreens,641 N CLARK ST,CHICAGO,60654,,,,
CVS/pharmacy,2634 SOUTH PULASKI ROAD,Chicago,60623,,,,
CVS/pharmacy,11055 SOUTH WESTERN AVENUE,CHICAGO,60643,,,,
5th Ward Office,2325 E. 71st St.,Chicago,60649,,,,
Jewel-Osco 3092,1655 E. 95th St.,Chicago,60617,,,,
43rd Ward-Margaret Day Blake Senior Center,2140 N. Clark St.,Chicago,60614,,,,
6th Ward Office Community Room,706 E. 79th St.,Chicago,60619,,,,
Walgreens,6310 N NAGLE AVE,CHICAGO,60646,,,,
14th Ward-Polish Highlanders,4808 S. Archer Ave.,Chicago,60632,,,,
Walgreens,953 W IRVING PARK RD,CHICAGO,60613,,,,
CVS/pharmacy,6150 NORTH BROADWAY,Chicago,60660,,,,
Walgreens,79 W MONROE ST,Chicago,60603,,,,
CVS/pharmacy,3311 NORTH PULASKI ROAD,CHICAGO,60641,,,,
Walgreens,5158 N LINCOLN AVE,CHICAGO,60625,,,,
CVS/pharmacy,520 SOUTH  STATE STREET,CHICAGO,60605,,,,
Walgreens,3943 W 47TH ST,Chicago,60632,,,,
Jewel-Osco 3721,6107 S. Archer Ave.,Chicago,60638,,,,
CVS/pharmacy,3637 NORTH SOUTHPORT AVENUE,Chicago,60613,,,,
28th Ward Office,2602 W. 16th St.,Chicago,60608,,,,
29th Ward Office,5755 W DIVISION ST,CHICAGO,60651,,,,
Walgreens,4385 S ARCHER AVE,CHICAGO,60632,,,,
Walgreens,7045 S PULASKI RD,CHICAGO,60629,,,,
Jewel-Osco 3344,1220 S. Ashland Ave.,Chicago,60608,,,,
CVS/pharmacy,205 NORTH COLUMBUS DRIVE,Chicago,60601,,,,
Walgreens,7544 S STONY ISLAND AVE,CHICAGO,60649,,,,
CVS/pharmacy,1620 WEST 59TH STREET,Chicago,60621,,,,
Jewel-Osco 3455,4355 North Sheridan,Chicago,60613,,,,
Walgreens,3153 W IRVING PARK RD,CHICAGO,60618,,,,
Above and Beyond Family Center,2942 W. Lake St.,Chicago,60612,,,,
CVS/pharmacy,2418 WEST DIVISION STREET,Chicago,60622,,,,
Walgreens,1601 N WELLS ST,CHICAGO,60614,,,,
Roseland Community WIC,11255 S. Michigan Ave.,Chicago,60628,,,,
CVS/pharmacy,845 WEST WILSON AVENUE,CHICAGO,60640,,,,
22nd Ward - Vittum Park,5010 W. 50th St.,Chicago,60638,,,,
CVS/pharmacy,2828 N. CLARK STREET,Chicago,60657,,,,
Walgreens,347 E 95TH ST,CHICAGO,60619,,,,
27th Ward Office,4 N. Western Ave.,Chicago,60612,,,,
Walgreens,7410 N CLARK ST,Chicago,60626,,,,
Jewel-Osco 3224,6426 West Irving Park Rd,Chicago,60634,,,,
21st Ward-Woodson Library,9525 S. Halsted St.,Chicago,60628,,,,
Walgreens,1633 W 95TH ST,CHICAGO,60643,,,,
Roseland Community WIC,11255 S MICHIGAN AVE,CHICAGO,60628,,,,
CVS/pharmacy,1930 WEST 103RD STREET,CHICAGO,60643,,,,
Walgreens,11801 S AVENUE O,CHICAGO,60617,,,,
19th Ward Office,10402 S. Western Ave.,Chicago,60643,,,,
Walgreens,2835 N SHEFFIELD AVE STE 505,CHICAGO,60657,,,,
Trinity United Church of Christ,400 W. 95th St.,Chicago,60628,,,,
Walgreens,6016 W 63RD ST,CHICAGO,60638,,,,
Walgreens,1546 N CENTRAL AVE,Chicago,60651,,,,
CVS/pharmacy,2545 MARTIN LUTHER KING,Chicago,60606,,,,
Walgreens,2 E ROOSEVELT RD,Chicago,60605,,,,
39th Ward Office,4404 W LAWRENCE AVE,CHICAGO,60630,,,,
CVS/pharmacy,2825 WEST DEVON AVENUE,Chicago,60659,,,,
CVS/pharmacy,205 N. MICHIGAN AVENUE,Chicago,60601,,,,
CVS/pharmacy,1550 NORTH KOSTNER AVENUE,CHICAGO,60639,,,,
CVS/pharmacy,130 SOUTH CANAL STREET,Chicago,60606,,,,
Walgreens,1649 W BELMONT AVE,Chicago,60657,,,,
Walgreens,5036 S COTTAGE GROVE AVE,CHICAGO,60615,,,,
Walgreens,4748 W NORTH AVE,CHICAGO,60639,,,,
36th Ward-Hiawatha Park,8029 W FOREST PRESERVE AVE,CHICAGO,60634,,,,
Walgreens,680 N LAKE SHORE DR,Chicago,60611,,,,
Wright College-Family Flu Day,4300 N. Narragansett Ave.,Chicago,60634,,,,
CVS/pharmacy,1620 WEST 59TH STREET,Chicago,60621,,,,
Jewel-Osco 3442,4032 W Foster,Chicago,60630,,,,
MinuteClinic Inside CVS/pharmacy Store # 08698,1165 NORTH CLARK STREET,CHICAGO,60610,,,,
Walgreens,5935 W ADDISON ST,CHICAGO,60634,,,,
Walgreens,2001 N MILWAUKEE AVE,CHICAGO,60647,,,,
Walgreens,4801 N LINCOLN AVE,CHICAGO,60625,,,,
CVS/pharmacy,1165 N CLARK,CHICAGO,60610,,,,
CVS/pharmacy,8444 SOUTH PULASKI ROAD,CHICAGO,60652,,,,
Walgreens,1001 W BELMONT AVE,CHICAGO,60657,,,,
CVS/pharmacy,3033 NORTH BROADWAY STREET,Chicago,60657,,,,
CVS/pharmacy,3951 W 103RD ST,Chicago,60655,,,,
Arturo Velasquez Institute-Family Flu Day,2800 S. Western Ave.,Chicago,60608,,,,
Walgreens,4720 N MARINE DR,Chicago,60640,,,,
Walgreens,11 E 75TH ST,CHICAGO,60619,,,,
CVS/pharmacy,400 WEST MADISON STREET,CHICAGO,60606,,,,
Walgreens,300 N MICHIGAN AVE,CHICAGO,60601,,,,
27th Ward Office,4 N WESTERN AVE UNIT 1C,CHICAGO,60612,,,,
CVS/pharmacy,6355 WEST BELMONT,Chicago,60634,,,,
St. Michael the Archangel Parish Social Center,1936 W. 48th St.,Chicago,60609,,,,
Jewel-Osco 3470,3572 North Elston,Chicago,60618,,,,
Nigerian Islamic Association,932 W. Sheridan Rd.,Chicago,60613,,,,
CVS/pharmacy,4800 NORTH DAMEN AVENUE,Chicago,60625,,,,
Walgreens,1500 W WILSON AVE,Chicago,60640,,,,
Walgreens,4343 N CENTRAL AVE,CHICAGO,60634,,,,
30th Ward-Kilbourn Park,3501 N. Kilbourn Ave.,Chicago,60641,,,,
Walgreens,2817 N CLARK ST,CHICAGO,60657,,,,
Walgreens,342 E ILLINOIS ST,CHICAGO,60611,,,,
Walgreens,1633 W 95TH ST,Chicago,60643,,,,
Walgreens,3798 S WESTERN AVE,Chicago,60609,,,,
CVS/pharmacy,4540 NORTH PULASKI ROAD,Chicago,60630,,,,
Walgreens,1554 E 55TH ST,CHICAGO,60615,,,,
CVS/pharmacy,1930 WEST 103RD STREET,CHICAGO,60643,,,,
CVS/pharmacy,8639 SOUTH CICERO AVENUE,Chicago,60652,,,,
Walgreens,3245 N HALSTED ST,Chicago,60657,,,,
Walgreens,1650 W CHICAGO AVE,CHICAGO,60622,,,,
Walgreens,1926 W 35TH ST,CHICAGO,60609,,,,
Walgreens,2835 N SHEFFIELD AVE STE 505,Chicago,60657,,,,
Walgreens,5753 N CANFIELD AVE,CHICAGO,60631,,,,
26th Ward-Mozart Park Fieldhouse,2036 N. Avers,Chicago,60647,,,,
CVS/pharmacy,130 SOUTH CANAL STREET,CHICAGO,60606,,,,
Walgreens,2 North State St,CHICAGO,60601,,,,
CVS/pharmacy,3156 WEST 103RD STREET,CHICAGO,60655,,,,
Walgreens,2317 N CLARK ST,CHICAGO,60614,,,,
Walgreens,5753 N CANFIELD AVE,CHICAGO,60631,,,,
CVS/pharmacy,3951 WEST 103RD STREET,CHICAGO,60655,,,,
CVS/pharmacy,1620 WEST 59TH STREET,Chicago,60621,,,,
Walgreens,1533 E 67TH ST,CHICAGO,60637,,,,
Walgreens,5222 W MADISON ST,CHICAGO,60644,,,,
30th Ward-Kilbourn Park,3501 N. Kilbourn Ave.,Chicago,60641,,,,
Walgreens,757 N MICHIGAN AVE,CHICAGO,60611,,,,
CVS/pharmacy,205 NORTH COLUMBUS DRIVE,CHICAGO,60601,,,,
Walgreens,3019 W PETERSON AVE,CHICAGO,60659,,,,
Walgreens,4700 S HALSTED ST,CHICAGO,60609,,,,
50th Ward-Croatian Cultural Center,2845 W. Devon Ave.,Chicago,60659,,,,
Walgreens,3401 W ROOSEVELT RD,CHICAGO,60624,,,,
Walgreens,342 E ILLINOIS ST,CHICAGO,60611,,,,
32nd Ward Office,2657 N. Clybourn Ave.,Chicago,60614,,,,
Walgreens,2011 E 95TH ST,CHICAGO,60617,,,,
Walgreens,1616 E 87TH ST,CHICAGO,60617,,,,
CVS/pharmacy,2815 NORTH WESTERN AVENUE,Chicago,60618,,,,
Masjid Al Farooq,8950 S. Stony Island Ave.,Chicago,60617,,,,
CVS/pharmacy,3101 NORTH CLARK STREET,CHICAGO,60657,,,,
Walgreens,5440 N CLARK ST,Chicago,60640,,,,
CVS/pharmacy,7858 SOUTH HALSTED STREET,CHICAGO,60620,,,,
Walgreens,1627 N PULASKI RD,CHICAGO,60639,,,,
Walgreens,151 N STATE ST,Chicago,60601,,,,
Kmart Pharmacy,4201 N. HARLEM AVENUE,NORRIDGE,60706,,,,
Walgreens,7544 S STONY ISLAND AVE,CHICAGO,60649,,,,
Walgreens,6121 N. BROADWAY,CHICAGO,60660,,,,
CVS/pharmacy,344 W HUBBARD ST,Chicago,60654,,,,
CVS/pharmacy,2815 NORTH WESTERN AVENUE,CHICAGO,60618,,,,
CVS/pharmacy,3637 NORTH SOUTHPORT AVENUE,CHICAGO,60613,,,,
Walgreens,5600 W FULLERTON AVE,CHICAGO,60639,,,,
Chicago Police Department - 11th District,3153 W. Harrison St.,Chicago,60612,,,,
CVS/pharmacy,344 W HUBBARD ST,CHICAGO,60654,,,,
Jewel-Osco 3477,4734 North Pueblo,Chicago,60656,,,,
Walgreens,79 W MONROE ST,CHICAGO,60603,,,,
38th Ward Office,3821 N. Harlem Ave.,Chicago,60634,,,,
Walgreens,3046 N HALSTED ST,CHICAGO,60657,,,,
Walgreens,8628 S COTTAGE GROVE AVE,Chicago,60619,,,,
Walgreens,5753 N CANFIELD AVE,Chicago,60631,,,,
CVS/pharmacy,4777 NORTH MILWAUKEE AVENUE,Chicago,60630,,,,
CVS/pharmacy,1228 EAST 53RD STREET,CHICAGO,60637,,,,
CVS/pharmacy,6315 SOUTH PULASKI ROAD,CHICAGO,60629,,,,
Cherubim & Seraphim Church (South),10747 S. Halsted St.,Chicago,60628,,,,
Walgreens,1333 W BELMONT AVE,Chicago,60657,,,,
38th Ward-Portage Park Senior Center,4100 N LONG AVE,CHICAGO,60641,,,,
Walgreens,4748 W NORTH AVE,CHICAGO,60639,,,,
CVS/pharmacy,2828 N. CLARK STREET,CHICAGO,60657,,,,
8th Ward Office,8539 S. Cottage Grove Ave.,Chicago,60619,,,,
Jewel-Osco 3501,3400 N. Western Ave,Chicago,60618,,,,
42nd Ward-FUMC Chicago Temple,77 W. Washington,Chicago,60602,,,,
Chicago Police Department - 5th District,727 E. 111th St.,Chicago,60628,,,,
Walgreens,3153 W IRVING PARK RD,CHICAGO,60618,,,,
Walgreens,7652 W TOUHY AVE,CHICAGO,60631,,,,
Walgreens,10300 S MICHIGAN AVE,CHICAGO,60628,,,,
Roseland Community WIC,11255 S MICHIGAN AVE,Chicago,60628,,,,
CVS/pharmacy,3101 NORTH CLARK STREET,CHICAGO,60657,,,,
7th Ward Office,2249 E 95th St.,Chicago,60617,,,,
Walgreens,1627 N PULASKI RD,Chicago,60639,,,,
Jewel-Osco 2508,1763 W Howard St,Chicago,60626,,,,
St Michael the Archangel Parish,1936 W. 48th St.,Chicago,60609,,,,
Jewel-Osco 3514,3531 North Broadway,Chicago,60657,,,,
Walgreens,5440 N CLARK ST,CHICAGO,60640,,,,
48th Ward Office,5533 N. Broadway St.,Chicago,60640,,,,
40th Ward Office,5850 N LINCOLN AVE,CHICAGO,60659,,,,
CVS/pharmacy,2815 NORTH WESTERN AVENUE,Chicago,60618,,,,
MinuteClinic Inside CVS/pharmacy Store # 08747,6150 NORTH BROADWAY,CHICAGO,60660,,,,
Walgreens,11801 S AVENUE O,Chicago,60617,,,,
Walgreens,1520 W FULLERTON AVE,CHICAGO,60614,,,,
Jewel-Osco 3170,5324 South Pulaski,Chicago,60632,,,,
Walgreens,1001 W BELMONT AVE,CHICAGO,60657,,,,
Walgreens,3401 W ROOSEVELT RD,CHICAGO,60624,,,,
CVS/pharmacy,641 WEST 63RD STREET,Chicago,60652,,,,
CVS/pharmacy,4800 NORTH DAMEN AVENUE,Chicago,60625,,,,
CVS/pharmacy,121 WEST KINZIE STREET,Chicago,60610,,,,
Englewood Neighborhood Health Center,641 W 63RD ST,Chicago,60621,,,,
15th Ward Office,6412 S. Ashland Ave.,Chicago,60636,,,,
CVS/pharmacy,4777 NORTH MILWAUKEE AVENUE,Chicago,60630,,,,
Uptown WIC,845 W. Wilson Ave.,Chicago,60640,,,,
Walgreens,6460 W FULLERTON AVE,CHICAGO,60707,,,,
5th Ward Office,2325 E. 71st St.,Chicago,60649,,,,
Walgreens,5158 N LINCOLN AVE,CHICAGO,60625,,,,
Jewel-Osco 3441,2940 North Ashland Ave,Chicago,60657,,,,
CVS/pharmacy,3101 NORTH CLARK STREET,Chicago,60657,,,,
Englewood Neighborhood Health Center,641 W. 63rd St.,Chicago,60621,,,,
St. Pius V Parish,1919 S. Ashland Ave.,Chicago,60608,,,,
Walgreens,3045 W 26TH ST,CHICAGO,60623,,,,
Greater Lawn WIC,4150 W. 55th St.,Chicago,60632,,,,
CVS/pharmacy,3951 W 103RD ST,CHICAGO,60655,,,,
Lower West WIC,1713 S. Ashland Ave.,Chicago,60608,,,,
Walgreens,2835 N SHEFFIELD AVE STE 505,Chicago,60657,,,,
Walgreens,3000 S HALSTED ST,CHICAGO,60608,,,,
3rd Ward Office,5046 S. State St.,Chicago,60609,,,,
Walgreens,1200 N DEARBORN ST,Chicago,60610,,,,
CVS/pharmacy,3146 WEST MADISON,Chicago,60612,,,,
Chicago Police Department - 2nd District,5101 S. Wentworth Ave.,Chicago,60609,,,,
Walgreens,6330 S KING DR,Chicago,60637,,,,
CVS/pharmacy,8444 SOUTH PULASKI ROAD,Chicago,60652,,,,
45th Ward Office,4754 N MILWAUKEE AVE,CHICAGO,60630,,,,
13th Ward-West Lawn Park,4233 W. 65th St.,Chicago,60629,,,,
CVS/pharmacy,2053 NORTH MILWAUKEE AVENUE,Chicago,60647,,,,
Walgreens,3358 N WESTERN AVE,CHICAGO,60618,,,,
Walgreens,5440 N CLARK ST,Chicago,60640,,,,
Walgreens,8636 S ASHLAND AVE,CHICAGO,60620,,,,
Jewel-Osco 3345,1224 S. Wabash,Chicago,60605,,,,
Walgreens,4025 N SHERIDAN RD,CHICAGO,60613,,,,
Walgreens,11833 S WESTERN AVE,CHICAGO,60643,,,,
CVS/pharmacy,400 WEST MADISON STREET,CHICAGO,60606,,,,
Walgreens,3424 W BELMONT AVE,CHICAGO,60618,,,,
Walgreens,1200 N DEARBORN ST,CHICAGO,60610,,,,
CVS/pharmacy,120 SOUTH LASALLE STREET,CHICAGO,60603,,,,
Walgreens,1372 N MILWAUKEE AVE,Chicago,60622,,,,
CVS/pharmacy,2414 NORTH LINCOLN AVENUE,CHICAGO,60614,,,,
CVS/pharmacy,205 N. MICHIGAN AVENUE,Chicago,60601,,,,
Walgreens,4343 N CENTRAL AVE,Chicago,60634,,,,
25th Ward-Ruby Lozano Library,1805 S. Loomis Ave.,Chicago,60608,,,,
6th Ward Office,8001 S M L King Drive,Chicago,60619,,,,
Chicago Police Department - HQ,3510 S MICHIGAN AVE,CHICAGO,60653,,,,
CVS/pharmacy,1228 EAST 53RD STREET,CHICAGO,60637,,,,
Walgreens,4343 N KEDZIE AVE,CHICAGO,60618,,,,
49th Ward Office,7356 N. Greenview Ave.,Chicago,60626,,,,
Walgreens,3646 N BROADWAY ST,Chicago,60613,,,,
Walgreens,3201 N BROADWAY ST,Chicago,60657,,,,
42nd Ward-FUMC Chicago Temple,77 W. Washington St.,Chicago,60602,,,,
South-East Asia Center,5120 N. Broadway St.,Chicago,60640,,,,
CVS/pharmacy,2828 N CLARK ST,Chicago,60657,,,,
Walgreens,4005 W 26TH ST,Chicago,60623,,,,
CVS/pharmacy,3951 W 103RD ST,Chicago,60655,,,,
Walgreens,2440 W NORTH AVE,CHICAGO,60647,,,,
CVS/pharmacy,771 NORTH OGDEN AVENUE,CHICAGO,60622,,,,
Jewel-Osco 2506,424 W Division St,Chicago,60610,,,,
Walgreens,8628 S COTTAGE GROVE AVE,Chicago,60619,,,,
Walgreens,4225 W ARMITAGE AVE,CHICAGO,60639,,,,
Walgreens,3611 E 106TH ST,Chicago,60617,,,,
Walgreens,2351 E 71st,Chicago,60649,,,,
Chicago Police Department-25th District,5555 W. Grand Ave.,Chicago,60639,,,,
Walgreens,2345 W 103RD ST,CHICAGO,60643,,,,
Chicago Police Department-11th District,3151 W. Harrison St.,Chicago,60612,,,,
Walgreens,501 W ROOSEVELT RD,CHICAGO,60607,,,,
Walgreens,7510 N WESTERN AVE,CHICAGO,60645,,,,
Walgreens,4000 W 59TH ST,Chicago,60629,,,,
Jewel-Osco 3302,3644 South Archer Ave,Chicago,60609,,,,
47th Ward-Sulzer Library,4455 N. Lincoln Ave.,Chicago,60625,,,,
4th Ward-Prince Hall Grand Lodge,809 E. 42nd Place,Chicago,60653,,,,
Daley College-Family Flu Day,7500 S. Pulaski Rd.,Chicago,60652,,,,
Walgreens,1520 W FULLERTON AVE,Chicago,60614,,,,
Jewel-Osco 3181,101 West 87th St,Chicago,60620,,,,
Walgreens,6460 W FULLERTON AVE,CHICAGO,60707,,,,
2nd Ward,1402 N. Ashland Ave.,Chicago,60622,,,,
CVS/pharmacy,4540 NORTH PULASKI ROAD,CHICAGO,60630,,,,
CVS/pharmacy,745 WEST 103 ROAD STREET,CHICAGO,60628,,,,
CVS/pharmacy,3940 WEST FULLERTON AVENUE,Chicago,60647,,,,
44th Ward-Britton Senior Building,501 W SURF ST,CHICAGO,60657,,,,
Walgreens,7652 W TOUHY AVE,CHICAGO,60631,,,,
Walgreens,3222 N MILWAUKEE AVE,CHICAGO,60618,,,,
20th Ward Office,5707 S. Wentworth Ave.,Chicago,60621,,,,
Jewel-Osco 3470,3572 North Elston,Chicago,60618,,,,
Walgreens,4385 S ARCHER AVE,Chicago,60632,,,,
CVS/pharmacy,7858 SOUTH HALSTED STREET,Chicago,60620,,,,
Walgreens,2317 N CLARK ST,CHICAGO,60614,,,,
Walgreens,1320 E 47TH ST,CHICAGO,60653,,,,
Walgreens,2011 E 95TH ST,CHICAGO,60617,,,,
14th Ward-Polish Highlanders,4808 S. Archer Ave.,Chicago,60632,,,,
CVS/pharmacy,3951 WEST 103RD STREET,CHICAGO,60655,,,,
Walgreens,3000 S HALSTED ST,Chicago,60608,,,,
50th Ward,2949 W. Devon,Chicago,60659,,,,
Walgreens,151 N STATE ST,CHICAGO,60601,,,,
CVS/pharmacy,4800 NORTH DAMEN AVENUE,Chicago,60625,,,,
43rd Ward-DePaul Student Center,2250 N. Sheffield Ave.,Chicago,60614,,,,
20th Ward Office,6357 S COTTAGE GROVE AVE,CHICAGO,60637,,,,
CVS/pharmacy,3146 WEST MADISON,CHICAGO,60612,,,,
CVS/pharmacy,6355 WEST BELMONT,CHICAGO,60634,,,,
Walgreens,3358 N WESTERN AVE,Chicago,60618,,,,
22nd Ward-El Valor Children & Family Center,2434 S. Kildare Ave.,Chicago,60623,,,,
Walgreens,3405 S KING DR,CHICAGO,60616,,,,
Walgreens,5935 W ADDISON ST,Chicago,60634,,,,
Walgreens,6460 W FULLERTON AVE,CHICAGO,60707,,,,
Walgreens,200 W ADAMS ST,CHICAGO,60606,,,,
Walgreens,2001 N MILWAUKEE AVE,Chicago,60647,,,,
CVS/pharmacy,3033 NORTH BROADWAY STREET,Chicago,60657,,,,
Walgreens,11040 S MICHIGAN AVE,CHICAGO,60628,,,,
Walgreens,2015 E 79TH ST,CHICAGO,60649,,,,
Chicago Police Department - 11th District,3151 W. Harrison St.,Chicago,60612,,,,
CVS/pharmacy,2828 N. CLARK STREET,CHICAGO,60657,,,,
CVS/pharmacy,121 WEST KINZIE STREET,Chicago,60610,,,,
CVS/pharmacy,2825 WEST DEVON AVENUE,Chicago,60659,,,,
38th Ward Office,3821 N. Harlem Ave.,Chicago,60634,,,,
Walgreens,4000 W 59TH ST,CHICAGO,60629,,,,
Walgreens,757 N MICHIGAN AVE,CHICAGO,60611,,,,
Villa Guadalupe Senior Service Inc.,3201 E 91ST ST,CHICAGO,60617,,,,
11th Ward - Taylor Lauridsen Park,704 W. 42nd St.,Chicago,60609,,,,
Chicago Police Department - HQ,3510 S. Michigan Ave.,Chicago,60653,,,,
47th Ward-Sulzer Library,4455 N LINCOLN AVE,CHICAGO,60625,,,,
Walgreens,650 W 63RD ST,Chicago,60621,,,,
Walgreens,4343 N CENTRAL AVE,CHICAGO,60634,,,,
Walgreens,4000 W 59TH ST,CHICAGO,60629,,,,
CVS/pharmacy,1550 NORTH KOSTNER AVENUE,CHICAGO,60639,,,,
Walgreens,1633 W 95TH ST,CHICAGO,60643,,,,
4th Ward-Prince Hall Grand Lodge,809 E. 42nd Place,Chicago,60653,,,,
Walgreens,4040 N CICERO AVE,CHICAGO,60641,,,,
11th Ward-McGuane Park,2901 S. Poplar Ave.,Chicago,60608,,,,
Walgreens,5414 S ARCHER AVE,Chicago,60638,,,,
4th Ward - Oak Shores Community Center,3825 S. Vincennes Ave.,Chicago,60653,,,,
Walgreens,8636 S ASHLAND AVE,Chicago,60620,,,,
Walgreens,3798 S WESTERN AVE,CHICAGO,60609,,,,
MinuteClinic Inside CVS/pharmacy Store # 02798,3951 WEST 103RD STREET,CHICAGO,60655,,,,
Walgreens,315 W CHICAGO AVE,Chicago,60654,,,,
18th Ward Office,8359 S. Pulaski Rd.,Chicago,60652,,,,
Walgreens,7111 S WESTERN AVE,CHICAGO,60636,,,,
Walgreens,5650 W BELMONT AVE,CHICAGO,60634,,,,
CVS/pharmacy,4800 NORTH DAMEN AVENUE,CHICAGO,60625,,,,
Walgreens,650 W 63RD ST,CHICAGO,60621,,,,
5th Ward Office,2325 E. 71st St.,Chicago,60649,,,,
Walgreens,7544 S STONY ISLAND AVE,Chicago,60649,,,,
17th Ward Office,7811 S RACINE AVE,CHICAGO,60620,,,,
CVS/pharmacy,745 WEST 103 ROAD STREET,CHICAGO,60628,,,,
Walgreens,5625 N RIDGE AVE,CHICAGO,60660,,,,
CVS/pharmacy,1930 WEST 103RD STREET,Chicago,60643,,,,
Walgreens,3320 W FULLERTON AVE,CHICAGO,60647,,,,
Walgreens,3220 W 111TH ST,Chicago,60655,,,,
City Hall,121 N. LaSalle St.,Chicago,60602,,,,
Walgreens,191 N CLARK ST,CHICAGO,60601,,,,
Walgreens,2744 N CALIFORNIA AVE,CHICAGO,60647,,,,
Walgreens,4745 W BELMONT AVE,CHICAGO,60641,,,,
Walgreens,3045 W 26TH ST,Chicago,60623,,,,
CVS/pharmacy,2722 NORTH CENTRAL AVENUE,CHICAGO,60639,,,,
26th Ward-Humboldt Park,1440 N. Humboldt Dr.,Chicago,60622,,,,
Walgreens,1627 N PULASKI RD,Chicago,60639,,,,
Walgreens,4748 W NORTH AVE,Chicago,60639,,,,
Walgreens,11833 S WESTERN AVE,CHICAGO,60643,,,,
Lower West WIC,1643 W CERMAK RD,CHICAGO,60608,,,,
CVS/pharmacy,6200 WEST HIGGINS AVENUE,Chicago,60630,,,,
Walgreens,3401 W ROOSEVELT RD,CHICAGO,60624,,,,
Walgreens,3798 S WESTERN AVE,CHICAGO,60609,,,,
Walgreens,1627 N PULASKI RD,CHICAGO,60639,,,,
48th Ward Office,5533 N. Broadway St.,Chicago,60640,,,,
Walgreens,4817 W FULLERTON AVE,CHICAGO,60639,,,,
15th Ward Office,3045 W 63RD ST,CHICAGO,60629,,,,
35th Ward-Nixon Elementary,2121 N. Keeler Ave.,Chicago,60639,,,,
CVS/pharmacy,2418 WEST DIVISION STREET,CHICAGO,60622,,,,
Walgreens,2301 W IRVING PARK RD,CHICAGO,60618,,,,
Noblest Islamic Community,8030 S. Kedzie Ave.,Chicago,60652,,,,
Walgreens,5222 W MADISON ST,CHICAGO,60644,,,,
CVS/pharmacy,205 NORTH COLUMBUS DRIVE,CHICAGO,60601,,,,
CVS/pharmacy,8712 SOUTH STONY ISLAND AVENUE,Chicago,60619,,,,
CVS/pharmacy,1200 NORTH ASHLAND AVENUE,Chicago,60622,,,,
Walgreens,1372 N MILWAUKEE AVE,Chicago,60622,,,,
Walgreens,2340 W MADISON ST,CHICAGO,60612,,,,
Walgreens,79 W MONROE ST,Chicago,60603,,,,
23rd Ward - Chicago Public Library West Lawn Branch,4020 W. 63rd St.,Chicago,60629,,,,
Walgreens,316 W CERMAK RD,Chicago,60616,,,,
28th Ward Office,2602 W. 16th St.,Chicago,60608,,,,
49th Ward Office,7356 N. Greenview Ave.,Chicago,60626,,,,
Walgreens,3153 W IRVING PARK RD,Chicago,60618,,,,
Walgreens,3646 N BROADWAY ST,CHICAGO,60613,,,,
Walgreens,122 S. MICHIGAN AVE,CHICAGO,60603,,,,
Walgreens,3153 W IRVING PARK RD,CHICAGO,60618,,,,
CVS/pharmacy,6150 NORTH BROADWAY,CHICAGO,60660,,,,
1st Ward Office,2740 W. North Ave.,Chicago,60647,,,,
40th Ward Office,5620 N. Western Ave.,Chicago,60659,,,,
Walgreens,3153 W IRVING PARK RD,CHICAGO,60618,,,,
City Hall-11th Floor Lobby,121 N. LaSalle St.,Chicago,60602,,,,
23rd Ward-St. Daniel Church,5330 S. Nashville,Chicago,60638,,,,
CVS/pharmacy,9142 SOUTH CHICAGO AVENUE,Chicago,60617,,,,
CVS/pharmacy,175 WEST JACKSON BOULEVARD,CHICAGO,60604,,,,
CVS/pharmacy,1211 WEST ROOSEVELT ROAD,CHICAGO,60608,,,,
Walgreens,7109 S JEFFERY BLVD,CHICAGO,60649,,,,
Walgreens,410 N. MICHIGAN,CHICAGO,60611,,,,
Walgreens,6330 S KING DR,Chicago,60637,,,,
CVS/pharmacy,8444 SOUTH PULASKI ROAD,CHICAGO,60652,,,,
Walgreens,2817 N CLARK ST,Chicago,60657,,,,
Walgreens,2340 W MADISON ST,Chicago,60612,,,,
CVS/pharmacy,208 WEST WASHINGTON,CHICAGO,60606,,,,
Walgreens,3646 N BROADWAY ST,Chicago,60613,,,,
Walgreens,2301 W IRVING PARK RD,CHICAGO,60618,,,,
CVS/pharmacy,1930 WEST 103RD STREET,Chicago,60643,,,,
34th Ward Office,507 W 111TH ST,CHICAGO,60628,,,,
Walgreens,5935 W ADDISON ST,Chicago,60634,,,,
Walgreens,2015 E 79TH ST,CHICAGO,60649,,,,
Walgreens,3798 S WESTERN AVE,Chicago,60609,,,,
CVS/pharmacy,120 SOUTH LASALLE STREET,CHICAGO,60603,,,,
Chicago Police Department - 25th District,5555 W. Grand Ave.,Chicago,60639,,,,
CVS/pharmacy,4540 NORTH PULASKI ROAD,CHICAGO,60630,,,,
Jewel-Osco 3187,11730 S. Marshfield Ave.,Chicago,60643,,,,
Walgreens,5147 S ASHLAND AVE,CHICAGO,60609,,,,
CVS/pharmacy,2545 MARTIN LUTHER KING,Chicago,60606,,,,
Walgreens,11 E 75TH ST,CHICAGO,60619,,,,
CVS/pharmacy,"344 WEST HUBBARD STREET, CORNER OF ORLEANS",CHICAGO,60654,,,,
Walgreens,"251 E HURON STREET, SUITE 2B114",Chicago,60611,,,,
Walgreens,1001 W BELMONT AVE,CHICAGO,60657,,,,
13th Ward-West Lawn Park,4233 W. 65th St.,Chicago,60629,,,,
Walgreens,4817 W FULLERTON AVE,CHICAGO,60639,,,,
CVS/pharmacy,6510 NORTH SHERIDAN ROAD,CHICAGO,60626,,,,
27th Ward Office,4 N. Western Ave.,Chicago,60612,,,,
36th Ward Office,6934 W. Diversey Ave.,Chicago,60707,,,,
Walgreens,680 N LAKE SHORE DR,CHICAGO,60611,,,,
CVS/pharmacy,8712 SOUTH STONY ISLAND AVENUE,CHICAGO,60619,,,,
Walgreens,3405 S KING DR,Chicago,60616,,,,
CVS/pharmacy,401 WEST ARMITAGE AVENUE,Chicago,60614,,,,
Jewel-Osco 3302,3644 South Archer Ave,Chicago,60609,,,,
Walgreens,316 W CERMAK RD,CHICAGO,60616,,,,
Walgreens,5600 W FULLERTON AVE,CHICAGO,60639,,,,
Walgreens,30 N MICHIGAN AVE,CHICAGO,60602,,,,
Walgreens,122 S. MICHIGAN AVE,CHICAGO,60603,,,,
CVS/pharmacy,4801 N CENTRAL AVE,Chicago,60630,,,,
Walgreens,3358 N WESTERN AVE,CHICAGO,60618,,,,
Walgreens,2 North State St,Chicago,60601,,,,
Walgreens,711 W NORTH AVE STE 204,Chicago,60610,,,,
Walgreens,11 E 75TH ST,Chicago,60619,,,,
Walgreens,4745 W BELMONT AVE,Chicago,60641,,,,
Walgreens,4710 S WESTERN AVE,CHICAGO,60609,,,,
Walgreens,1616 E 87TH ST,Chicago,60617,,,,
16th Ward Office,3045 W. 63rd St.,Chicago,60629,,,,
Walgreens,3405 S KING DR,CHICAGO,60616,,,,
CVS/pharmacy,3615 NORTH CENTRAL AVENUE,CHICAGO,60634,,,,
Walgreens,1533 E 67TH ST,Chicago,60637,,,,
CVS/pharmacy,1714 NORTH SHEFFIELD AVENUE,Chicago,60614,,,,
Kennedy King College - Family Flu Day,6343 S. Halsted St.,Chicago,60621,,,,
33rd Ward Office,3649 N KEDZIE AVE,CHICAGO,60618,,,,
Walgreens,410 N MICHIGAN,Chicago,60611,,,,
Walgreens,6315 S KEDZIE AVE,CHICAGO,60629,,,,
18th Ward - Hayes Park Gym,2936 W. 85th St.,Chicago,60652,,,,
Roseland Community WIC,11255 S MICHIGAN AVE,CHICAGO,60628,,,,
3rd Ward Office,5046 S. State St.,Chicago,60609,,,,
CVS/pharmacy,7855 SOUTH WESTERN AVENUE,CHICAGO,60652,,,,
CVS/pharmacy,3615 NORTH CENTRAL AVENUE,Chicago,60634,,,,
21st Ward Office,9011 S. Ashland Ave.,Chicago,60620,,,,
CVS/pharmacy,4801 NORTH CENTRAL AVENUE,CHICAGO,60630,,,,
Walgreens,250 S WACKER DR,CHICAGO,60606,,,,
Chicago Police Department - 19th District,2452 W. Belmont Ave.,Chicago,60618,,,,
8th Ward Office,8539 S. Cottage Grove Ave.,Chicago,60619,,,,
Chicago Police Department - 5th District,727 E. 111th St.,Chicago,60628,,,,
Walgreens,740 W DIVERSEY PKWY,CHICAGO,60614,,,,
Walgreens,1616 E 87TH ST,Chicago,60617,,,,
12th Ward-McKinley Park Fieldhouse,2210 W. Pershing Rd.,Chicago,60609,,,,
CVS/pharmacy,2418 WEST DIVISION STREET,Chicago,60622,,,,
44th Ward-CPD 19th District,850 W. Addison St.,Chicago,60613,,,,
Jewel-Osco 3262,4660 W Irving Park Rd,Chicago,60641,,,,
CVS/pharmacy,6200 WEST HIGGINS AVENUE,Chicago,60630,,,,
Walgreens,4001 W IRVING PARK RD,CHICAGO,60641,,,,
Villa Guadalupe,3201 E. 91st St.,Chicago,60617,,,,
CVS/pharmacy,2634 SOUTH PULASKI ROAD,CHICAGO,60623,,,,
Walgreens,7410 N CLARK ST,CHICAGO,60626,,,,
Walgreens,1520 W FULLERTON AVE,Chicago,60614,,,,
Walgreens,2001 N MILWAUKEE AVE,Chicago,60647,,,,
CVS/pharmacy,2545 MARTIN LUTHER KING,CHICAGO,60606,,,,
Walgreens,4385 S ARCHER AVE,CHICAGO,60632,,,,
CVS/pharmacy,6315 SOUTH PULASKI ROAD,Chicago,60629,,,,
CVS/pharmacy,8025 SOUTH ASHLAND AVENUE,Chicago,60620,,,,
Walgreens,3320 W FULLERTON AVE,CHICAGO,60647,,,,
Walgreens,5414 S ARCHER AVE,CHICAGO,60638,,,,
Walgreens,6460 W FULLERTON AVE,CHICAGO,60707,,,,
5th Ward-Don Nash Comm. Center,1833 E 71ST ST,CHICAGO,60649,,,,
St. Pius V Parish,1919 S. Ashland Ave.,Chicago,60608,,,,
CVS/pharmacy,137 SOUTH STATE STREET,CHICAGO,60603,,,,
CVS/pharmacy,3411 WEST ADDISON STREET,Chicago,60618,,,,
Walgreens,6140 N WESTERN AVE,Chicago,60659,,,,
Walgreens,4720 N MARINE DR,CHICAGO,60640,,,,
33rd Ward - Brands Park,3259 N. Elston Ave.,Chicago,60618,,,,
CVS/pharmacy,6355 WEST BELMONT,Chicago,60634,,,,
43rd Ward-DePaul Student Center,2250 N. Sheffield Ave.,Chicago,60614,,,,
Walgreens,1614 W 47TH ST,Chicago,60609,,,,
Walgreens,6315 S KEDZIE AVE,Chicago,60629,,,,
Jewel-Osco 3407,5532 North Clark,Chicago,60640,,,,
Walgreens,3000 S HALSTED ST,CHICAGO,60608,,,,
CVS/pharmacy,4540 NORTH PULASKI ROAD,CHICAGO,60630,,,,
Jewel-Osco 3181,101 West 87th St,Chicago,60620,,,,
CVS/pharmacy,1550 NORTH KOSTNER AVENUE,Chicago,60639,,,,
Whole Foods - Family Flu Day,832 W. 63rd St.,Chicago,60621,,,,
BCBSIL Christ Universal Temple,11901 S. Ashland Ave.,Chicago,60643,,,,
CVS/pharmacy,2634 SOUTH PULASKI ROAD,Chicago,60623,,,,
CVS/pharmacy,2053 NORTH MILWAUKEE AVENUE,CHICAGO,60647,,,,
City Hall - 2nd Floor Lobby,121 N. LaSalle St.,Chicago,60602,,,,
21st Ward Office,9011 S ASHLAND AVE,CHICAGO,60620,,,,
Walgreens,912 W BELMONT AVE,Chicago,60657,,,,
Walgreens,1200 N DEARBORN ST,Chicago,60610,,,,
32nd Ward Office,2657 N. Clybourn Ave.,Chicago,60614,,,,
Walgreens,1320 E 47TH ST,CHICAGO,60653,,,,
CVS/pharmacy,3615 NORTH CENTRAL AVENUE,Chicago,60634,,,,
Walgreens,2835 N SHEFFIELD AVE STE 505,CHICAGO,60657,,,,
Walgreens,1320 E 47TH ST,Chicago,60653,,,,
CVS/pharmacy,6150 N BROADWAY ST,Chicago,60660,,,,
Walgreens,191 N CLARK ST,Chicago,60601,,,,
CVS/pharmacy,121 WEST KINZIE STREET,CHICAGO,60610,,,,
Walgreens,1931 W CERMAK RD,CHICAGO,60608,,,,
Walgreens,2015 E 79TH ST,CHICAGO,60649,,,,
Walgreens,111 S HALSTED ST,CHICAGO,60661,,,,
Walgreens,201 W MADISON ST,Chicago,60606,,,,
Jewel-Osco 3514,3531 North Broadway,Chicago,60657,,,,
Walgreens,740 W DIVERSEY PKWY,CHICAGO,60614,,,,
37th Ward Office,4922 W. Chicago Ave.,Chicago,60651,,,,
Gift From God Ministry Church,1818 W. 74th St.,Chicago,60636,,,,
9th Ward-Palmer Park,201 E. 111th St.,Chicago,60628,,,,
18th Ward-Hayes Park,2936 W. 85th St.,Chicago,60652,,,,
CVS/pharmacy,1165 N CLARK,Chicago,60610,,,,
CVS/pharmacy,3944 NORTH WESTERN AVENUE,CHICAGO,60618,,,,
Walgreens,3401 W ROOSEVELT RD,CHICAGO,60624,,,,
Walgreens,3424 W BELMONT AVE,CHICAGO,60618,,,,
18th Ward Office,8108 S WESTERN AVE,CHICAGO,60620,,,,
Englewood Neighborhood Health Center,641 W 63RD ST,CHICAGO,60621,,,,
CVS/pharmacy,3637 N SOUTHPORT AVE,CHICAGO,60613,,,,
Kmart Pharmacy,5050 S KEDZIE AVE,CHICAGO,60632,,,,
Walgreens,2924 E 92ND ST,CHICAGO,60617,,,,
CVS/pharmacy,1211 WEST ROOSEVELT ROAD,CHICAGO,60608,,,,
Walgreens,300 N MICHIGAN AVE,CHICAGO,60601,,,,
CVS/pharmacy,3552 WEST GRAND AVENUE,CHICAGO,60651,,,,
Walgreens,4010 W LAWRENCE AVE,Chicago,60630,,,,
Physicians Immediate Care,5961 North Lincoln Avenue,Chicago,60659,,,,
Walgreens,1627 N PULASKI RD,CHICAGO,60639,,,,
Noblest Islamic Community,8030 S. Kedzie Ave.,Chicago,60652,,,,
CVS/pharmacy,8639 SOUTH CICERO AVENUE,Chicago,60652,,,,
Walgreens,1650 W CHICAGO AVE,CHICAGO,60622,,,,
MinuteClinic Inside CVS/pharmacy Store # 08750,4801 NORTH CENTRAL AVENUE,CHICAGO,60630,,,,
Walgreens,111 S HALSTED ST,CHICAGO,60661,,,,
CVS/pharmacy,6417 WEST HIGGINS AVENUE,Chicago,60656,,,,
Walgreens,2 E ROOSEVELT RD,Chicago,60605,,,,
CVS/pharmacy,400 WEST MADISON STREET,Chicago,60606,,,,
CVS/pharmacy,1201 NORTH STATE STREET,Chicago,60610,,,,
CVS/pharmacy,8444 SOUTH PULASKI ROAD,Chicago,60652,,,,
Walgreens,1533 E 67TH ST,CHICAGO,60637,,,,
Walgreens,4710 S WESTERN AVE,Chicago,60609,,,,
Walgreens,933 N STATE ST,CHICAGO,60610,,,,
CVS/pharmacy,4540 NORTH PULASKI ROAD,Chicago,60630,,,,
15th Ward Office,1650 W. 63rd St.,Chicago,60636,,,,
Walgreens,912 W BELMONT AVE,Chicago,60657,,,,
9th Ward-St John MB Church,211 E. 115th St.,Chicago,60628,,,,
Physicians Immediate Care,6140 North Broadway,Chicago,60660,,,,
47th Ward - Chicago Public Library Sulzer Branch,4455 N. Lincoln Ave.,Chicago,60625,,,,
Walgreens,315 W CHICAGO AVE,CHICAGO,60654,,,,
CVS/pharmacy,1228 E 53RD ST,Chicago,60615,,,,
CVS/pharmacy,4051 N LINCOLN AVE,Chicago,60618,,,,
Walgreens,410 N MICHIGAN,CHICAGO,60611,,,,
Jewel-Osco 3442,4032 W Foster,Chicago,60630,,,,
CVS/pharmacy,8444 SOUTH PULASKI ROAD,Chicago,60652,,,,
Walgreens,16 W ADAMS ST,CHICAGO,60603,,,,
Walgreens,3424 W BELMONT AVE,Chicago,60618,,,,
Walgreens,3611 E 106TH ST,CHICAGO,60617,,,,
Walgreens,1500 W WILSON AVE,Chicago,60640,,,,
CVS/pharmacy,1713 SOUTH ASHLAND AVENUE,CHICAGO,60608,,,,
Daley College - Family Flu Day,7500 S. Pulaski Rd.,Chicago,60652,,,,
CVS/pharmacy,120 SOUTH LASALLE STREET,CHICAGO,60603,,,,
Walgreens,5874 S ARCHER AVE,CHICAGO,60638,,,,
Physicians Immediate Care,811 S. State St.,Chicago,60605,,,,
Walgreens,912 W BELMONT AVE,CHICAGO,60657,,,,
CVS/pharmacy,7855 SOUTH WESTERN AVENUE,Chicago,60652,,,,
Walgreens,122 S MICHIGAN AVE,Chicago,60603,,,,
Walgreens,4025 N SHERIDAN RD,CHICAGO,60613,,,,
CVS/pharmacy,9142 SOUTH CHICAGO AVENUE,CHICAGO,60617,,,,
CVS/pharmacy,11055 SOUTH WESTERN AVENUE,Chicago,60643,,,,
CVS/pharmacy,3940 WEST FULLERTON AVENUE,CHICAGO,60647,,,,
Walgreens,6121 N. BROADWAY,CHICAGO,60660,,,,
Walgreens,4343 N KEDZIE AVE,Chicago,60618,,,,
Walgreens,151 N STATE ST,CHICAGO,60601,,,,
Walgreens,347 E 95TH ST,Chicago,60619,,,,
Walgreens,3046 N HALSTED ST,CHICAGO,60657,,,,
Walgreens,3245 N HALSTED ST,Chicago,60657,,,,
Jewel-Osco 3030,7530 S. Stoney Island,Chicago,60649,,,,
Walgreens,4385 S ARCHER AVE,CHICAGO,60632,,,,
Chicago Police Department - 2nd District,5101 S. Wentworth Ave.,Chicago,60609,,,,
Walgreens,4025 N SHERIDAN RD,Chicago,60613,,,,
Walgreens,10300 S MICHIGAN AVE,CHICAGO,60628,,,,
Walgreens,200 W ADAMS ST,CHICAGO,60606,,,,
CVS/pharmacy,2414 NORTH LINCOLN AVENUE,Chicago,60614,,,,
Walgreens,6121 N BROADWAY,Chicago,60660,,,,
Chicago Police Department - HQ,3510 S. Michigan Ave.,Chicago,60653,,,,
CVS/pharmacy,520 SOUTH  STATE STREET,Chicago,60605,,,,
27th Ward Office,4 N. Western Ave.,Chicago,60612,,,,
Walgreens,1546 N CENTRAL AVE,CHICAGO,60651,,,,
14th Ward - Polish Highlanders,4808 S. Archer Ave.,Chicago,60632,,,,
Walgreens,111 S HALSTED ST,CHICAGO,60661,,,,
Walgreens,5401 S WENTWORTH AVE,CHICAGO,60609,,,,
CVS/pharmacy,130 SOUTH CANAL STREET,Chicago,60606,,,,
Walgreens,953 W IRVING PARK RD,Chicago,60613,,,,
Walgreens,191 N CLARK ST,Chicago,60601,,,,
Walgreens,4005 W 26TH ST,CHICAGO,60623,,,,
CVS/pharmacy,3101 NORTH CLARK STREET,CHICAGO,60657,,,,
Walgreens,6330 S KING DR,CHICAGO,60637,,,,
7th Ward-Jeffery Manor Library,2401 E. 100th St.,Chicago,60617,,,,
CVS/pharmacy,2815 NORTH WESTERN AVENUE,CHICAGO,60618,,,,
46th Ward-Weiss Hospital,4700 N. Marine Drive,Chicago,60640,,,,
Walgreens,3220 W 111TH ST,CHICAGO,60655,,,,
CVS/pharmacy,205 N. MICHIGAN AVENUE,CHICAGO,60601,,,,
33rd Ward Office,3001 W. Irving Park Rd.,Chicago,60618,,,,
CVS/pharmacy,3101 NORTH CLARK STREET,Chicago,60657,,,,
Physicians Immediate Care,6140 North Broadway,Chicago,60660,,,,
Walgreens,1649 W BELMONT AVE,CHICAGO,60657,,,,
Jewel-Osco 3344,1220 S. Ashland Ave.,Chicago,60608,,,,
Chicago Police Department - 2nd District,5101 S. Wentworth Ave.,Chicago,60609,,,,
CVS/pharmacy,4540 NORTH PULASKI ROAD,Chicago,60630,,,,
CVS/pharmacy,1200 NORTH ASHLAND AVENUE,CHICAGO,60622,,,,
Kmart Pharmacy,5050 S KEDZIE AVE,CHICAGO,60632,,,,
Walgreens,3201 N BROADWAY ST,CHICAGO,60657,,,,
Walgreens,1926 W 35TH ST,Chicago,60609,,,,
Walgreens,7150 W ARCHER AVE,Chicago,60638,,,,
Walgreens,4817 W FULLERTON AVE,CHICAGO,60639,,,,
Walgreens,6809 W BELMONT AVE,CHICAGO,60634,,,,
Walgreens,30 N MICHIGAN AVE,Chicago,60602,,,,
Walgreens,1601 N WELLS ST,Chicago,60614,,,,
CVS/pharmacy,745 WEST 103 ROAD STREET,Chicago,60628,,,,
18th Ward-Hayes Park,2936 W. 85th St.,Chicago,60652,,,,
CVS/pharmacy,3411 WEST ADDISON STREET,CHICAGO,60618,,,,
Chicago Police Department-Area North,2452 W. Belmont Ave.,Chicago,60618,,,,
Walgreens,501 W ROOSEVELT RD,CHICAGO,60607,,,,
Greater Lawn WIC,4150 W. 55th St.,Chicago,60632,,,,
24th Ward Office,1158 S. Keeler Ave.,Chicago,60624,,,,
Walgreens,6121 N BROADWAY,CHICAGO,60660,,,,
Walgreens,4005 W 26TH ST,CHICAGO,60623,,,,
Walgreens,4801 N LINCOLN AVE,Chicago,60625,,,,
Walgreens,1500 W WILSON AVE,CHICAGO,60640,,,,
CVS/pharmacy,4777 NORTH MILWAUKEE AVENUE,CHICAGO,60630,,,,
CVS/pharmacy,5360 SOUTH WESTERN AVENUE,Chicago,60609,,,,
Walgreens,4700 S HALSTED ST,Chicago,60609,,,,
37th Ward Office,4926 W. Chicago Ave.,Chicago,60651,,,,
15th Ward Office,1650 W. 63rd St.,Chicago,60636,,,,
Kmart Pharmacy,7050 S PULASKI,CHICAGO,60629,,,,
Walgreens,342 E ILLINOIS ST,Chicago,60611,,,,
Walgreens,1931 W CERMAK RD,CHICAGO,60608,,,,
CVS/pharmacy,6510 NORTH SHERIDAN ROAD,Chicago,60626,,,,
CVS/pharmacy,3411 WEST ADDISON STREET,Chicago,60618,,,,
CVS/pharmacy,1713 SOUTH ASHLAND AVENUE,CHICAGO,60608,,,,
CVS/pharmacy,4051 NORTH LINCOLN AVENUE,CHICAGO,60618,,,,
41st Ward-Taft High School,6530 W. Bryn Mawr Ave.,Chicago,60631,,,,
40th Ward Office,5850 N. Lincoln Ave.,Chicago,60659,,,,
CVS/pharmacy,1714 NORTH SHEFFIELD AVENUE,CHICAGO,60614,,,,
Walgreens,3934 W DIVERSEY AVE,CHICAGO,60647,,,,
CVS/pharmacy,3311 NORTH PULASKI ROAD,Chicago,60641,,,,
Walgreens,"251 E HURON STREET, SUITE 2B114",CHICAGO,60611,,,,
1st Ward Office,2740 W. North Ave.,Chicago,60647,,,,
Walgreens,6310 N NAGLE AVE,Chicago,60646,,,,
Walgreens,1372 N MILWAUKEE AVE,CHICAGO,60622,,,,
Jewel-Osco 3477,4734 North Pueblo,Chicago,60656,,,,
Walgreens,1931 W CERMAK RD,CHICAGO,60608,,,,
Walgreens,250 S WACKER DR,CHICAGO,60606,,,,
Walgreens,2340 W MADISON ST,CHICAGO,60612,,,,
CVS/pharmacy,8025 SOUTH ASHLAND AVENUE,Chicago,60620,,,,
CVS/pharmacy,3944 NORTH WESTERN AVENUE,Chicago,60618,,,,
Prosser Career Academy H.S,2148 N. Long Ave.,Chicago,60639,,,,
Walgreens,4710 S WESTERN AVE,CHICAGO,60609,,,,
43rd Ward,2523 N. Halsted Ave.,Chicago,60614,,,,
34th Ward Office,507 W. 111th St.,Chicago,60628,,,,
CVS/pharmacy,3951 WEST 103RD STREET,Chicago,60655,,,,
Walgreens,315 W CHICAGO AVE,CHICAGO,60654,,,,
Walgreens,4010 W LAWRENCE AVE,Chicago,60630,,,,
CVS/pharmacy,5205 NORTH BROADWAY STREET,CHICAGO,60640,,,,
Walgreens,4343 N CENTRAL AVE,Chicago,60634,,,,
Walgreens,5222 W MADISON ST,CHICAGO,60644,,,,
Wright College,4300 N NARRAGANSETT AVE,CHICAGO,60634,,,,
Walgreens,1627 N PULASKI RD,CHICAGO,60639,,,,
Nigerian Illinois Nurses Association,7341 N. Claremont Ave.,Chicago,60645,,,,
Walgreens,4001 W IRVING PARK RD,Chicago,60641,,,,
Walgreens,7652 W TOUHY AVE,CHICAGO,60631,,,,
Walgreens,1372 N MILWAUKEE AVE,CHICAGO,60622,,,,
Walgreens,11801 S AVENUE O,CHICAGO,60617,,,,
Walgreens,2011 E 95TH ST,CHICAGO,60617,,,,
2nd Ward-Lakeshore Park Field House,808 N. Lakeshore Dr.,Chicago,60611,,,,
31st Ward-Regency Inn Banquet,5319 W. Diversey,Chicago,60639,,,,
41st Ward-Taft High School,6530 W. Bryn Mawr Ave.,Chicago,60631,,,,
Walgreens,4748 W NORTH AVE,Chicago,60639,,,,
Walgreens,3934 W DIVERSEY AVE,Chicago,60647,,,,
Walgreens,1372 N MILWAUKEE AVE,CHICAGO,60622,,,,
Greater Lawn WIC,4150 W 55TH ST,CHICAGO,60632,,,,
Walgreens,1616 E 87TH ST,CHICAGO,60617,,,,
Uptown WIC,845 W. Wilson Ave.,Chicago,60640,,,,
CVS/pharmacy,741 WEST 31ST STREET,Chicago,60608,,,,
Walgreens,7155 W FOSTER AVE,Chicago,60656,,,,
Chicago Police Department - 25th District,5555 W. Grand Ave.,Chicago,60639,,,,
Walgreens,6809 W BELMONT AVE,Chicago,60634,,,,
Walgreens,4748 W NORTH AVE,CHICAGO,60639,,,,
CVS/pharmacy,1930 WEST 103RD STREET,Chicago,60643,,,,
4th Ward-Oak Shores Community Center,3825 S. Vincennes Ave.,Chicago,60653,,,,
Arturo Velasquez Institute,2800 S WESTERN AVE,CHICAGO,60608,,,,
CVS/pharmacy,205 N. MICHIGAN AVENUE,CHICAGO,60601,,,,
Chicago Police Department - Area North,2452 W. Belmont Ave.,Chicago,60618,,,,
12th Ward-McKinley Park,2210 W. Pershing Rd.,Chicago,60609,,,,
Walgreens,5401 S WENTWORTH AVE,Chicago,60609,,,,
CVS/pharmacy,1201 NORTH STATE STREET,Chicago,60610,,,,
Walgreens,680 N LAKE SHORE DR,CHICAGO,60611,,,,
Arturo Velasquez Institute-Family Flu Day,2800 S. Western Ave.,Chicago,60608,,,,
44th Ward-Britton Senior Apartments,501 W. Surf St.,Chicago,60657,,,,
36th Ward Office,6934 W. Diversey Ave.,Chicago,60707,,,,
St Michael the Archangel Parish,1936 W. 48th St.,Chicago,60609,,,,
City Hall - 2nd Floor Lobby,121 N. LaSalle St.,Chicago,60602,,,,
Walgreens,2345 W 103RD ST,CHICAGO,60643,,,,
Walgreens,1320 E 47TH ST,CHICAGO,60653,,,,
Greater Lawn WIC,4150 W 55TH ST,CHICAGO,60632,,,,
CVS/pharmacy,3033 NORTH BROADWAY STREET,CHICAGO,60657,,,,
Jewel-Osco 3501,3400 N. Western Ave,Chicago,60618,,,,
CVS/pharmacy,3311 NORTH PULASKI ROAD,Chicago,60641,,,,
CVS/pharmacy,1211 WEST ROOSEVELT ROAD,Chicago,60608,,,,
Walgreens,10300 S MICHIGAN AVE,Chicago,60628,,,,
CVS/pharmacy,3146 WEST MADISON,Chicago,60612,,,,
Trinity United Church of Christ,400 W 95TH ST,CHICAGO,60628,,,,
CVS/pharmacy,6355 WEST BELMONT,CHICAGO,60634,,,,
Walgreens,201 W MADISON ST,CHICAGO,60606,,,,
CVS/pharmacy,6200 WEST HIGGINS AVENUE,CHICAGO,60630,,,,
CVS/pharmacy,3637 NORTH SOUTHPORT AVENUE,CHICAGO,60613,,,,
Daley College,7500 S PULASKI RD,CHICAGO,60652,,,,
Cherubim & Seraphim Church,10747 S. Halsted St.,Chicago,60628,,,,
Walgreens,3220 W 111TH ST,CHICAGO,60655,,,,
CVS/pharmacy,3101 NORTH CLARK STREET,Chicago,60657,,,,
Walgreens,3110 W ARMITAGE AVE,CHICAGO,60647,,,,
Walgreens,1213 W 79TH ST,CHICAGO,60620,,,,
39th Ward Office,4404 W. Lawrence Ave.,Chicago,60630,,,,
CVS/pharmacy,5360 SOUTH WESTERN AVENUE,CHICAGO,60609,,,,
1st Ward Office,2740 W. North Ave.,Chicago,60647,,,,
Walgreens,3201 N BROADWAY ST,Chicago,60657,,,,
8th Ward Office,8539 S COTTAGE GROVE AVE,CHICAGO,60619,,,,
CVS/pharmacy,130 SOUTH CANAL STREET,CHICAGO,60606,,,,
CVS/pharmacy,105 SOUTH WABASH AVENUE,Chicago,60603,,,,
Walgreens,5753 N CANFIELD AVE,Chicago,60631,,,,
CVS/pharmacy,1819 NORTH HARLEM AVENUE,Chicago,60707,,,,
Walgreens,953 W IRVING PARK RD,CHICAGO,60613,,,,
Walgreens,4040 N CICERO AVE,Chicago,60641,,,,
35th Ward Office,2710 N. Sawyer Ave.,Chicago,60647,,,,
15th Ward Office-Brighton Park,2736 W. 47th St.,Chicago,60632,,,,
Walgreens,1001 W BELMONT AVE,Chicago,60657,,,,
CVS/pharmacy,400 WEST MADISON STREET,Chicago,60606,,,,
Walgreens,953 W IRVING PARK RD,Chicago,60613,,,,
Jewel-Osco 2506,424 W Division St,Chicago,60610,,,,
Walgreens,2440 W NORTH AVE,CHICAGO,60647,,,,
CVS/pharmacy,3411 WEST ADDISON STREET,CHICAGO,60618,,,,
34th Ward Office,507 W. 111th St.,Chicago,60628,,,,
27th Ward Office,4 N. Western Ave.,Chicago,60612,,,,
Walgreens,3222 N MILWAUKEE AVE,CHICAGO,60618,,,,
Walgreens,2317 N CLARK ST,Chicago,60614,,,,
CVS/pharmacy,8712 SOUTH STONY ISLAND AVENUE,CHICAGO,60619,,,,
CVS/pharmacy,1819 NORTH HARLEM AVENUE,CHICAGO,60707,,,,
Olive Harvey City College Wellness Resource Fair,10001 S. Woodlawn Ave.,Chicago,60628,,,,
Walgreens,7510 N WESTERN AVE,Chicago,60645,,,,
CVS/pharmacy,1714 NORTH SHEFFIELD AVENUE,CHICAGO,60614,,,,
Walgreens,9434 S HALSTED ST,CHICAGO,60620,,,,
CVS/pharmacy,3033 NORTH BROADWAY STREET,CHICAGO,60657,,,,
CVS/pharmacy,1200 NORTH ASHLAND AVENUE,CHICAGO,60622,,,,
Walgreens,2001 N MILWAUKEE AVE,CHICAGO,60647,,,,
Walgreens,501 W ROOSEVELT RD,Chicago,60607,,,,
CVS/pharmacy,8025 SOUTH ASHLAND AVENUE,CHICAGO,60620,,,,
CVS/pharmacy,2828 N CLARK ST,CHICAGO,60657,,,,
Walgreens,5874 S ARCHER AVE,Chicago,60638,,,,
Walgreens,1546 N CENTRAL AVE,CHICAGO,60651,,,,
Walgreens,2301 W IRVING PARK RD,CHICAGO,60618,,,,
Walgreens,4025 N SHERIDAN RD,Chicago,60613,,,,
Walgreens,501 W ROOSEVELT RD,CHICAGO,60607,,,,
10th Ward-Knights of Columbus,11207 S EWING AVE,CHICAGO,60617,,,,
Walgreens,5158 N LINCOLN AVE,Chicago,60625,,,,
CVS/pharmacy,3615 NORTH CENTRAL AVENUE,CHICAGO,60634,,,,
CVS/pharmacy,7858 SOUTH HALSTED STREET,CHICAGO,60620,,,,
St. Michael the Archangel Catolic Church,1936 W. 48th St.,Chicago,60609,,,,
CVS/pharmacy,520 SOUTH  STATE STREET,CHICAGO,60605,,,,
CVS/pharmacy,11 EAST 14TH STREET,CHICAGO HEIGHTS,60411,,,,
Walgreens,1200 N DEARBORN ST,CHICAGO,60610,,,,
CVS/pharmacy,3944 NORTH WESTERN AVENUE,Chicago,60618,,,,
Walgreens,3303 W 26TH ST,CHICAGO,60623,,,,
41st Ward-Taft High School,6530 W. Bryn Mawr Ave.,Chicago,60631,,,,
CVS/pharmacy,7855 SOUTH WESTERN AVENUE,Chicago,60652,,,,
Truman College-Family Flu Day,1145 W. Wilson Ave.,Chicago,60640,,,,
CVS/pharmacy,8025 SOUTH ASHLAND AVENUE,CHICAGO,60620,,,,
14th Ward-Polish Highlanders,4808 S. Archer Ave.,Chicago,60632,,,,
Uptown WIC,845 W WILSON AVE,Chicago,60640,,,,
Walgreens,4040 N CICERO AVE,CHICAGO,60641,,,,
37th Ward Office,4926 W. Chicago Ave.,Chicago,60651,,,,
CVS/pharmacy,137 SOUTH STATE STREET,CHICAGO,60603,,,,
Walgreens,7111 S WESTERN AVE,CHICAGO,60636,,,,
Walgreens,3019 W PETERSON AVE,CHICAGO,60659,,,,
32nd Ward Office,2657 N. Clybourn Ave.,Chicago,60614,,,,
Wright College-Family Flu Day,4300 N. Narragansett Ave.,Chicago,60634,,,,
CVS/pharmacy,105 SOUTH WABASH AVENUE,Chicago,60603,,,,
Walgreens,30 N MICHIGAN AVE,CHICAGO,60602,,,,
Walgreens,1333 W BELMONT AVE,Chicago,60657,,,,
CVS/pharmacy,1620 WEST 59TH STREET,CHICAGO,60621,,,,
Jewel-Osco 3030,7530 S. Stoney Island,Chicago,60649,,,,
City Hall-11th Floor Lobby,121 N. LaSalle St.,Chicago,60602,,,,
CVS/pharmacy,741 WEST 31ST STREET,CHICAGO,60608,,,,
Walgreens,7045 S PULASKI RD,CHICAGO,60629,,,,
CVS/pharmacy,6417 WEST HIGGINS AVENUE,CHICAGO,60656,,,,
24th Ward Office,1158 S. Keeler Ave.,Chicago,60624,,,,
Walgreens,2011 E 95TH ST,Chicago,60617,,,,
47th Ward-Sulzer Library,4455 N. Lincoln Ave.,Chicago,60625,,,,
Walgreens,2924 E 92ND ST,CHICAGO,60617,,,,
Walgreens,501 W ROOSEVELT RD,CHICAGO,60607,,,,
Walgreens,3943 W 47TH ST,CHICAGO,60632,,,,
CVS/pharmacy,400 WEST MADISON STREET,CHICAGO,60606,,,,
Walgreens,5222 W MADISON ST,CHICAGO,60644,,,,
Walgreens,7652 W TOUHY AVE,CHICAGO,60631,,,,
Walgreens,5874 S ARCHER AVE,CHICAGO,60638,,,,
38th Ward Office,3821 N. Harlem Ave.,Chicago,60634,,,,
CVS/pharmacy,2545 MARTIN LUTHER KING,CHICAGO,60606,,,,
Walgreens,15 W WASHINGTON ST,CHICAGO,60602,,,,
CVS/pharmacy,641 WEST 63RD STREET,CHICAGO,60652,,,,
50th Ward - Croatian Cultural Center,2845 W. Devon Ave.,Chicago,60659,,,,
CVS/pharmacy,641 WEST 63RD STREET,Chicago,60652,,,,
CVS/pharmacy,105 SOUTH WABASH AVENUE,CHICAGO,60603,,,,
Walgreens,3800 W MADISON ST STE 101,CHICAGO,60624,,,,
CVS/pharmacy,101 NORTH CLINTON STREET,Chicago,60661,,,,
Walgreens,8636 S ASHLAND AVE,CHICAGO,60620,,,,
Walgreens,1546 N CENTRAL AVE,CHICAGO,60651,,,,
Walgreens,10300 S MICHIGAN AVE,CHICAGO,60628,,,,
Walgreens,5650 W BELMONT AVE,Chicago,60634,,,,
CVS/pharmacy,4051 NORTH LINCOLN AVENUE,CHICAGO,60618,,,,
Walgreens,316 W CERMAK RD,CHICAGO,60616,,,,
Walgreens,4343 N KEDZIE AVE,Chicago,60618,,,,
CVS/pharmacy,2722 NORTH CENTRAL AVENUE,Chicago,60639,,,,
CVS/pharmacy,771 NORTH OGDEN AVENUE,CHICAGO,60622,,,,
Nigerian Islamic Association,932 W. Sheridan Rd.,Chicago,60613,,,,
35th Ward Office,4353 W. Armitage,Chicago,60639,,,,
Walgreens,7410 N CLARK ST,Chicago,60626,,,,
CVS/pharmacy,745 WEST 103 ROAD STREET,Chicago,60628,,,,
Walgreens,641 N CLARK ST,CHICAGO,60654,,,,
Walgreens,7045 S PULASKI RD,Chicago,60629,,,,
16th Ward Office,3045 W. 63rd St.,Chicago,60629,,,,
Walgreens,200 W ADAMS ST,Chicago,60606,,,,
Walgreens,7045 S PULASKI RD,CHICAGO,60629,,,,
Walgreens,5158 N LINCOLN AVE,CHICAGO,60625,,,,
24th Ward-Greater Galilee Church,1308 S INDEPENDENCE BLVD,CHICAGO,60623,,,,
CVS/pharmacy,2418 WEST DIVISION STREET,Chicago,60622,,,,
CVS/pharmacy,2053 NORTH MILWAUKEE AVENUE,Chicago,60647,,,,
Walgreens,8636 S ASHLAND AVE,CHICAGO,60620,,,,
21st Ward Office,9011 S. Ashland Ave.,Chicago,60620,,,,
Walgreens,5435 S KEDZIE AVE,CHICAGO,60632,,,,
Walgreens,953 W IRVING PARK RD,CHICAGO,60613,,,,
CVS/pharmacy,2722 NORTH CENTRAL AVENUE,CHICAGO,60639,,,,
19th Ward Office,10402 S WESTERN AVE,CHICAGO,60643,,,,
32nd Ward Office,2657 N. Clybourn Ave.,Chicago,60614,,,,
CVS/pharmacy,3951 WEST 103RD STREET,CHICAGO,60655,,,,
45th Ward Office,4754 N. Milwaukee Ave.,Chicago,60630,,,,
CVS/pharmacy,7855 SOUTH WESTERN AVENUE,Chicago,60652,,,,
Walgreens,833 W 115TH ST,CHICAGO,60643,,,,
Walgreens,1333 W BELMONT AVE,CHICAGO,60657,,,,
CVS/pharmacy,520 SOUTH  STATE STREET,Chicago,60605,,,,
Walgreens,912 W BELMONT AVE,CHICAGO,60657,,,,
11th Ward-McGuane Park,2901 S. Poplar Ave.,Chicago,60608,,,,
Walgreens,6140 N WESTERN AVE,CHICAGO,60659,,,,
Kennedy King College - Family Flu Day,6343 S. Halsted St.,Chicago,60621,,,,
8th Ward Office,8539 S. Cottage Grove Ave.,Chicago,60619,,,,
30th Ward-Kilbourn Park,3501 N KILBOURN AVE,CHICAGO,60641,,,,
Walgreens,3358 N WESTERN AVE,CHICAGO,60618,,,,
Walgreens,2 E ROOSEVELT RD,CHICAGO,60605,,,,
Chicago Police Department - 11th District,3153 W. Harrison St.,Chicago,60612,,,,
Jewel-Osco 3349,2520 N Narragansett Ave.,Chicago,60639,,,,
CVS/pharmacy,2053 NORTH MILWAUKEE AVENUE,Chicago,60647,,,,
Walgreens,3934 W DIVERSEY AVE,CHICAGO,60647,,,,
Walgreens,7155 W FOSTER AVE,CHICAGO,60656,,,,
CVS/pharmacy,4801 NORTH CENTRAL AVENUE,CHICAGO,60630,,,,
Walgreens,2345 W 103RD ST,Chicago,60643,,,,
Walgreens,7410 N CLARK ST,CHICAGO,60626,,,,
National Museum of Mexican Art,1852 W. 19th St.,Chicago,60608,,,,
Walgreens,933 N STATE ST,Chicago,60610,,,,
Walgreens,3405 S KING DR,Chicago,60616,,,,
Walgreens,225 E CHICAGO AVE,CHICAGO,60611,,,,
Operation Warm-UIC Forum,725 W. Roosevelt Rd.,Chicago,60607,,,,
25th Ward Office,1645 S. Blue Island Ave.,Chicago,60608,,,,
Walgreens,3110 W ARMITAGE AVE,CHICAGO,60647,,,,
Walgreens,5625 N RIDGE AVE,CHICAGO,60660,,,,
Chicago Police Department - 19th District,2452 W. Belmont Ave.,Chicago,60618,,,,
Walgreens,6140 N WESTERN AVE,Chicago,60659,,,,
Walgreens,1554 E 55TH ST,Chicago,60615,,,,
Walgreens,3303 W 26TH ST,CHICAGO,60623,,,,
Walgreens,933 N STATE ST,Chicago,60610,,,,
Walgreens,1500 W WILSON AVE,CHICAGO,60640,,,,
Walgreens,2351 E 71st,CHICAGO,60649,,,,
Walgreens,1520 W FULLERTON AVE,CHICAGO,60614,,,,
Walgreens,347 E 95TH ST,Chicago,60619,,,,
Walgreens,4817 W FULLERTON AVE,CHICAGO,60639,,,,
Walgreens,5158 N LINCOLN AVE,Chicago,60625,,,,
CVS/pharmacy,3940 WEST FULLERTON AVENUE,CHICAGO,60647,,,,
Walgreens,1601 N WELLS ST,CHICAGO,60614,,,,
CVS/pharmacy,5205 NORTH BROADWAY STREET,Chicago,60640,,,,
CVS/pharmacy,175 WEST JACKSON BOULEVARD,CHICAGO,60604,,,,
CVS/pharmacy,2815 NORTH WESTERN AVENUE,Chicago,60618,,,,
Walgreens,3000 S HALSTED ST,CHICAGO,60608,,,,
Walgreens,2011 E 95TH ST,Chicago,60617,,,,
Walgreens,2317 N CLARK ST,CHICAGO,60614,,,,
Walgreens,5401 S WENTWORTH AVE,CHICAGO,60609,,,,
14th Ward-Polish Highlanders,4808 S. Archer Ave.,Chicago,60632,,,,
2nd Ward-Old St. Marys Church,1500 S MICHIGAN AVE,CHICAGO,60605,,,,
Walgreens,347 E 95TH ST,CHICAGO,60619,,,,
MinuteClinic Inside CVS/pharmacy Store # 08753,3637 NORTH SOUTHPORT AVENUE,CHICAGO,60613,,,,
Walgreens,3046 N HALSTED ST,Chicago,60657,,,,
CVS/pharmacy,121 WEST KINZIE STREET,Chicago,60610,,,,
CVS/pharmacy,2427 WEST CHICAGO AVENUE,Chicago,60622,,,,
CVS/pharmacy,2418 WEST DIVISION STREET,CHICAGO,60622,,,,
Jewel-Osco 2500,1340 S. Canal St,Chicago,60607,,,,
Walgreens,3798 S WESTERN AVE,CHICAGO,60609,,,,
Walgreens,5140 W DIVERSEY AVE,Chicago,60639,,,,
Walgreens,5414 S ARCHER AVE,Chicago,60638,,,,
Walgreens,11833 S WESTERN AVE,CHICAGO,60643,,,,
Walgreens,300 N MICHIGAN AVE,CHICAGO,60601,,,,
Walgreens,7155 W FOSTER AVE,Chicago,60656,,,,
CVS/pharmacy,2634 SOUTH PULASKI ROAD,CHICAGO,60623,,,,
CVS/pharmacy,11055 SOUTH WESTERN AVENUE,Chicago,60643,,,,
Cherubim & Seraphim Church,4850 N. Sawyer Ave.,Chicago,60625,,,,
Walgreens,7150 W ARCHER AVE,CHICAGO,60638,,,,
CVS/pharmacy,6150 NORTH BROADWAY,CHICAGO,60660,,,,
Walgreens,1546 N CENTRAL AVE,CHICAGO,60651,,,,
Walgreens,2351 E 71st,CHICAGO,60649,,,,
Walgreens,191 N CLARK ST,CHICAGO,60601,,,,
Trinity United Church of Christ,400 W. 95th St.,Chicago,60628,,,,
Walgreens,11801 S AVENUE O,Chicago,60617,,,,
MinuteClinic Inside CVS/pharmacy Store # 08699,137 SOUTH STATE STREET,CHICAGO,60603,,,,
CVS/pharmacy,520 SOUTH  STATE STREET,Chicago,60605,,,,
Jewel-Osco 3443,5345 Broadway St.,Chicago,60640,,,,
42nd Ward - FUMC Chicago Temple,77 W. Washington St.,Chicago,60602,,,,
CVS/pharmacy,4777 NORTH MILWAUKEE AVENUE,Chicago,60630,,,,
47th Ward-Sulzer Library,4455 N. Lincoln Ave.,Chicago,60625,,,,
CVS/pharmacy,1228 EAST 53RD STREET,Chicago,60637,,,,
CVS/pharmacy,8639 SOUTH CICERO AVENUE,CHICAGO,60652,,,,
Walgreens,6809 W BELMONT AVE,CHICAGO,60634,,,,
Walgreens,1614 W 47TH ST,CHICAGO,60609,,,,
Walgreens,2835 N SHEFFIELD AVE STE 505,CHICAGO,60657,,,,
Walgreens,5230 N MILWAUKEE AVE,Chicago,60630,,,,
CVS/pharmacy,3343 WEST MONTROSE AVENUE,Chicago,60618,,,,
Jewel-Osco 2502,2550 N. Clybourn Ave,Chicago,60614,,,,
Walgreens,3201 N BROADWAY ST,CHICAGO,60657,,,,
Walgreens,1614 W 47TH ST,CHICAGO,60609,,,,
Physicians Immediate Care,4211 N. Cicero Ave.,Chicago,60641,,,,
Walgreens,1601 N MILWAUKEE AVE,CHICAGO,60647,,,,
29th Ward Office,6272 W. North Ave.,Chicago,60639,,,,
Walgreens,1601 N WELLS ST,CHICAGO,60614,,,,
Villa Guadalupe,3201 E. 91st St.,Chicago,60617,,,,
Walgreens,6016 W 63RD ST,Chicago,60638,,,,
St Francis of Assisi,813 W. Roosevelt Rd.,Chicago,60608,,,,
CVS/pharmacy,101 NORTH CLINTON STREET,CHICAGO,60661,,,,
Walgreens,8628 S COTTAGE GROVE AVE,CHICAGO,60619,,,,
17th Ward Office,1344 W. 79th St.,Chicago,60620,,,,
Walgreens,833 W 115TH ST,Chicago,60643,,,,
Walgreens,5625 N RIDGE AVE,CHICAGO,60660,,,,
Truman College-Family Flu Day,1145 W. Wilson Ave.,Chicago,60640,,,,
Walgreens,3019 W PETERSON AVE,CHICAGO,60659,,,,
Jewel-Osco 3187,11730 S. Marshfield Ave.,Chicago,60643,,,,
2nd Ward Latin School of Chicago (Loggia RM),59 W. North Blvd,Chicago,60610,,,,
Walgreens,1633 W 95TH ST,Chicago,60643,,,,
CVS/pharmacy,5360 SOUTH WESTERN AVENUE,CHICAGO,60609,,,,
25th Ward-Lozano Library,1805 S LOOMIS ST,CHICAGO,60608,,,,
36th Ward Office,6934 W. Diversey Ave.,Chicago,60707,,,,
Walgreens,342 E ILLINOIS ST,CHICAGO,60611,,,,
Lower West WIC,1643 W CERMAK RD,CHICAGO,60608,,,,
Walgreens,3303 W 26TH ST,CHICAGO,60623,,,,
Walgreens,740 W DIVERSEY PKWY,Chicago,60614,,,,
CVS/pharmacy,1819 NORTH HARLEM AVENUE,CHICAGO,60707,,,,
28th Ward-Garfield Center,10 S KEDZIE AVE,CHICAGO,60612,,,,
16th Ward-Hope Presbyterian,1354 W 61ST ST,CHICAGO,60636,,,,
Walgreens,3611 E 106TH ST,CHICAGO,60617,,,,
23rd Ward-West Communities YMCA,6235 S. Homan Ave.,Chicago,60629,,,,
CVS/pharmacy,2414 NORTH LINCOLN AVENUE,CHICAGO,60614,,,,
CVS/pharmacy,520 SOUTH  STATE STREET,CHICAGO,60605,,,,
Walgreens,1200 N DEARBORN ST,CHICAGO,60610,,,,
Walgreens,4700 S HALSTED ST,CHICAGO,60609,,,,
CVS/pharmacy,845 WEST WILSON AVENUE,Chicago,60640,,,,
Walgreens,122 S MICHIGAN AVE,CHICAGO,60603,,,,
Walgreens,8628 S COTTAGE GROVE AVE,CHICAGO,60619,,,,
CVS/pharmacy,8025 SOUTH ASHLAND AVENUE,Chicago,60620,,,,
Walgreens,3934 W DIVERSEY AVE,CHICAGO,60647,,,,
Walgreens,5650 W BELMONT AVE,Chicago,60634,,,,
Walgreens,1616 E 87TH ST,CHICAGO,60617,,,,
Walgreens,4385 S ARCHER AVE,Chicago,60632,,,,
Villa Guadalupe Senior Service Inc.,3201 E. 91st St.,Chicago,60617,,,,
13th Ward - West Lawn Park,4233 W. 65th St.,Chicago,60629,,,,
1st Ward Office,2058 N WESTERN AVE,CHICAGO,60647,,,,
Walgreens,11833 S WESTERN AVE,CHICAGO,60643,,,,
Arturo Velasquez Institute-Family Flu Day,2800 S. Western Ave.,Chicago,60608,,,,
Chicago Department of Family Support Services King Community Service Center,4314 S. Cottage Grove Ave.,Chicago,60653,,,,
CVS/pharmacy,3146 WEST MADISON,Chicago,60612,,,,
CVS/pharmacy,1713 SOUTH ASHLAND AVENUE,Chicago,60608,,,,
17th Ward Office,1344 W. 79th St.,Chicago,60620,,,,
Walgreens,6310 N NAGLE AVE,CHICAGO,60646,,,,
32nd Ward Office,2657 N. Clybourn Ave.,Chicago,60614,,,,
Walgreens,8636 S ASHLAND AVE,Chicago,60620,,,,
CVS/pharmacy,3311 NORTH PULASKI ROAD,Chicago,60641,,,,
Walgreens,2 E ROOSEVELT RD,CHICAGO,60605,,,,
CVS/pharmacy,6510 NORTH SHERIDAN ROAD,CHICAGO,60626,,,,
Walgreens,7150 W ARCHER AVE,Chicago,60638,,,,
49th Ward Office,7356 N GREENVIEW AVE,CHICAGO,60626,,,,
Walgreens,3201 N BROADWAY ST,CHICAGO,60657,,,,
Walgreens,6315 S KEDZIE AVE,CHICAGO,60629,,,,
CVS/pharmacy,3343 WEST MONTROSE AVENUE,CHICAGO,60618,,,,
Walgreens,3800 W MADISON ST STE 101,Chicago,60624,,,,
Walgreens,5935 W ADDISON ST,CHICAGO,60634,,,,
CVS/pharmacy,4801 N CENTRAL AVE,Chicago,60630,,,,
41st Ward-Taft High School,6530 W BRYN MAWR AVE,CHICAGO,60631,,,,
Walgreens,2817 N CLARK ST,CHICAGO,60657,,,,
Uptown Neighborhood Health Center,845 W WILSON AVE,CHICAGO,60640,,,,
Walgreens,3611 E 106TH ST,CHICAGO,60617,,,,
Walgreens,201 W MADISON ST,Chicago,60606,,,,
CVS/pharmacy,2634 SOUTH PULASKI ROAD,CHICAGO,60623,,,,
30th Ward-Kilbourn Park,3501 N. Kilbourn Ave.,Chicago,60641,,,,
CVS/pharmacy,4801 NORTH CENTRAL AVENUE,Chicago,60630,,,,
16th Ward Office,1504 W. 63rd St.,Chicago,60629,,,,
CVS/pharmacy,2722 NORTH CENTRAL AVENUE,Chicago,60639,,,,
Kmart Pharmacy,17355 TORRENCE AVE,LANSING,60438,,,,
CVS/pharmacy,741 WEST 31ST STREET,CHICAGO,60608,,,,
31st Ward-Kosciuszko Park,2732 N. Avers Ave.,Chicago,60647,,,,
CVS/pharmacy,4800 NORTH DAMEN AVENUE,CHICAGO,60625,,,,
Trinity United Church of Christ,400 W. 95th St.,Chicago,60628,,,,
Walgreens,6140 N WESTERN AVE,CHICAGO,60659,,,,
7th Ward Office,2249 E. 95th St.,Chicago,60617,,,,
Jewel-Osco 3170,5324 South Pulaski,Chicago,60632,,,,
Walgreens,7111 S WESTERN AVE,Chicago,60636,,,,
Walgreens,30 N MICHIGAN AVE,CHICAGO,60602,,,,
CVS/pharmacy,400 WEST MADISON STREET,Chicago,60606,,,,
CVS/pharmacy,4801 N CENTRAL AVE,Chicago,60630,,,,
CVS/pharmacy,3637 N SOUTHPORT AVE,Chicago,60613,,,,
Chicago Police Department - 19th District,2452 W BELMONT AVE,CHICAGO,60618,,,,
Walgreens,5435 S KEDZIE AVE,CHICAGO,60632,,,,
Walgreens,680 N LAKE SHORE DR,CHICAGO,60611,,,,
CVS/pharmacy,6355 WEST BELMONT,CHICAGO,60634,,,,
Truman College,1145 W WILSON AVE,CHICAGO,60640,,,,
Walgreens,1213 W 79TH ST,CHICAGO,60620,,,,
3rd Ward Office,5046 S. State St.,Chicago,60609,,,,
Walgreens,5874 S ARCHER AVE,Chicago,60638,,,,
Wright College-Family Flu Day,4300 N. Narragansett Ave.,Chicago,60634,,,,
CVS/pharmacy,845 WEST WILSON AVENUE,CHICAGO,60640,,,,
Walgreens,912 W BELMONT AVE,CHICAGO,60657,,,,
CVS/pharmacy,11055 SOUTH WESTERN AVENUE,CHICAGO,60643,,,,
Walgreens,316 W CERMAK RD,CHICAGO,60616,,,,
30th Ward-Kilbourn Park,3501 N. Kilbourn Ave.,Chicago,60641,,,,
Walgreens,833 W 115TH ST,CHICAGO,60643,,,,
Walgreens,1500 W WILSON AVE,CHICAGO,60640,,,,
Walgreens,1650 W CHICAGO AVE,CHICAGO,60622,,,,
Walgreens,201 W MADISON ST,CHICAGO,60606,,,,
Walgreens,711 W NORTH AVE STE 204,Chicago,60610,,,,
Walgreens,1333 W BELMONT AVE,CHICAGO,60657,,,,
Walgreens,5140 W DIVERSEY AVE,CHICAGO,60639,,,,
Walgreens,1926 W 35TH ST,Chicago,60609,,,,
Walgreens,5435 S KEDZIE AVE,Chicago,60632,,,,
Walgreens,680 N LAKE SHORE DR,Chicago,60611,,,,
Walgreens,6310 N NAGLE AVE,Chicago,60646,,,,
37th Ward Office,4926 W. Chicago Ave.,Chicago,60651,,,,
CVS/pharmacy,137 S STATE ST,Chicago,60603,,,,
Walgreens,6016 W 63RD ST,CHICAGO,60638,,,,
Walgreens,3046 N HALSTED ST,Chicago,60657,,,,
CVS/pharmacy,741 WEST 31ST STREET,Chicago,60608,,,,
Villa Guadalupe Senior Service,3201 E. 91st St.,Chicago,60617,,,,
Walgreens,4801 N LINCOLN AVE,CHICAGO,60625,,,,
Walgreens,"251 E HURON STREET, SUITE 2B114",CHICAGO,60611,,,,
Walgreens,5753 N CANFIELD AVE,CHICAGO,60631,,,,
46th Ward Office,4544 N. Broadway Ave.,Chicago,60640,,,,
9th Ward-Palmer Park,201 E. 111th St.,Chicago,60628,,,,
21st Ward,9011 S. Ashland Ave.,Chicago,60620,,,,
20th Ward-Kennedy King College,6301 S. Halsted St.,Chicago,60621,,,,
9th Ward-Palmer Park,201 E. 111th St.,Chicago,60628,,,,
Uptown Neighborhood Health Center,845 W WILSON AVE,CHICAGO,60640,,,,
CVS/pharmacy,8712 SOUTH STONY ISLAND AVENUE,Chicago,60619,,,,
CVS/pharmacy,8444 SOUTH PULASKI ROAD,CHICAGO,60652,,,,
Walgreens,4385 S ARCHER AVE,CHICAGO,60632,,,,
BCBSIL Blue Door Neighborhood Center,756 E. 111th St.,Chicago,60628,,,,
Walgreens,1926 W 35TH ST,CHICAGO,60609,,,,
MinuteClinic Inside CVS/pharmacy Store # 08698,1165 NORTH CLARK STREET,CHICAGO,60610,,,,
26th Ward-Humboldt Park,1440 N. Humboldt Dr.,Chicago,60622,,,,
28th Ward Office,2622 W. Jackson Blvd.,Chicago,60608,,,,
Walgreens,300 N MICHIGAN AVE,Chicago,60601,,,,
Walgreens,4801 N LINCOLN AVE,CHICAGO,60625,,,,
CVS/pharmacy,175 WEST JACKSON BOULEVARD,Chicago,60604,,,,
22nd Ward-El Valor Children & Family Center,2434 S. Kildare Ave.,Chicago,60623,,,,
17th Ward Office,1344 W. 79th St.,Chicago,60620,,,,
Walgreens,2924 E 92ND ST,CHICAGO,60617,,,,
Walgreens,1931 W CERMAK RD,Chicago,60608,,,,
17th Ward Office,1344 W. 79th St.,Chicago,60620,,,,
6th Ward - Salvation Army Red Shield Center,945 W. 69th St.,Chicago,60621,,,,
Walgreens,7150 W ARCHER AVE,CHICAGO,60638,,,,
Englewood Neighborhood Health Center,641 W. 63rd St.,Chicago,60621,,,,
Walgreens,3934 W DIVERSEY AVE,Chicago,60647,,,,
Walgreens,1333 W BELMONT AVE,CHICAGO,60657,,,,
Walgreens,7901 S WESTERN AVE,CHICAGO,60620,,,,
Walgreens,1601 N WELLS ST,CHICAGO,60614,,,,
Walgreens,1320 E 47TH ST,Chicago,60653,,,,
Walgreens,5036 S COTTAGE GROVE AVE,Chicago,60615,,,,
Kennedy King College,6343 S HALSTED ST,CHICAGO,60621,,,,
13th Ward-West Lawn Park,4233 W 65TH ST,CHICAGO,60629,,,,
Walgreens,1926 W 35TH ST,CHICAGO,60609,,,,
CVS/pharmacy,6200 WEST HIGGINS AVENUE,CHICAGO,60630,,,,
CVS/pharmacy,641 WEST 63RD STREET,CHICAGO,60652,,,,
CVS/pharmacy,130 SOUTH CANAL STREET,Chicago,60606,,,,
Walgreens,5140 W DIVERSEY AVE,CHICAGO,60639,,,,
Walgreens,200 W ADAMS ST,CHICAGO,60606,,,,
40th Ward Office,5850 N. Lincoln Ave.,Chicago,60659,,,,
CVS/pharmacy,175 WEST JACKSON BOULEVARD,Chicago,60604,,,,
Walgreens,5036 S COTTAGE GROVE AVE,CHICAGO,60615,,,,
CVS/pharmacy,3615 NORTH CENTRAL AVENUE,Chicago,60634,,,,
CVS/pharmacy,3146 WEST MADISON,CHICAGO,60612,,,,
Walgreens,5600 W FULLERTON AVE,Chicago,60639,,,,
Walgreens,2015 E 79TH ST,CHICAGO,60649,,,,
Walgreens,3222 N MILWAUKEE AVE,CHICAGO,60618,,,,
Walgreens,2015 E 79TH ST,Chicago,60649,,,,
CVS/pharmacy,1165 N CLARK,Chicago,60610,,,,
CVS/pharmacy,3311 NORTH PULASKI ROAD,CHICAGO,60641,,,,
Walgreens,3019 W PETERSON AVE,Chicago,60659,,,,
32nd Ward Office,2657 N CLYBOURN AVE,CHICAGO,60614,,,,
Walgreens,1533 E 67TH ST,CHICAGO,60637,,,,
St. Francis of Assisi Church,813 W. Roosevelt Rd.,Chicago,60608,,,,
Walgreens,5230 N MILWAUKEE AVE,CHICAGO,60630,,,,
St. Francis of Assisi Church,813 W. Roosevelt Rd.,Chicago,60608,,,,
Walgreens,151 N STATE ST,CHICAGO,60601,,,,
Truman College-Family Flu Day,1145 W. Wilson Ave.,Chicago,60640,,,,
Kmart Pharmacy,7050 S PULASKI,CHICAGO,60629,,,,
CVS/pharmacy,2825 WEST DEVON AVENUE,CHICAGO,60659,,,,
Walgreens,4343 N CENTRAL AVE,CHICAGO,60634,,,,
Chicago Police Department - HQ,3510 S. Michigan Ave.,Chicago,60653,,,,
Walgreens,2340 W MADISON ST,Chicago,60612,,,,
19th Ward Office,10402 S. Western Ave.,Chicago,60643,,,,
13th Ward-West Lawn Park,4233 W. 65th St.,Chicago,60629,,,,
Walgreens,7109 S JEFFERY BLVD,CHICAGO,60649,,,,
CVS/pharmacy,6150 N BROADWAY ST,Chicago,60660,,,,
33rd Ward Office,3001 W. Irving Park Rd.,Chicago,60618,,,,
Walgreens,4040 N CICERO AVE,Chicago,60641,,,,
Walgreens,201 W MADISON ST,CHICAGO,60606,,,,
Physicians Immediate Care,600 W. Adams St.,Chicago,60661,,,,
10th Ward Office,10500 S. Ewing Ave.,Chicago,60617,,,,
CVS/pharmacy,2414 NORTH LINCOLN AVENUE,Chicago,60614,,,,
CVS/pharmacy,5205 NORTH BROADWAY STREET,CHICAGO,60640,,,,
Walgreens,4817 W FULLERTON AVE,Chicago,60639,,,,
Walgreens,641 N CLARK ST,Chicago,60654,,,,
CVS/pharmacy,1211 WEST ROOSEVELT ROAD,Chicago,60608,,,,
Walgreens,191 N CLARK ST,CHICAGO,60601,,,,
Walgreens,650 W 63RD ST,CHICAGO,60621,,,,
Walgreens,11 E 75TH ST,CHICAGO,60619,,,,
CVS/pharmacy,2414 NORTH LINCOLN AVENUE,Chicago,60614,,,,
48th Ward Office,5533 N BROADWAY,CHICAGO,60640,,,,
6th Ward Office,8001 S. M L King Drive,Chicago,60619,,,,
6th Ward Office,706 E. 79th St.,Chicago,60619,,,,
CVS/pharmacy,2634 SOUTH PULASKI ROAD,Chicago,60623,,,,
Walgreens,10300 S MICHIGAN AVE,Chicago,60628,,,,
Walgreens,7155 W FOSTER AVE,CHICAGO,60656,,,,
29th Ward Office,6272 W. North Ave.,Chicago,60639,,,,
Walgreens,5753 N CANFIELD AVE,CHICAGO,60631,,,,
Walgreens,2317 N CLARK ST,Chicago,60614,,,,
CVS/pharmacy,6417 WEST HIGGINS AVENUE,CHICAGO,60656,,,,
50th Ward Office,2949 W DEVON AVE,CHICAGO,60659,,,,
Walgreens,3611 E 106TH ST,Chicago,60617,,,,
CVS/pharmacy,1819 NORTH HARLEM AVENUE,CHICAGO,60707,,,,
Englewood Neighborhood Health Center,641 W 63RD ST,CHICAGO,60621,,,,
Lower West WIC,1713 S. Ashland Ave.,Chicago,60608,,,,
Walgreens,5414 S ARCHER AVE,CHICAGO,60638,,,,
CVS/pharmacy,1165 NORTH CLARK STREET,CHICAGO,60610,,,,
MinuteClinic Inside CVS/pharmacy Store # 08750,4801 NORTH CENTRAL AVENUE,CHICAGO,60630,,,,
Arturo Velasquez Institute-Family Flu Day,2800 S. Western Ave.,Chicago,60608,,,,
Jewel-Osco 3262,4660 W Irving Park Rd,Chicago,60641,,,,
Walgreens,3401 W ROOSEVELT RD,Chicago,60624,,,,
CVS/pharmacy,2828 N. CLARK STREET,CHICAGO,60657,,,,
Walgreens,151 N STATE ST,Chicago,60601,,,,
3rd Ward-Mt. Pisgah Baptist Church,4622 S KING DRIVE,CHICAGO,60653,,,,
13th Ward-West Lawn Park,4233 W. 65th St.,Chicago,60629,,,,
Jewel-Osco 3241,1343 North Paulina,Chicago,60622,,,,
CVS/pharmacy,2427 WEST CHICAGO AVENUE,CHICAGO,60622,,,,
Walgreens,3320 W FULLERTON AVE,Chicago,60647,,,,
Walgreens,1213 W 79TH ST,Chicago,60620,,,,
CVS/pharmacy,1713 SOUTH ASHLAND AVENUE,Chicago,60608,,,,
CVS/pharmacy,1713 SOUTH ASHLAND AVENUE,Chicago,60608,,,,
CVS/pharmacy,1228 E 53RD ST,CHICAGO,60615,,,,
31st Ward-St. Genevieve Church,2451 N LAMON AVE,CHICAGO,60639,,,,
29th Ward Office,6272 W. North Ave.,Chicago,60639,,,,
Walgreens,953 W IRVING PARK RD,CHICAGO,60613,,,,
Walgreens,2817 N CLARK ST,CHICAGO,60657,,,,
CVS/pharmacy,4051 NORTH LINCOLN AVENUE,Chicago,60618,,,,
Walgreens,7510 N WESTERN AVE,CHICAGO,60645,,,,
CVS/pharmacy,3033 NORTH BROADWAY STREET,Chicago,60657,,,,
Walgreens,7544 S STONY ISLAND AVE,CHICAGO,60649,,,,
Walgreens,79 W MONROE ST,CHICAGO,60603,,,,
Walgreens,5230 N MILWAUKEE AVE,Chicago,60630,,,,
Wright College-Family Flu Day,4300 N. Narragansett Ave.,Chicago,60634,,,,
Walgreens,410 N. MICHIGAN,CHICAGO,60611,,,,
Walgreens,5935 W ADDISON ST,CHICAGO,60634,,,,
Walgreens,3800 W MADISON ST STE 101,CHICAGO,60624,,,,
Walgreens,250 S WACKER DR,CHICAGO,60606,,,,
34th Ward Office,507 W. 111th St.,Chicago,60628,,,,
37th Ward Office,4922 W. Chicago Ave.,Chicago,60651,,,,
Physicians Immediate Care,4211 N. Cicero Ave.,Chicago,60641,,,,
Walgreens,3019 W PETERSON AVE,Chicago,60659,,,,
CVS/pharmacy,9142 SOUTH CHICAGO AVENUE,CHICAGO,60617,,,,
Walgreens,5440 N CLARK ST,CHICAGO,60640,,,,
CVS/pharmacy,1211 WEST ROOSEVELT ROAD,Chicago,60608,,,,
Walgreens,2924 E 92ND ST,Chicago,60617,,,,
CVS/pharmacy,8639 SOUTH CICERO AVENUE,Chicago,60652,,,,
CVS/pharmacy,137 S STATE ST,Chicago,60603,,,,
Walgreens,1601 N MILWAUKEE AVE,CHICAGO,60647,,,,
48th Ward Office,5533 N. Broadway St.,Chicago,60640,,,,
4th Ward-Oak Shores Community Center,3825 S. Vincennes Ave.,Chicago,60653,,,,
Walgreens,4343 N KEDZIE AVE,CHICAGO,60618,,,,
Walgreens,3046 N HALSTED ST,CHICAGO,60657,,,,
43rd Ward DePaul University,2400 N SHEFFIELD AVE,CHICAGO,60614,,,,
Walgreens,6809 W BELMONT AVE,CHICAGO,60634,,,,
Chicago Police Department - 25th District,5555 W. Grand Ave.,Chicago,60639,,,,
CVS/pharmacy,205 NORTH COLUMBUS DRIVE,Chicago,60601,,,,
Walgreens,4700 S HALSTED ST,CHICAGO,60609,,,,
Walgreens,6330 S KING DR,CHICAGO,60637,,,,
CVS/pharmacy,771 NORTH OGDEN AVENUE,Chicago,60622,,,,
CVS/pharmacy,3156 WEST 103RD STREET,CHICAGO,60655,,,,
Walgreens,3401 W ROOSEVELT RD,Chicago,60624,,,,
Chicago Police Department - Area South,727 E. 111th St.,Chicago,60628,,,,
CVS/pharmacy,3411 WEST ADDISON STREET,CHICAGO,60618,,,,
CVS/pharmacy,2825 WEST DEVON AVENUE,CHICAGO,60659,,,,
24th Ward Office,1158 S. Keeler Ave.,Chicago,60624,,,,
CVS/pharmacy,6417 WEST HIGGINS AVENUE,CHICAGO,60656,,,,
Walgreens,3424 W BELMONT AVE,CHICAGO,60618,,,,
Walgreens,2744 N CALIFORNIA AVE,Chicago,60647,,,,
CVS/pharmacy,1165 NORTH CLARK STREET,CHICAGO,60610,,,,
Walgreens,4720 N MARINE DR,CHICAGO,60640,,,,
Lower West WIC,1713 S. Ashland Ave.,Chicago,60608,,,,
43rd Ward-DePaul Student Center,2250 N. Sheffield Ave.,Chicago,60614,,,,
Walgreens,740 W DIVERSEY PKWY,CHICAGO,60614,,,,
Walgreens,1649 W BELMONT AVE,CHICAGO,60657,,,,
Walgreens,2440 W NORTH AVE,CHICAGO,60647,,,,
Walgreens,79 W MONROE ST,CHICAGO,60603,,,,
Walgreens,2440 W NORTH AVE,CHICAGO,60647,,,,
21st Ward Office,9011 S. Ashland Ave.,Chicago,60620,,,,
Walgreens,191 N CLARK ST,CHICAGO,60601,,,,
CVS/pharmacy,1550 NORTH KOSTNER AVENUE,Chicago,60639,,,,
CVS/pharmacy,1211 WEST ROOSEVELT ROAD,CHICAGO,60608,,,,
Walgreens,3110 W ARMITAGE AVE,CHICAGO,60647,,,,
39th Ward Office,4404 W. Lawrence Ave.,Chicago,60630,,,,
Walgreens,250 S WACKER DR,CHICAGO,60606,,,,
Walgreens,2817 N CLARK ST,CHICAGO,60657,,,,
Walgreens,3646 N BROADWAY ST,CHICAGO,60613,,,,
Walgreens,650 W 63RD ST,Chicago,60621,,,,
Walgreens,8636 S ASHLAND AVE,CHICAGO,60620,,,,
Walgreens,4025 N SHERIDAN RD,CHICAGO,60613,,,,
Walgreens,250 S WACKER DR,Chicago,60606,,,,
CVS/pharmacy,6510 NORTH SHERIDAN ROAD,Chicago,60626,,,,
Walgreens,225 E CHICAGO AVE,Chicago,60611,,,,
CVS/pharmacy,101 NORTH CLINTON STREET,CHICAGO,60661,,,,
Walgreens,11801 S AVENUE O,CHICAGO,60617,,,,
Walgreens,3646 N BROADWAY ST,CHICAGO,60613,,,,
Walgreens,4005 W 26TH ST,Chicago,60623,,,,
CVS/pharmacy,6355 WEST BELMONT,Chicago,60634,,,,
CVS/pharmacy,8712 SOUTH STONY ISLAND AVENUE,Chicago,60619,,,,
Walgreens,1213 W 79TH ST,CHICAGO,60620,,,,
Walgreens,111 S HALSTED ST,CHICAGO,60661,,,,
Walgreens,7045 S PULASKI RD,CHICAGO,60629,,,,
Walgreens,5625 N RIDGE AVE,Chicago,60660,,,,
Walgreens,16 W ADAMS ST,CHICAGO,60603,,,,
City Hall-11th Floor Lobby,121 N. LaSalle St.,Chicago,60602,,,,
Walgreens,2817 N CLARK ST,Chicago,60657,,,,
Jewel-Osco 3176,9402 S. Ashland,Chicago,60620,,,,
MinuteClinic Inside CVS/pharmacy Store # 08751,4051 NORTH LINCOLN AVENUE,CHICAGO,60618,,,,
CVS/pharmacy,2427 WEST CHICAGO AVENUE,Chicago,60622,,,,
Jewel-Osco 3241,1343 North Paulina,Chicago,60622,,,,
Walgreens,3303 W 26TH ST,Chicago,60623,,,,
Jewel-Osco 3176,9402 S. Ashland,Chicago,60620,,,,
25th Ward - Alivio Medical Center,966 W. 21st St.,Chicago,60608,,,,
CVS/pharmacy,8025 SOUTH ASHLAND AVENUE,CHICAGO,60620,,,,
Walgreens,201 W MADISON ST,CHICAGO,60606,,,,
CVS/pharmacy,130 SOUTH CANAL STREET,CHICAGO,60606,,,,
MinuteClinic Inside CVS/pharmacy Store # 05836,1228 EAST 53RD STREET,CHICAGO,60637,,,,
Walgreens,1650 W CHICAGO AVE,Chicago,60622,,,,
Walgreens,1001 W BELMONT AVE,Chicago,60657,,,,
Walgreens,4001 W IRVING PARK RD,CHICAGO,60641,,,,
Walgreens,4001 W IRVING PARK RD,CHICAGO,60641,,,,
CVS/pharmacy,401 WEST ARMITAGE AVENUE,CHICAGO,60614,,,,
39th Ward Office,4404 W. Lawrence Ave.,Chicago,60630,,,,
Wright College - Family Flu Day,4300 N. Narragansett Ave.,Chicago,60634,,,,
Walgreens,5147 S ASHLAND AVE,CHICAGO,60609,,,,
Walgreens,300 N MICHIGAN AVE,Chicago,60601,,,,
Chicago Police Department - 25th District,5555 W GRAND AVE,CHICAGO,60639,,,,
Walgreens,315 W CHICAGO AVE,CHICAGO,60654,,,,
Walgreens,5222 W MADISON ST,Chicago,60644,,,,
CVS/pharmacy,2414 NORTH LINCOLN AVENUE,CHICAGO,60614,,,,
Kmart Pharmacy,4201 N. HARLEM AVENUE,NORRIDGE,60706,,,,
CVS/pharmacy,3637 N SOUTHPORT AVE,Chicago,60613,,,,
CVS/pharmacy,1165 NORTH CLARK STREET,Chicago,60610,,,,
Walgreens,6315 S KEDZIE AVE,CHICAGO,60629,,,,
CVS/pharmacy,1200 NORTH ASHLAND AVENUE,CHICAGO,60622,,,,
CVS/pharmacy,3552 WEST GRAND AVENUE,CHICAGO,60651,,,,
Truman College-Family Flu Day,1145 W. Wilson Ave.,Chicago,60640,,,,
Walgreens,2345 W 103RD ST,CHICAGO,60643,,,,
CVS/pharmacy,3343 WEST MONTROSE AVENUE,Chicago,60618,,,,
St. Pius V Parish,1919 S. Ashland Ave.,Chicago,60608,,,,
Walgreens,4710 S WESTERN AVE,CHICAGO,60609,,,,
CVS/pharmacy,9142 SOUTH CHICAGO AVENUE,Chicago,60617,,,,
Daley College-Family Flu Day,7500 S. Pulaski Rd.,Chicago,60652,,,,
Walgreens,1554 E 55TH ST,CHICAGO,60615,,,,
Walgreens,6140 N WESTERN AVE,CHICAGO,60659,,,,
Walgreens,7111 S WESTERN AVE,CHICAGO,60636,,,,
CVS/pharmacy,137 SOUTH STATE STREET,Chicago,60603,,,,
Walgreens,3045 W 26TH ST,CHICAGO,60623,,,,
City Hall-11th Floor Lobby,121 N. LaSalle St.,Chicago,60602,,,,
Walgreens,225 E CHICAGO AVE,CHICAGO,60611,,,,
Walgreens,641 N CLARK ST,CHICAGO,60654,,,,
Walgreens,833 W 115TH ST,CHICAGO,60643,,,,
CVS/pharmacy,121 WEST KINZIE STREET,CHICAGO,60610,,,,
Masjid Al Farooq,8950 S. Stony Island Ave.,Chicago,60617,,,,
Walgreens,5435 S KEDZIE AVE,CHICAGO,60632,,,,
Walgreens,1931 W CERMAK RD,Chicago,60608,,,,
CVS/pharmacy,105 SOUTH WABASH AVENUE,CHICAGO,60603,,,,
44th Ward-Chicago Police Department 19th District,850 W. Addison St.,Chicago,60613,,,,
Walgreens,3220 W 111TH ST,CHICAGO,60655,,,,
Walgreens,3303 W 26TH ST,Chicago,60623,,,,
10th Ward Office,10500 S. Ewing Ave.,Chicago,60617,,,,
Chicago State University,9501 S. King Dr.,Chicago,60628,,,,
25th Ward-Ruby Lozano Library,1805 S. Loomis Ave.,Chicago,60608,,,,
CVS/pharmacy,3940 WEST FULLERTON AVENUE,Chicago,60647,,,,
Kmart Pharmacy,17355 TORRENCE AVE,LANSING,60438,,,,
Walgreens,3320 W FULLERTON AVE,Chicago,60647,,,,
MinuteClinic Inside CVS/pharmacy Store # 04189,2828 N. CLARK STREET,CHICAGO,60657,,,,
23rd Ward-West Communities YMCA,6235 S. Homan Ave.,Chicago,60629,,,,
Walgreens,7410 N CLARK ST,CHICAGO,60626,,,,
Walgreens,250 S WACKER DR,Chicago,60606,,,,
CVS/pharmacy,1819 NORTH HARLEM AVENUE,Chicago,60707,,,,
35th Ward Office,2710 N. Sawyer Ave.,Chicago,60647,,,,
Walgreens,2835 N SHEFFIELD AVE STE 505,CHICAGO,60657,,,,
100 Black Men Health Expo at Malcolm X College,1900 W. Jackson Blvd.,Chicago,60612,,,,
CVS/pharmacy,2418 WEST DIVISION STREET,CHICAGO,60622,,,,
Walgreens,2351 E 71st,Chicago,60649,,,,
Chicago Police Department-Area North,2452 W. Belmont Ave.,Chicago,60618,,,,
50th Ward-Croatian Cultural Center,2845 W. Devon Ave.,Chicago,60659,,,,
MinuteClinic Inside CVS/pharmacy Store # 02798,3951 WEST 103RD STREET,CHICAGO,60655,,,,
Walgreens,2 E ROOSEVELT RD,CHICAGO,60605,,,,
CVS/pharmacy,11 EAST 14TH STREET,CHICAGO HEIGHTS,60411,,,,
Chicago Police Department-Area Central,5101 S. Wentworth Ave.,Chicago,60609,,,,
Walgreens,3222 N MILWAUKEE AVE,Chicago,60618,,,,
CVS/pharmacy,771 NORTH OGDEN AVENUE,Chicago,60622,,,,
CVS/pharmacy,11 EAST 14TH STREET,Chicago,60411,,,,
Walgreens,5650 W BELMONT AVE,CHICAGO,60634,,,,
Walgreens,3943 W 47TH ST,CHICAGO,60632,,,,
Walgreens,79 W MONROE ST,CHICAGO,60603,,,,
Walgreens,6121 N BROADWAY,CHICAGO,60660,,,,
Walgreens,501 W ROOSEVELT RD,Chicago,60607,,,,
Walgreens,757 N MICHIGAN AVE,CHICAGO,60611,,,,
Walgreens,740 W DIVERSEY PKWY,Chicago,60614,,,,
37th Ward Office,4924 W CHICAGO AVE,CHICAGO,60651,,,,
Walgreens,7109 S JEFFERY BLVD,CHICAGO,60649,,,,
Walgreens,4225 W ARMITAGE AVE,CHICAGO,60639,,,,
CVS/pharmacy,3944 NORTH WESTERN AVENUE,CHICAGO,60618,,,,
CVS/pharmacy,120 SOUTH LASALLE STREET,Chicago,60603,,,,
Walgreens,711 W NORTH AVE STE 204,CHICAGO,60610,,,,
Walgreens,650 W 63RD ST,CHICAGO,60621,,,,
Walgreens,3646 N BROADWAY ST,CHICAGO,60613,,,,
Walgreens,1520 W FULLERTON AVE,CHICAGO,60614,,,,
8th Ward Office,8539 S. Cottage Grove Ave.,Chicago,60619,,,,
Walgreens,122 S MICHIGAN AVE,CHICAGO,60603,,,,
Walgreens,1546 N CENTRAL AVE,Chicago,60651,,,,
CVS/pharmacy,175 WEST JACKSON BOULEVARD,Chicago,60604,,,,
Walgreens,15 W WASHINGTON ST,CHICAGO,60602,,,,
CVS/pharmacy,208 WEST WASHINGTON,Chicago,60606,,,,
CVS/pharmacy,771 NORTH OGDEN AVENUE,Chicago,60622,,,,
Walgreens,4225 W ARMITAGE AVE,Chicago,60639,,,,
Walgreens,1213 W 79TH ST,CHICAGO,60620,,,,
Walgreens,3201 N BROADWAY ST,CHICAGO,60657,,,,
46th Ward-Weiss Hospital,4646 N MARINE DR,CHICAGO,60640,,,,
Walgreens,933 N STATE ST,CHICAGO,60610,,,,
Walgreens,3046 N HALSTED ST,CHICAGO,60657,,,,
12th Ward-McKinley Park,2210 W PERSHING RD,CHICAGO,60609,,,,
Walgreens,122 S MICHIGAN AVE,Chicago,60603,,,,
Walgreens,4225 W ARMITAGE AVE,CHICAGO,60639,,,,
Walgreens,1601 N MILWAUKEE AVE,Chicago,60647,,,,
Walgreens,6310 N NAGLE AVE,CHICAGO,60646,,,,
Walgreens,833 W 115TH ST,CHICAGO,60643,,,,
CVS/pharmacy,"344 WEST HUBBARD STREET, CORNER OF ORLEANS",CHICAGO,60654,,,,
Bernard Horwich JCC,3003 W. Touhy Ave.,Chicago,60645,,,,
Walgreens,9434 S HALSTED ST,CHICAGO,60620,,,,
Roseland Community WIC,11255 S MICHIGAN AVE,CHICAGO,60628,,,,
CVS/pharmacy,1228 EAST 53RD STREET,CHICAGO,60637,,,,
CVS/pharmacy,8639 SOUTH CICERO AVENUE,CHICAGO,60652,,,,
CVS/pharmacy,2825 WEST DEVON AVENUE,CHICAGO,60659,,,,
45th Ward-Copernicus Center,5216 W. Lawrence Ave.,Chicago,60630,,,,
CVS/pharmacy,1620 WEST 59TH STREET,CHICAGO,60621,,,,
CVS/pharmacy,6510 NORTH SHERIDAN ROAD,Chicago,60626,,,,
Walgreens,641 N CLARK ST,CHICAGO,60654,,,,
Truman College - Family Flu Day,1145 W. Wilson Ave.,Chicago,60640,,,,
CVS/pharmacy,8639 SOUTH CICERO AVENUE,CHICAGO,60652,,,,
Walgreens,1601 N MILWAUKEE AVE,CHICAGO,60647,,,,
Walgreens,5600 W FULLERTON AVE,Chicago,60639,,,,
Walgreens,2744 N CALIFORNIA AVE,CHICAGO,60647,,,,
2nd Ward-St. Nicholas Ukrainian Rectory,2238 W. Rice St.,Chicago,60622,,,,
Walgreens,4000 W 59TH ST,Chicago,60629,,,,
Walgreens,3245 N HALSTED ST,CHICAGO,60657,,,,
28th Ward Office,2622 W. Jackson Blvd.,Chicago,60608,,,,
CVS/pharmacy,1200 NORTH ASHLAND AVENUE,Chicago,60622,,,,
Walgreens,6315 S KEDZIE AVE,CHICAGO,60629,,,,
Walgreens,1520 W FULLERTON AVE,CHICAGO,60614,,,,
Walgreens,4010 W LAWRENCE AVE,CHICAGO,60630,,,,
Daley College-Family Flu Day,7500 S. Pulaski Rd.,Chicago,60652,,,,
Walgreens,225 E CHICAGO AVE,Chicago,60611,,,,
Walgreens,3045 W 26TH ST,CHICAGO,60623,,,,
Walgreens,151 N STATE ST,CHICAGO,60601,,,,
Walgreens,4710 S WESTERN AVE,Chicago,60609,,,,
Walgreens,11 E 75TH ST,CHICAGO,60619,,,,
24th Ward Office,1158 S. Keeler Ave.,Chicago,60624,,,,
Walgreens,757 N MICHIGAN AVE,Chicago,60611,,,,
Walgreens,8628 S COTTAGE GROVE AVE,CHICAGO,60619,,,,
10th Ward Office,10500 S. Ewing Ave.,Chicago,60617,,,,
Walgreens,5158 N LINCOLN AVE,CHICAGO,60625,,,,
CVS/pharmacy,4800 NORTH DAMEN AVENUE,CHICAGO,60625,,,,
25th Ward Office,1645 S. Blue Island,Chicago,60608,,,,
Chicago Department of Family Support Services,10 S. Kedzie Ave.,Chicago,60612,,,,
39th Ward Office,4404 W. Lawrence Ave.,Chicago,60630,,,,
41st Ward-Norwood Park Senior Center,5801 N. Natoma Ave.,Chicago,60631,,,,
Walgreens,5435 S KEDZIE AVE,CHICAGO,60632,,,,
Walgreens,4700 S HALSTED ST,Chicago,60609,,,,
CVS/pharmacy,401 WEST ARMITAGE AVENUE,Chicago,60614,,,,
49th Ward Office,7356 N. Greenview Ave.,Chicago,60626,,,,
4th Ward-Prince Hall Grand Lodge,809 E 42ND PL,CHICAGO,60653,,,,
Physicians Immediate Care,5961 North Lincoln Avenue,Chicago,60659,,,,
Walgreens,7652 W TOUHY AVE,Chicago,60631,,,,
48th Ward Office,5533 N. Broadway St.,Chicago,60640,,,,
Chicago Police Department - 2nd District,5101 S WENTWORTH AVE,CHICAGO,60609,,,,
CVS/pharmacy,9142 SOUTH CHICAGO AVENUE,Chicago,60617,,,,
Walgreens,6809 W BELMONT AVE,Chicago,60634,,,,
Walgreens,1200 N DEARBORN ST,CHICAGO,60610,,,,
Walgreens,4720 N MARINE DR,CHICAGO,60640,,,,
Walgreens,7155 W FOSTER AVE,CHICAGO,60656,,,,
Walgreens,2301 W IRVING PARK RD,Chicago,60618,,,,
Walgreens,3320 W FULLERTON AVE,CHICAGO,60647,,,,
Walgreens,3245 N HALSTED ST,CHICAGO,60657,,,,
Walgreens,4000 W 59TH ST,CHICAGO,60629,,,,
Walgreens,7410 N CLARK ST,CHICAGO,60626,,,,
Walgreens,7045 S PULASKI RD,Chicago,60629,,,,
Walgreens,5625 N RIDGE AVE,Chicago,60660,,,,
Walgreens,680 N LAKE SHORE DR,CHICAGO,60611,,,,
16th Ward Office,3045 W. 63rd St.,Chicago,60629,,,,
Walgreens,3800 W MADISON ST STE 101,CHICAGO,60624,,,,
Walgreens,410 N MICHIGAN,Chicago,60611,,,,
19th Ward Office,10402 S. Western Ave.,Chicago,60643,,,,
Walgreens,5440 N CLARK ST,CHICAGO,60640,,,,
CVS/pharmacy,4051 N LINCOLN AVE,CHICAGO,60618,,,,
CVS/pharmacy,11055 SOUTH WESTERN AVENUE,Chicago,60643,,,,
11th Ward-McGuane Park,2901 S. Poplar Ave.,Chicago,60608,,,,
39th Ward Office,4404 W. Lawrence Ave.,Chicago,60630,,,,
45th Ward Office,4754 N. Milwaukee Ave.,Chicago,60630,,,,
Walgreens,711 W NORTH AVE STE 204,CHICAGO,60610,,,,
Walgreens,4040 N CICERO AVE,CHICAGO,60641,,,,
47th Ward-Sulzer Library,4455 N. Lincoln Ave.,Chicago,60625,,,,
CVS/pharmacy,1201 NORTH STATE STREET,CHICAGO,60610,,,,
CVS/pharmacy,1201 NORTH STATE STREET,CHICAGO,60610,,,,
CVS/pharmacy,9142 SOUTH CHICAGO AVENUE,CHICAGO,60617,,,,
Walgreens,2 North State St,CHICAGO,60601,,,,
Walgreens,2345 W 103RD ST,Chicago,60643,,,,
Walgreens,316 W CERMAK RD,CHICAGO,60616,,,,
CVS/pharmacy,2545 MARTIN LUTHER KING,Chicago,60606,,,,
Walgreens,1601 N WELLS ST,Chicago,60614,,,,
Walgreens,3320 W FULLERTON AVE,CHICAGO,60647,,,,
Walgreens,"251 E HURON STREET, SUITE 2B114",Chicago,60611,,,,
Walgreens,1633 W 95TH ST,CHICAGO,60643,,,,
CVS/pharmacy,3411 WEST ADDISON STREET,Chicago,60618,,,,
CVS/pharmacy,1620 WEST 59TH STREET,CHICAGO,60621,,,,
Walgreens,3045 W 26TH ST,CHICAGO,60623,,,,
Walgreens,1616 E 87TH ST,CHICAGO,60617,,,,
CVS/pharmacy,2427 WEST CHICAGO AVENUE,Chicago,60622,,,,
12th Ward - McKinley Park Fieldhouse,2210 W. Pershing Rd.,Chicago,60609,,,,
Jewel-Osco 3092,1655 E. 95th St.,Chicago,60617,,,,
CVS/pharmacy,6315 SOUTH PULASKI ROAD,Chicago,60629,,,,
CVS/pharmacy,1200 NORTH ASHLAND AVENUE,Chicago,60622,,,,
Walgreens,347 E 95TH ST,CHICAGO,60619,,,,
Daley College-Family Flu Day,7500 S. Pulaski Rd.,Chicago,60652,,,,
38th Ward Office,3821 N. Harlem Ave.,Chicago,60634,,,,
Walgreens,4745 W BELMONT AVE,Chicago,60641,,,,
38th Ward Office,3821 N. Harlem Ave.,Chicago,60634,,,,
CVS/pharmacy,7855 SOUTH WESTERN AVENUE,CHICAGO,60652,,,,
Walgreens,30 N MICHIGAN AVE,CHICAGO,60602,,,,
CVS/pharmacy,208 WEST WASHINGTON,Chicago,60606,,,,
7th Ward-Compassion Baptist Church,2650 E. 95th St.,Chicago,60617,,,,
Walgreens,1554 E 55TH ST,CHICAGO,60615,,,,
CVS/pharmacy,1713 SOUTH ASHLAND AVENUE,CHICAGO,60608,,,,
CVS/pharmacy,2427 WEST CHICAGO AVENUE,CHICAGO,60622,,,,
CVS/pharmacy,1714 NORTH SHEFFIELD AVENUE,Chicago,60614,,,,
Walgreens,1614 W 47TH ST,CHICAGO,60609,,,,
30th Ward-Kilbourn Park,3501 N. Kilbourn Ave.,Chicago,60641,,,,
15th Ward Office,1650 W. 63rd St.,Chicago,60636,,,,
Walgreens,4225 W ARMITAGE AVE,CHICAGO,60639,,,,
Walgreens,5874 S ARCHER AVE,CHICAGO,60638,,,,
Walgreens,3611 E 106TH ST,CHICAGO,60617,,,,
CVS/pharmacy,1165 N CLARK,Chicago,60610,,,,
Jewel-Osco 3407,5532 North Clark,Chicago,60640,,,,
Arturo Velasquez Institute - Family Flu Day,2800 S. Western Ave.,Chicago,60608,,,,
CVS/pharmacy,401 WEST ARMITAGE AVENUE,CHICAGO,60614,,,,
Walgreens,5036 S COTTAGE GROVE AVE,Chicago,60615,,,,
Walgreens,3245 N HALSTED ST,CHICAGO,60657,,,,
34th Ward Office,507 W. 111th St.,Chicago,60628,,,,
Walgreens,3110 W ARMITAGE AVE,Chicago,60647,,,,
CVS/pharmacy,3944 NORTH WESTERN AVENUE,CHICAGO,60618,,,,
Walgreens,4700 S HALSTED ST,CHICAGO,60609,,,,
CVS/pharmacy,7855 SOUTH WESTERN AVENUE,CHICAGO,60652,,,,
CVS/pharmacy,4801 N CENTRAL AVE,CHICAGO,60630,,,,
CVS/pharmacy,3552 WEST GRAND AVENUE,CHICAGO,60651,,,,
Villa Guadalupe Senior Service Inc.,3201 E. 91st St.,Chicago,60617,,,,
Walgreens,3110 W ARMITAGE AVE,CHICAGO,60647,,,,
Walgreens,4720 N MARINE DR,CHICAGO,60640,,,,
Walgreens,5230 N MILWAUKEE AVE,CHICAGO,60630,,,,
Walgreens,2744 N CALIFORNIA AVE,Chicago,60647,,,,
CVS/pharmacy,3146 WEST MADISON,CHICAGO,60612,,,,
St. Pius V Parish,1919 S. Ashland Ave.,Chicago,60608,,,,
Walgreens,30 N MICHIGAN AVE,Chicago,60602,,,,
Nigerian Progressive Organization,8847 S. Colfax Ave.,Chicago,60617,,,,
Walgreens,6016 W 63RD ST,CHICAGO,60638,,,,
Walgreens,833 W 115TH ST,Chicago,60643,,,,
Walgreens,225 E CHICAGO AVE,CHICAGO,60611,,,,
Walgreens,3405 S KING DR,CHICAGO,60616,,,,
Walgreens,5401 S WENTWORTH AVE,Chicago,60609,,,,
Walgreens,3798 S WESTERN AVE,CHICAGO,60609,,,,
Walgreens,7510 N WESTERN AVE,CHICAGO,60645,,,,
CVS/pharmacy,7858 SOUTH HALSTED STREET,CHICAGO,60620,,,,
Walgreens,7510 N WESTERN AVE,CHICAGO,60645,,,,
Walgreens,2001 N MILWAUKEE AVE,CHICAGO,60647,,,,
CVS/pharmacy,3940 WEST FULLERTON AVENUE,CHICAGO,60647,,,,
Walgreens,7109 S JEFFERY BLVD,CHICAGO,60649,,,,
Jewel-Osco 2508,1763 W Howard St,Chicago,60626,,,,
31st Ward - Maranatha Christian Revival,4301 W. Diversey Ave.,Chicago,60639,,,,
Walgreens,6310 N NAGLE AVE,CHICAGO,60646,,,,
Walgreens,2301 W IRVING PARK RD,CHICAGO,60618,,,,
Walgreens,410 N MICHIGAN,CHICAGO,60611,,,,
CVS/pharmacy,205 NORTH COLUMBUS DRIVE,CHICAGO,60601,,,,
MinuteClinic Inside CVS/pharmacy Store # 05836,1228 EAST 53RD STREET,CHICAGO,60637,,,,
12th Ward-McKinley Park Fieldhouse,2210 W. Pershing Rd.,Chicago,60609,,,,
Walgreens,4745 W BELMONT AVE,CHICAGO,60641,,,,
CVS/pharmacy,208 WEST WASHINGTON,Chicago,60606,,,,
Chicago Police Department - 5th District,727 E 111TH ST,CHICAGO,60628,,,,
18th Ward Office,8359 S. Pulaski Rd.,Chicago,60652,,,,
Lower West WIC,1643 W CERMAK RD,CHICAGO,60608,,,,
34th Ward Office,507 W. 111th St.,Chicago,60628,,,,
Walgreens,111 S HALSTED ST,Chicago,60661,,,,
Walgreens,5036 S COTTAGE GROVE AVE,CHICAGO,60615,,,,
Walgreens,4010 W LAWRENCE AVE,CHICAGO,60630,,,,
17th Ward Office,1344 W. 79th St.,Chicago,60620,,,,
Walgreens,1213 W 79TH ST,Chicago,60620,,,,
CVS/pharmacy,344 W HUBBARD ST,Chicago,60654,,,,
40th Ward Office,5850 N. Lincoln Ave.,Chicago,60659,,,,
45th Ward - Jefferson Park Field House,4822 N. Long Ave.,Chicago,60630,,,,
11th Ward-McGuane Park,2901 S. Poplar Ave.,Chicago,60608,,,,
Greater Lawn WIC,4150 W 55TH ST,CHICAGO,60632,,,,
Walgreens,3303 W 26TH ST,CHICAGO,60623,,,,
Walgreens,933 N STATE ST,CHICAGO,60610,,,,
St Francis of Assisi,813 W. Roosevelt Rd.,Chicago,60608,,,,
CVS/pharmacy,3343 WEST MONTROSE AVENUE,CHICAGO,60618,,,,
CVS/pharmacy,1201 NORTH STATE STREET,Chicago,60610,,,,
CVS/pharmacy,6150 N BROADWAY ST,CHICAGO,60660,,,,
22nd Ward-Toman Library,2708 S. Pulaski Rd.,Chicago,60623,,,,
Walgreens,5140 W DIVERSEY AVE,CHICAGO,60639,,,,
CVS/pharmacy,3343 WEST MONTROSE AVENUE,CHICAGO,60618,,,,
Walgreens,1633 W 95TH ST,CHICAGO,60643,,,,
Cherubim & Seraphim Church (North),4850 N. Sawyer Ave.,Chicago,60625,,,,
11th Ward-McGuane Park,2901 S POPLAR AVE,CHICAGO,60608,,,,
41st Ward-Norwood Park Senior Center,5801 N. Natoma Ave.,Chicago,60631,,,,
Walgreens,4801 N LINCOLN AVE,Chicago,60625,,,,
Walgreens,225 E CHICAGO AVE,CHICAGO,60611,,,,
Walgreens,347 E 95TH ST,CHICAGO,60619,,,,
36th Ward Office,6934 W. Diversey Ave.,Chicago,60707,,,,
14th Ward-Polish Highlanders,4808 S ARCHER AVE,CHICAGO,60632,,,,
Walgreens,1554 E 55TH ST,CHICAGO,60615,,,,
CVS/pharmacy,641 WEST 63RD STREET,CHICAGO,60652,,,,
7th Ward,2249 E. 95th St.,Chicago,60617,,,,
20th Ward Office,6357 S. Cottage Grove Ave.,Chicago,60637,,,,
Walgreens,1320 E 47TH ST,CHICAGO,60653,,,,
Walgreens,4025 N SHERIDAN RD,CHICAGO,60613,,,,
Uptown Neighborhood Health Center,845 W WILSON AVE,CHICAGO,60640,,,,
CVS/pharmacy,205 N. MICHIGAN AVENUE,Chicago,60601,,,,
23rd Ward-West Lawn Library,4020 W. 63rd St.,Chicago,60629,,,,
CVS/pharmacy,1714 NORTH SHEFFIELD AVENUE,Chicago,60614,,,,
31st Ward-Kosciuszko Park,2732 N. Avers Ave.,Chicago,60647,,,,
Physicians Immediate Care,600 W. Adams St.,Chicago,60661,,,,
19th Ward Office,10402 S. Western Ave.,Chicago,60643,,,,
CVS/pharmacy,3615 NORTH CENTRAL AVENUE,CHICAGO,60634,,,,
CVS/pharmacy,4051 NORTH LINCOLN AVENUE,CHICAGO,60618,,,,
Chicago Police Department-Headquarters,3510 S. Michigan Ave.,Chicago,60653,,,,
Walgreens,1649 W BELMONT AVE,CHICAGO,60657,,,,
Walgreens,"251 E HURON STREET, SUITE 2B114",CHICAGO,60611,,,,
Walgreens,5401 S WENTWORTH AVE,CHICAGO,60609,,,,
Walgreens,1533 E 67TH ST,Chicago,60637,,,,
CVS/pharmacy,6315 SOUTH PULASKI ROAD,Chicago,60629,,,,
Jewel-Osco 3632,3630 N. Southport Ave.,Chicago,60613,,,,
CVS/pharmacy,2722 NORTH CENTRAL AVENUE,Chicago,60639,,,,
Chicago Police Department - 11th District,3153 W HARRISON ST,CHICAGO,60612,,,,
Walgreens,740 W DIVERSEY PKWY,CHICAGO,60614,,,,
16th Ward Office,6212 S. Sangamon St.,Chicago,60621,,,,
10th Ward Office,10500 S. Ewing Ave.,Chicago,60617,,,,
Walgreens,1601 N MILWAUKEE AVE,Chicago,60647,,,,
CVS/pharmacy,137 S STATE ST,Chicago,60603,,,,
Walgreens,3934 W DIVERSEY AVE,CHICAGO,60647,,,,
Walgreens,1650 W CHICAGO AVE,Chicago,60622,,,,
CVS/pharmacy,4051 N LINCOLN AVE,Chicago,60618,,,,
Walgreens,5440 N CLARK ST,CHICAGO,60640,,,,
CVS/pharmacy,7858 SOUTH HALSTED STREET,Chicago,60620,,,,
Walgreens,5140 W DIVERSEY AVE,Chicago,60639,,,,
CVS/pharmacy,1228 E 53RD ST,Chicago,60615,,,,
Walgreens,2924 E 92ND ST,CHICAGO,60617,,,,
CVS/pharmacy,3940 WEST FULLERTON AVENUE,Chicago,60647,,,,
CVS/pharmacy,137 S STATE ST,CHICAGO,60603,,,,
CVS/pharmacy,1930 WEST 103RD STREET,CHICAGO,60643,,,,
CVS/pharmacy,745 WEST 103 ROAD STREET,CHICAGO,60628,,,,
Walgreens,11833 S WESTERN AVE,Chicago,60643,,,,
Walgreens,342 E ILLINOIS ST,CHICAGO,60611,,,,
Walgreens,2015 E 79TH ST,Chicago,60649,,,,
Physicians Immediate Care,811 S. State St.,Chicago,60605,,,,
Walgreens,4745 W BELMONT AVE,CHICAGO,60641,,,,
Chicago Church of Christ Metro Ministries,2148 N. Long Ave.,Chicago,60639,,,,
Whole Foods-Family Flu Day,832 W. 63rd St.,Chicago,60621,,,,
CVS/pharmacy,208 WEST WASHINGTON,CHICAGO,60606,,,,
CVS/pharmacy,101 NORTH CLINTON STREET,Chicago,60661,,,,
CVS/pharmacy,7858 SOUTH HALSTED STREET,Chicago,60620,,,,
Walgreens,1614 W 47TH ST,CHICAGO,60609,,,,
49th Ward Office,7356 N. Greenview Ave.,Chicago,60626,,,,
CVS/pharmacy,3944 NORTH WESTERN AVENUE,Chicago,60618,,,,
CVS/pharmacy,845 WEST WILSON AVENUE,CHICAGO,60640,,,,
Walgreens,11801 S AVENUE O,CHICAGO,60617,,,,